{
  "type": "FeatureCollection",
  "features": [
    {
      "type": "Feature",
      "properties": {
        "id": "PUBLIC-001",
        "layer": "PUBLIC_SPACE",
        "source_type": "agent_generated_design",
        "confidence": "low",
        "geometry_role": "design_proposal",
        "name_zh": "连续公共验收脊",
        "planning_status": "conceptual_interface_only",
        "usage_note": "概念空间接口，不代表现状轮廓、权属、法定控制、拆改留或工程承诺；须以官方资料与现场调查替换。",
        "area_sqm_declared": 1023408.98,
        "access_policy": "public_first_opt_in_ai",
        "ai_service_rule": "普通路径先于数字体验；可选择、可接管、可申诉、可退出"
      },
      "geometry": {
        "type": "Polygon",
        "coordinates": [
          [
            [
              116.3455,
              39.941
            ],
            [
              116.3468,
              39.941
            ],
            [
              116.3478,
              40.024
            ],
            [
              116.3465,
              40.024
            ],
            [
              116.3455,
              39.941
            ]
          ]
        ]
      },
      "id": "PUBLIC-001"
    },
    {
      "type": "Feature",
      "properties": {
        "id": "PUBLIC-002",
        "layer": "PUBLIC_SPACE",
        "source_type": "agent_generated_design",
        "confidence": "low",
        "geometry_role": "design_proposal",
        "name_zh": "无障碍双入口",
        "planning_status": "conceptual_interface_only",
        "usage_note": "概念空间接口，不代表现状轮廓、权属、法定控制、拆改留或工程承诺；须以官方资料与现场调查替换。",
        "area_sqm_declared": 1991.678,
        "access_policy": "public_first_opt_in_ai",
        "ai_service_rule": "最小数据、现场告知、人工终审、到期删除、失败公开"
      },
      "geometry": {
        "type": "Polygon",
        "coordinates": [
          [
            [
              116.34475,
              39.98679
            ],
            [
              116.34525,
              39.98679
            ],
            [
              116.34525,
              39.987210000000005
            ],
            [
              116.34475,
              39.987210000000005
            ],
            [
              116.34475,
              39.98679
            ]
          ]
        ]
      },
      "id": "PUBLIC-002"
    },
    {
      "type": "Feature",
      "properties": {
        "id": "PUBLIC-003",
        "layer": "PUBLIC_SPACE",
        "source_type": "agent_generated_design",
        "confidence": "low",
        "geometry_role": "design_proposal",
        "name_zh": "纸面任务票台",
        "planning_status": "conceptual_interface_only",
        "usage_note": "概念空间接口，不代表现状轮廓、权属、法定控制、拆改留或工程承诺；须以官方资料与现场调查替换。",
        "area_sqm_declared": 1991.661,
        "access_policy": "public_first_opt_in_ai",
        "ai_service_rule": "最小数据、现场告知、人工终审、到期删除、失败公开"
      },
      "geometry": {
        "type": "Polygon",
        "coordinates": [
          [
            [
              116.34535000000001,
              39.98739
            ],
            [
              116.34585,
              39.98739
            ],
            [
              116.34585,
              39.98781
            ],
            [
              116.34535000000001,
              39.98781
            ],
            [
              116.34535000000001,
              39.98739
            ]
          ]
        ]
      },
      "id": "PUBLIC-003"
    },
    {
      "type": "Feature",
      "properties": {
        "id": "PUBLIC-004",
        "layer": "PUBLIC_SPACE",
        "source_type": "agent_generated_design",
        "confidence": "low",
        "geometry_role": "design_proposal",
        "name_zh": "安全停靠位",
        "planning_status": "conceptual_interface_only",
        "usage_note": "概念空间接口，不代表现状轮廓、权属、法定控制、拆改留或工程承诺；须以官方资料与现场调查替换。",
        "area_sqm_declared": 1991.643,
        "access_policy": "public_first_opt_in_ai",
        "ai_service_rule": "最小数据、现场告知、人工终审、到期删除、失败公开"
      },
      "geometry": {
        "type": "Polygon",
        "coordinates": [
          [
            [
              116.34595,
              39.987989999999996
            ],
            [
              116.34644999999999,
              39.987989999999996
            ],
            [
              116.34644999999999,
              39.98841
            ],
            [
              116.34595,
              39.98841
            ],
            [
              116.34595,
              39.987989999999996
            ]
          ]
        ]
      },
      "id": "PUBLIC-004"
    },
    {
      "type": "Feature",
      "properties": {
        "id": "PUBLIC-005",
        "layer": "PUBLIC_SPACE",
        "source_type": "agent_generated_design",
        "confidence": "low",
        "geometry_role": "design_proposal",
        "name_zh": "可见人工台",
        "planning_status": "conceptual_interface_only",
        "usage_note": "概念空间接口，不代表现状轮廓、权属、法定控制、拆改留或工程承诺；须以官方资料与现场调查替换。",
        "area_sqm_declared": 1991.626,
        "access_policy": "public_first_opt_in_ai",
        "ai_service_rule": "最小数据、现场告知、人工终审、到期删除、失败公开"
      },
      "geometry": {
        "type": "Polygon",
        "coordinates": [
          [
            [
              116.34655000000001,
              39.988589999999995
            ],
            [
              116.34705,
              39.988589999999995
            ],
            [
              116.34705,
              39.98901
            ],
            [
              116.34655000000001,
              39.98901
            ],
            [
              116.34655000000001,
              39.988589999999995
            ]
          ]
        ]
      },
      "id": "PUBLIC-005"
    },
    {
      "type": "Feature",
      "properties": {
        "id": "PUBLIC-006",
        "layer": "PUBLIC_SPACE",
        "source_type": "agent_generated_design",
        "confidence": "low",
        "geometry_role": "design_proposal",
        "name_zh": "独立申诉台",
        "planning_status": "conceptual_interface_only",
        "usage_note": "概念空间接口，不代表现状轮廓、权属、法定控制、拆改留或工程承诺；须以官方资料与现场调查替换。",
        "area_sqm_declared": 1991.608,
        "access_policy": "public_first_opt_in_ai",
        "ai_service_rule": "最小数据、现场告知、人工终审、到期删除、失败公开"
      },
      "geometry": {
        "type": "Polygon",
        "coordinates": [
          [
            [
              116.34715,
              39.98919
            ],
            [
              116.34764999999999,
              39.98919
            ],
            [
              116.34764999999999,
              39.989610000000006
            ],
            [
              116.34715,
              39.989610000000006
            ],
            [
              116.34715,
              39.98919
            ]
          ]
        ]
      },
      "id": "PUBLIC-006"
    },
    {
      "type": "Feature",
      "properties": {
        "id": "PUBLIC-007",
        "layer": "PUBLIC_SPACE",
        "source_type": "agent_generated_design",
        "confidence": "low",
        "geometry_role": "design_proposal",
        "name_zh": "退出与删除状态牌",
        "planning_status": "conceptual_interface_only",
        "usage_note": "概念空间接口，不代表现状轮廓、权属、法定控制、拆改留或工程承诺；须以官方资料与现场调查替换。",
        "area_sqm_declared": 1991.591,
        "access_policy": "public_first_opt_in_ai",
        "ai_service_rule": "最小数据、现场告知、人工终审、到期删除、失败公开"
      },
      "geometry": {
        "type": "Polygon",
        "coordinates": [
          [
            [
              116.34775,
              39.98979
            ],
            [
              116.34825,
              39.98979
            ],
            [
              116.34825,
              39.990210000000005
            ],
            [
              116.34775,
              39.990210000000005
            ],
            [
              116.34775,
              39.98979
            ]
          ]
        ]
      },
      "id": "PUBLIC-007"
    },
    {
      "type": "Feature",
      "properties": {
        "id": "PUBLIC-008",
        "layer": "PUBLIC_SPACE",
        "source_type": "agent_generated_design",
        "confidence": "low",
        "geometry_role": "design_proposal",
        "name_zh": "第三方复演桌",
        "planning_status": "conceptual_interface_only",
        "usage_note": "概念空间接口，不代表现状轮廓、权属、法定控制、拆改留或工程承诺；须以官方资料与现场调查替换。",
        "area_sqm_declared": 1991.573,
        "access_policy": "public_first_opt_in_ai",
        "ai_service_rule": "最小数据、现场告知、人工终审、到期删除、失败公开"
      },
      "geometry": {
        "type": "Polygon",
        "coordinates": [
          [
            [
              116.34835000000001,
              39.99039
            ],
            [
              116.34885,
              39.99039
            ],
            [
              116.34885,
              39.99081
            ],
            [
              116.34835000000001,
              39.99081
            ],
            [
              116.34835000000001,
              39.99039
            ]
          ]
        ]
      },
      "id": "PUBLIC-008"
    },
    {
      "type": "Feature",
      "properties": {
        "id": "PUBLIC-009",
        "layer": "PUBLIC_SPACE",
        "source_type": "agent_generated_design",
        "confidence": "low",
        "geometry_role": "design_proposal",
        "name_zh": "公开问题门诊",
        "planning_status": "conceptual_interface_only",
        "usage_note": "概念空间接口，不代表现状轮廓、权属、法定控制、拆改留或工程承诺；须以官方资料与现场调查替换。",
        "area_sqm_declared": 1991.556,
        "access_policy": "public_first_opt_in_ai",
        "ai_service_rule": "最小数据、现场告知、人工终审、到期删除、失败公开"
      },
      "geometry": {
        "type": "Polygon",
        "coordinates": [
          [
            [
              116.34895,
              39.99099
            ],
            [
              116.34944999999999,
              39.99099
            ],
            [
              116.34944999999999,
              39.99141
            ],
            [
              116.34895,
              39.99141
            ],
            [
              116.34895,
              39.99099
            ]
          ]
        ]
      },
      "id": "PUBLIC-009"
    },
    {
      "type": "Feature",
      "properties": {
        "id": "PUBLIC-010",
        "layer": "PUBLIC_SPACE",
        "source_type": "agent_generated_design",
        "confidence": "low",
        "geometry_role": "design_proposal",
        "name_zh": "低刺激等候点",
        "planning_status": "conceptual_interface_only",
        "usage_note": "概念空间接口，不代表现状轮廓、权属、法定控制、拆改留或工程承诺；须以官方资料与现场调查替换。",
        "area_sqm_declared": 1990.86,
        "access_policy": "public_first_opt_in_ai",
        "ai_service_rule": "最小数据、现场告知、人工终审、到期删除、失败公开"
      },
      "geometry": {
        "type": "Polygon",
        "coordinates": [
          [
            [
              116.34475,
              40.01529
            ],
            [
              116.34525,
              40.01529
            ],
            [
              116.34525,
              40.015710000000006
            ],
            [
              116.34475,
              40.015710000000006
            ],
            [
              116.34475,
              40.01529
            ]
          ]
        ]
      },
      "id": "PUBLIC-010"
    },
    {
      "type": "Feature",
      "properties": {
        "id": "PUBLIC-011",
        "layer": "PUBLIC_SPACE",
        "source_type": "agent_generated_design",
        "confidence": "low",
        "geometry_role": "design_proposal",
        "name_zh": "儿童照护停靠",
        "planning_status": "conceptual_interface_only",
        "usage_note": "概念空间接口，不代表现状轮廓、权属、法定控制、拆改留或工程承诺；须以官方资料与现场调查替换。",
        "area_sqm_declared": 1990.879,
        "access_policy": "public_first_opt_in_ai",
        "ai_service_rule": "最小数据、现场告知、人工终审、到期删除、失败公开"
      },
      "geometry": {
        "type": "Polygon",
        "coordinates": [
          [
            [
              116.34845,
              40.01459
            ],
            [
              116.34894999999999,
              40.01459
            ],
            [
              116.34894999999999,
              40.015010000000004
            ],
            [
              116.34845,
              40.015010000000004
            ],
            [
              116.34845,
              40.01459
            ]
          ]
        ]
      },
      "id": "PUBLIC-011"
    },
    {
      "type": "Feature",
      "properties": {
        "id": "PUBLIC-012",
        "layer": "PUBLIC_SPACE",
        "source_type": "agent_generated_design",
        "confidence": "low",
        "geometry_role": "design_proposal",
        "name_zh": "版本与责任牌",
        "planning_status": "conceptual_interface_only",
        "usage_note": "概念空间接口，不代表现状轮廓、权属、法定控制、拆改留或工程承诺；须以官方资料与现场调查替换。",
        "area_sqm_declared": 1992.826,
        "access_policy": "public_first_opt_in_ai",
        "ai_service_rule": "最小数据、现场告知、人工终审、到期删除、失败公开"
      },
      "geometry": {
        "type": "Polygon",
        "coordinates": [
          [
            [
              116.34475,
              39.94679
            ],
            [
              116.34525,
              39.94679
            ],
            [
              116.34525,
              39.947210000000005
            ],
            [
              116.34475,
              39.947210000000005
            ],
            [
              116.34475,
              39.94679
            ]
          ]
        ]
      },
      "id": "PUBLIC-012"
    },
    {
      "type": "Feature",
      "properties": {
        "id": "PUBLIC-013",
        "layer": "PUBLIC_SPACE",
        "source_type": "agent_generated_design",
        "confidence": "low",
        "geometry_role": "design_proposal",
        "name_zh": "贡献失败档案柜",
        "planning_status": "conceptual_interface_only",
        "usage_note": "概念空间接口，不代表现状轮廓、权属、法定控制、拆改留或工程承诺；须以官方资料与现场调查替换。",
        "area_sqm_declared": 1992.838,
        "access_policy": "public_first_opt_in_ai",
        "ai_service_rule": "最小数据、现场告知、人工终审、到期删除、失败公开"
      },
      "geometry": {
        "type": "Polygon",
        "coordinates": [
          [
            [
              116.34855,
              39.94629
            ],
            [
              116.34904999999999,
              39.94629
            ],
            [
              116.34904999999999,
              39.94671
            ],
            [
              116.34855,
              39.94671
            ],
            [
              116.34855,
              39.94629
            ]
          ]
        ]
      },
      "id": "PUBLIC-013"
    },
    {
      "type": "Feature",
      "properties": {
        "id": "PUBLIC-014",
        "layer": "PUBLIC_SPACE",
        "source_type": "agent_generated_design",
        "confidence": "low",
        "geometry_role": "design_proposal",
        "name_zh": "众智园安全验证公地",
        "planning_status": "conceptual_interface_only",
        "usage_note": "概念空间接口，不代表现状轮廓、权属、法定控制、拆改留或工程承诺；须以官方资料与现场调查替换。",
        "area_sqm_declared": 154718.2,
        "access_policy": "public_observation_with_controlled_test"
      },
      "geometry": {
        "type": "Polygon",
        "coordinates": [
          [
            [
              116.3446,
              40.0138
            ],
            [
              116.34939999999999,
              40.0138
            ],
            [
              116.34939999999999,
              40.0172
            ],
            [
              116.3446,
              40.0172
            ],
            [
              116.3446,
              40.0138
            ]
          ]
        ]
      },
      "id": "PUBLIC-014"
    },
    {
      "type": "Feature",
      "properties": {
        "id": "PUBLIC-015",
        "layer": "PUBLIC_SPACE",
        "source_type": "agent_generated_design",
        "confidence": "low",
        "geometry_role": "design_proposal",
        "name_zh": "大钟寺日常权益广场",
        "planning_status": "conceptual_interface_only",
        "usage_note": "概念空间接口，不代表现状轮廓、权属、法定控制、拆改留或工程承诺；须以官方资料与现场调查替换。",
        "area_sqm_declared": 118430.736,
        "access_policy": "public_first_non_digital_fallback"
      },
      "geometry": {
        "type": "Polygon",
        "coordinates": [
          [
            [
              116.3446,
              39.9457
            ],
            [
              116.34939999999999,
              39.9457
            ],
            [
              116.34939999999999,
              39.9483
            ],
            [
              116.3446,
              39.9483
            ],
            [
              116.3446,
              39.9457
            ]
          ]
        ]
      },
      "id": "PUBLIC-015"
    }
  ],
  "name": "civic_proof_public_spaces"
}
