{
  "type": "FeatureCollection",
  "features": [
    {
      "type": "Feature",
      "properties": {
        "id": "ROAD-001",
        "layer": "ROAD_CENTERLINE",
        "source_type": "agent_generated_design",
        "confidence": "low",
        "geometry_role": "design_proposal",
        "road_class": "greenway",
        "name_zh": "京张公共验收主脊",
        "engineering_status": "conceptual_connectivity_only",
        "usage_note": "仅表达步行与公共服务连接意图；不代表道路红线、轨道线位、工程断面或施工可行性。"
      },
      "geometry": {
        "type": "LineString",
        "coordinates": [
          [
            116.346,
            39.941
          ],
          [
            116.3454,
            39.963
          ],
          [
            116.3462,
            39.986
          ],
          [
            116.346,
            40.009
          ],
          [
            116.347,
            40.024
          ]
        ]
      },
      "id": "ROAD-001"
    },
    {
      "type": "Feature",
      "properties": {
        "id": "ROAD-002",
        "layer": "ROAD_CENTERLINE",
        "source_type": "agent_generated_design",
        "confidence": "low",
        "geometry_role": "design_proposal",
        "road_class": "cycleway",
        "name_zh": "连续骑行与无障碍伴行线",
        "engineering_status": "conceptual_connectivity_only",
        "usage_note": "仅表达步行与公共服务连接意图；不代表道路红线、轨道线位、工程断面或施工可行性。"
      },
      "geometry": {
        "type": "LineString",
        "coordinates": [
          [
            116.347,
            39.941
          ],
          [
            116.3466,
            39.963
          ],
          [
            116.3472,
            39.986
          ],
          [
            116.347,
            40.009
          ],
          [
            116.348,
            40.024
          ]
        ]
      },
      "id": "ROAD-002"
    },
    {
      "type": "Feature",
      "properties": {
        "id": "ROAD-003",
        "layer": "ROAD_CENTERLINE",
        "source_type": "agent_generated_design",
        "confidence": "low",
        "geometry_role": "design_proposal",
        "road_class": "transit_connection",
        "name_zh": "大钟寺生活接口",
        "engineering_status": "conceptual_connectivity_only",
        "usage_note": "仅表达步行与公共服务连接意图；不代表道路红线、轨道线位、工程断面或施工可行性。"
      },
      "geometry": {
        "type": "LineString",
        "coordinates": [
          [
            116.3412,
            39.946
          ],
          [
            116.3528,
            39.946
          ]
        ]
      },
      "id": "ROAD-003"
    },
    {
      "type": "Feature",
      "properties": {
        "id": "ROAD-004",
        "layer": "ROAD_CENTERLINE",
        "source_type": "agent_generated_design",
        "confidence": "low",
        "geometry_role": "design_proposal",
        "road_class": "pedestrian",
        "name_zh": "南部社区接口",
        "engineering_status": "conceptual_connectivity_only",
        "usage_note": "仅表达步行与公共服务连接意图；不代表道路红线、轨道线位、工程断面或施工可行性。"
      },
      "geometry": {
        "type": "LineString",
        "coordinates": [
          [
            116.3412,
            39.958
          ],
          [
            116.3528,
            39.958
          ]
        ]
      },
      "id": "ROAD-004"
    },
    {
      "type": "Feature",
      "properties": {
        "id": "ROAD-005",
        "layer": "ROAD_CENTERLINE",
        "source_type": "agent_generated_design",
        "confidence": "low",
        "geometry_role": "design_proposal",
        "road_class": "pedestrian",
        "name_zh": "专业服务接口",
        "engineering_status": "conceptual_connectivity_only",
        "usage_note": "仅表达步行与公共服务连接意图；不代表道路红线、轨道线位、工程断面或施工可行性。"
      },
      "geometry": {
        "type": "LineString",
        "coordinates": [
          [
            116.3412,
            39.973
          ],
          [
            116.3528,
            39.973
          ]
        ]
      },
      "id": "ROAD-005"
    },
    {
      "type": "Feature",
      "properties": {
        "id": "ROAD-006",
        "layer": "ROAD_CENTERLINE",
        "source_type": "agent_generated_design",
        "confidence": "low",
        "geometry_role": "design_proposal",
        "road_class": "transit_connection",
        "name_zh": "AI原点第一百米接口",
        "engineering_status": "conceptual_connectivity_only",
        "usage_note": "仅表达步行与公共服务连接意图；不代表道路红线、轨道线位、工程断面或施工可行性。"
      },
      "geometry": {
        "type": "LineString",
        "coordinates": [
          [
            116.3412,
            39.9885
          ],
          [
            116.3528,
            39.9885
          ]
        ]
      },
      "id": "ROAD-006"
    },
    {
      "type": "Feature",
      "properties": {
        "id": "ROAD-007",
        "layer": "ROAD_CENTERLINE",
        "source_type": "agent_generated_design",
        "confidence": "low",
        "geometry_role": "design_proposal",
        "road_class": "pedestrian",
        "name_zh": "科研转化接口",
        "engineering_status": "conceptual_connectivity_only",
        "usage_note": "仅表达步行与公共服务连接意图；不代表道路红线、轨道线位、工程断面或施工可行性。"
      },
      "geometry": {
        "type": "LineString",
        "coordinates": [
          [
            116.3412,
            40.004
          ],
          [
            116.3528,
            40.004
          ]
        ]
      },
      "id": "ROAD-007"
    },
    {
      "type": "Feature",
      "properties": {
        "id": "ROAD-008",
        "layer": "ROAD_CENTERLINE",
        "source_type": "agent_generated_design",
        "confidence": "low",
        "geometry_role": "design_proposal",
        "road_class": "transit_connection",
        "name_zh": "众智园验证接口",
        "engineering_status": "conceptual_connectivity_only",
        "usage_note": "仅表达步行与公共服务连接意图；不代表道路红线、轨道线位、工程断面或施工可行性。"
      },
      "geometry": {
        "type": "LineString",
        "coordinates": [
          [
            116.3412,
            40.015
          ],
          [
            116.3528,
            40.015
          ]
        ]
      },
      "id": "ROAD-008"
    }
  ],
  "name": "conceptual_public_connections"
}
