{
 "type": "FeatureCollection",
 "name": "ROAD_CENTERLINE",
 "features": [
  {
   "type": "Feature",
   "id": "ROAD-001",
   "properties": {
    "id": "ROAD-001",
    "layer": "ROAD_CENTERLINE",
    "source_type": "agent_generated_design",
    "confidence": "medium",
    "geometry_role": "design_proposal",
    "official_boundary": false,
    "name_zh": "京张水准线主脊（连续慢行公共轴）",
    "note_zh": "概念设计建议，基于临时边界生成；不替代法定规划，官方边界发布后须整体重算。",
    "road_class": "greenway",
    "length_m_declared": 9443.3,
    "role_zh": "承载测点的连续公共轴，非机动车与步行优先"
   },
   "geometry": {
    "type": "LineString",
    "coordinates": [
     [
      116.348,
      39.940000000000005
     ],
     [
      116.34780000000002,
      39.9469
     ],
     [
      116.34819999999999,
      39.96
     ],
     [
      116.3486,
      39.96999999999999
     ],
     [
      116.348,
      39.98
     ],
     [
      116.3475,
      39.9885
     ],
     [
      116.34790000000001,
      39.999
     ],
     [
      116.3484,
      40.009
     ],
     [
      116.34850000000002,
      40.016799999999996
     ],
     [
      116.3488,
      40.025000000000006
     ]
    ]
   }
  },
  {
   "type": "Feature",
   "id": "ROAD-002",
   "properties": {
    "id": "ROAD-002",
    "layer": "ROAD_CENTERLINE",
    "source_type": "agent_generated_design",
    "confidence": "medium",
    "geometry_role": "design_proposal",
    "official_boundary": false,
    "name_zh": "北附合路线 RT-N",
    "note_zh": "概念设计建议，基于临时边界生成；不替代法定规划，官方边界发布后须整体重算。",
    "road_class": "pedestrian",
    "length_m_declared": 8545.3,
    "route_id": "RT-N",
    "benchmark_sequence": [
     "BM-0",
     "BM-303",
     "BM-22",
     "BM-1",
     "BM-0"
    ],
    "role_zh": "AI场景验证的附合路线：自水准原点起测，沿途各站独立取读数，返回原点计算闭合差"
   },
   "geometry": {
    "type": "LineString",
    "coordinates": [
     [
      116.3475,
      39.9885
     ],
     [
      116.3484,
      40.009
     ],
     [
      116.35168743857396,
      39.99907491445171
     ],
     [
      116.34850000000002,
      40.016799999999996
     ],
     [
      116.3475,
      39.9885
     ]
    ]
   }
  },
  {
   "type": "Feature",
   "id": "ROAD-003",
   "properties": {
    "id": "ROAD-003",
    "layer": "ROAD_CENTERLINE",
    "source_type": "agent_generated_design",
    "confidence": "medium",
    "geometry_role": "design_proposal",
    "official_boundary": false,
    "name_zh": "南附合路线 RT-S",
    "note_zh": "概念设计建议，基于临时边界生成；不替代法定规划，官方边界发布后须整体重算。",
    "road_class": "pedestrian",
    "length_m_declared": 9797.0,
    "route_id": "RT-S",
    "benchmark_sequence": [
     "BM-0",
     "BM-302",
     "BM-21",
     "BM-301",
     "BM-2",
     "BM-0"
    ],
    "role_zh": "AI场景验证的附合路线：自水准原点起测，沿途各站独立取读数，返回原点计算闭合差"
   },
   "geometry": {
    "type": "LineString",
    "coordinates": [
     [
      116.3475,
      39.9885
     ],
     [
      116.348,
      39.98
     ],
     [
      116.34212946422723,
      39.97995687137937
     ],
     [
      116.34819999999999,
      39.96
     ],
     [
      116.34850000000002,
      39.94690000000001
     ],
     [
      116.3475,
      39.9885
     ]
    ]
   }
  },
  {
   "type": "Feature",
   "id": "ROAD-101",
   "properties": {
    "id": "ROAD-101",
    "layer": "ROAD_CENTERLINE",
    "source_type": "agent_generated_design",
    "confidence": "medium",
    "geometry_role": "design_proposal",
    "official_boundary": false,
    "name_zh": "东西缝合点：G6辅路",
    "note_zh": "概念设计建议，基于临时边界生成；不替代法定规划，官方边界发布后须整体重算。",
    "road_class": "pedestrian",
    "length_m_declared": 90.0,
    "stitching_street": "G6辅路",
    "stitching_class": "undetermined",
    "nearest_mapped_crossing_m": 166.5,
    "classification_basis_zh": "OSM 无已测绘过街设施：仅登记连通需求；B 类（需渠化）与 C 类（需新建结构）的区分属交通专项论证，本方案不代为判定",
    "position_source_zh": "位置为提交主脊与 OSM 实测干道的交点（EPSG:4548 求交）。OSM 数据 © OpenStreetMap contributors，ODbL 1.0，定级 background_only：它用于定位连通需求，不是官方道路中心线，不得作为红线或精确定线依据。",
    "role_zh": "跨越既有干道的连通需求。A 类为现状已有过街设施、问题在绕行距离与等候安全；未判定类别者仅登记需求，B/C 类的区分须经交通专项论证。"
   },
   "geometry": {
    "type": "LineString",
    "coordinates": [
     [
      116.34829509169742,
      40.01923208288002
     ],
     [
      116.34890700197369,
      40.01989208981221
     ]
    ]
   }
  },
  {
   "type": "Feature",
   "id": "ROAD-102",
   "properties": {
    "id": "ROAD-102",
    "layer": "ROAD_CENTERLINE",
    "source_type": "agent_generated_design",
    "confidence": "medium",
    "geometry_role": "design_proposal",
    "official_boundary": false,
    "name_zh": "东西缝合点：G6辅路",
    "note_zh": "概念设计建议，基于临时边界生成；不替代法定规划，官方边界发布后须整体重算。",
    "road_class": "pedestrian",
    "length_m_declared": 90.0,
    "stitching_street": "G6辅路",
    "stitching_class": "undetermined",
    "nearest_mapped_crossing_m": 174.9,
    "classification_basis_zh": "OSM 无已测绘过街设施：仅登记连通需求；B 类（需渠化）与 C 类（需新建结构）的区分属交通专项论证，本方案不代为判定",
    "position_source_zh": "位置为提交主脊与 OSM 实测干道的交点（EPSG:4548 求交）。OSM 数据 © OpenStreetMap contributors，ODbL 1.0，定级 background_only：它用于定位连通需求，不是官方道路中心线，不得作为红线或精确定线依据。",
    "role_zh": "跨越既有干道的连通需求。A 类为现状已有过街设施、问题在绕行距离与等候安全；未判定类别者仅登记需求，B/C 类的区分须经交通专项论证。"
   },
   "geometry": {
    "type": "LineString",
    "coordinates": [
     [
      116.34894552753568,
      40.0236523709371
     ],
     [
      116.34852862173886,
      40.02290791476028
     ]
    ]
   }
  },
  {
   "type": "Feature",
   "id": "ROAD-103",
   "properties": {
    "id": "ROAD-103",
    "layer": "ROAD_CENTERLINE",
    "source_type": "agent_generated_design",
    "confidence": "medium",
    "geometry_role": "design_proposal",
    "official_boundary": false,
    "name_zh": "东西缝合点：北三环",
    "note_zh": "概念设计建议，基于临时边界生成；不替代法定规划，官方边界发布后须整体重算。",
    "road_class": "pedestrian",
    "length_m_declared": 90.0,
    "stitching_street": "北三环",
    "stitching_class": "A",
    "nearest_mapped_crossing_m": 33.1,
    "classification_basis_zh": "OSM 已测绘过街设施在半径内，判为 A 类：现状已有过街，问题在绕行距离、坡度或等候安全",
    "position_source_zh": "位置为提交主脊与 OSM 实测干道的交点（EPSG:4548 求交）。OSM 数据 © OpenStreetMap contributors，ODbL 1.0，定级 background_only：它用于定位连通需求，不是官方道路中心线，不得作为红线或精确定线依据。",
    "role_zh": "跨越既有干道的连通需求。A 类为现状已有过街设施、问题在绕行距离与等候安全；未判定类别者仅登记需求，B/C 类的区分须经交通专项论证。"
   },
   "geometry": {
    "type": "LineString",
    "coordinates": [
     [
      116.34845202221686,
      39.96588534723974
     ],
     [
      116.34845120403014,
      39.966695878730036
     ]
    ]
   }
  },
  {
   "type": "Feature",
   "id": "ROAD-104",
   "properties": {
    "id": "ROAD-104",
    "layer": "ROAD_CENTERLINE",
    "source_type": "agent_generated_design",
    "confidence": "medium",
    "geometry_role": "design_proposal",
    "official_boundary": false,
    "name_zh": "东西缝合点：北四环中路",
    "note_zh": "概念设计建议，基于临时边界生成；不替代法定规划，官方边界发布后须整体重算。",
    "road_class": "pedestrian",
    "length_m_declared": 90.0,
    "stitching_street": "北四环中路",
    "stitching_class": "A",
    "nearest_mapped_crossing_m": 29.6,
    "classification_basis_zh": "OSM 已测绘过街设施在半径内，判为 A 类：现状已有过街，问题在绕行距离、坡度或等候安全",
    "position_source_zh": "位置为提交主脊与 OSM 实测干道的交点（EPSG:4548 求交）。OSM 数据 © OpenStreetMap contributors，ODbL 1.0，定级 background_only：它用于定位连通需求，不是官方道路中心线，不得作为红线或精确定线依据。",
    "role_zh": "跨越既有干道的连通需求。A 类为现状已有过街设施、问题在绕行距离与等候安全；未判定类别者仅登记需求，B/C 类的区分须经交通专项论证。"
   },
   "geometry": {
    "type": "LineString",
    "coordinates": [
     [
      116.34770408966587,
      39.98503757320725
     ],
     [
      116.34765565859993,
      39.98584724555275
     ]
    ]
   }
  },
  {
   "type": "Feature",
   "id": "ROAD-105",
   "properties": {
    "id": "ROAD-105",
    "layer": "ROAD_CENTERLINE",
    "source_type": "agent_generated_design",
    "confidence": "medium",
    "geometry_role": "design_proposal",
    "official_boundary": false,
    "name_zh": "东西缝合点：北土城西路",
    "note_zh": "概念设计建议，基于临时边界生成；不替代法定规划，官方边界发布后须整体重算。",
    "road_class": "pedestrian",
    "length_m_declared": 90.0,
    "stitching_street": "北土城西路",
    "stitching_class": "undetermined",
    "nearest_mapped_crossing_m": 64.6,
    "classification_basis_zh": "OSM 无已测绘过街设施：仅登记连通需求；B 类（需渠化）与 C 类（需新建结构）的区分属交通专项论证，本方案不代为判定",
    "position_source_zh": "位置为提交主脊与 OSM 实测干道的交点（EPSG:4548 求交）。OSM 数据 © OpenStreetMap contributors，ODbL 1.0，定级 background_only：它用于定位连通需求，不是官方道路中心线，不得作为红线或精确定线依据。",
    "role_zh": "跨越既有干道的连通需求。A 类为现状已有过街设施、问题在绕行距离与等候安全；未判定类别者仅登记需求，B/C 类的区分须经交通专项论证。"
   },
   "geometry": {
    "type": "LineString",
    "coordinates": [
     [
      116.34829894520055,
      39.97471448271717
     ],
     [
      116.34828673715988,
      39.97552495878608
     ]
    ]
   }
  },
  {
   "type": "Feature",
   "id": "ROAD-106",
   "properties": {
    "id": "ROAD-106",
    "layer": "ROAD_CENTERLINE",
    "source_type": "agent_generated_design",
    "confidence": "medium",
    "geometry_role": "design_proposal",
    "official_boundary": false,
    "name_zh": "东西缝合点：学院南路",
    "note_zh": "概念设计建议，基于临时边界生成；不替代法定规划，官方边界发布后须整体重算。",
    "road_class": "pedestrian",
    "length_m_declared": 90.0,
    "stitching_street": "学院南路",
    "stitching_class": "A",
    "nearest_mapped_crossing_m": 25.3,
    "classification_basis_zh": "OSM 已测绘过街设施在半径内，判为 A 类：现状已有过街，问题在绕行距离、坡度或等候安全",
    "position_source_zh": "位置为提交主脊与 OSM 实测干道的交点（EPSG:4548 求交）。OSM 数据 © OpenStreetMap contributors，ODbL 1.0，定级 background_only：它用于定位连通需求，不是官方道路中心线，不得作为红线或精确定线依据。",
    "role_zh": "跨越既有干道的连通需求。A 类为现状已有过街设施、问题在绕行距离与等候安全；未判定类别者仅登记需求，B/C 类的区分须经交通专项论证。"
   },
   "geometry": {
    "type": "LineString",
    "coordinates": [
     [
      116.34807247126786,
      39.95629084336878
     ],
     [
      116.34812571053152,
      39.95710034023434
     ]
    ]
   }
  },
  {
   "type": "Feature",
   "id": "ROAD-107",
   "properties": {
    "id": "ROAD-107",
    "layer": "ROAD_CENTERLINE",
    "source_type": "agent_generated_design",
    "confidence": "medium",
    "geometry_role": "design_proposal",
    "official_boundary": false,
    "name_zh": "东西缝合点：志新路",
    "note_zh": "概念设计建议，基于临时边界生成；不替代法定规划，官方边界发布后须整体重算。",
    "road_class": "pedestrian",
    "length_m_declared": 90.0,
    "stitching_street": "志新路",
    "stitching_class": "undetermined",
    "nearest_mapped_crossing_m": 200.9,
    "classification_basis_zh": "OSM 无已测绘过街设施：仅登记连通需求；B 类（需渠化）与 C 类（需新建结构）的区分属交通专项论证，本方案不代为判定",
    "position_source_zh": "位置为提交主脊与 OSM 实测干道的交点（EPSG:4548 求交）。OSM 数据 © OpenStreetMap contributors，ODbL 1.0，定级 background_only：它用于定位连通需求，不是官方道路中心线，不得作为红线或精确定线依据。",
    "role_zh": "跨越既有干道的连通需求。A 类为现状已有过街设施、问题在绕行距离与等候安全；未判定类别者仅登记需求，B/C 类的区分须经交通专项论证。"
   },
   "geometry": {
    "type": "LineString",
    "coordinates": [
     [
      116.34765499400069,
      39.991550733937345
     ],
     [
      116.34760826705403,
      39.99236046477637
     ]
    ]
   }
  },
  {
   "type": "Feature",
   "id": "ROAD-108",
   "properties": {
    "id": "ROAD-108",
    "layer": "ROAD_CENTERLINE",
    "source_type": "agent_generated_design",
    "confidence": "medium",
    "geometry_role": "design_proposal",
    "official_boundary": false,
    "name_zh": "东西缝合点：清华东路",
    "note_zh": "概念设计建议，基于临时边界生成；不替代法定规划，官方边界发布后须整体重算。",
    "road_class": "pedestrian",
    "length_m_declared": 90.0,
    "stitching_street": "清华东路",
    "stitching_class": "undetermined",
    "nearest_mapped_crossing_m": 85.8,
    "classification_basis_zh": "OSM 无已测绘过街设施：仅登记连通需求；B 类（需渠化）与 C 类（需新建结构）的区分属交通专项论证，本方案不代为判定",
    "position_source_zh": "位置为提交主脊与 OSM 实测干道的交点（EPSG:4548 求交）。OSM 数据 © OpenStreetMap contributors，ODbL 1.0，定级 background_only：它用于定位连通需求，不是官方道路中心线，不得作为红线或精确定线依据。",
    "role_zh": "跨越既有干道的连通需求。A 类为现状已有过街设施、问题在绕行距离与等候安全；未判定类别者仅登记需求，B/C 类的区分须经交通专项论证。"
   },
   "geometry": {
    "type": "LineString",
    "coordinates": [
     [
      116.3479520704258,
      39.999225099053845
     ],
     [
      116.34791092716308,
      40.00003500820964
     ]
    ]
   }
  },
  {
   "type": "Feature",
   "id": "ROAD-109",
   "properties": {
    "id": "ROAD-109",
    "layer": "ROAD_CENTERLINE",
    "source_type": "agent_generated_design",
    "confidence": "medium",
    "geometry_role": "design_proposal",
    "official_boundary": false,
    "name_zh": "东西缝合点：石板房南路",
    "note_zh": "概念设计建议，基于临时边界生成；不替代法定规划，官方边界发布后须整体重算。",
    "road_class": "pedestrian",
    "length_m_declared": 90.0,
    "stitching_street": "石板房南路",
    "stitching_class": "undetermined",
    "nearest_mapped_crossing_m": 145.9,
    "classification_basis_zh": "OSM 无已测绘过街设施：仅登记连通需求；B 类（需渠化）与 C 类（需新建结构）的区分属交通专项论证，本方案不代为判定",
    "position_source_zh": "位置为提交主脊与 OSM 实测干道的交点（EPSG:4548 求交）。OSM 数据 © OpenStreetMap contributors，ODbL 1.0，定级 background_only：它用于定位连通需求，不是官方道路中心线，不得作为红线或精确定线依据。",
    "role_zh": "跨越既有干道的连通需求。A 类为现状已有过街设施、问题在绕行距离与等候安全；未判定类别者仅登记需求，B/C 类的区分须经交通专项论证。"
   },
   "geometry": {
    "type": "LineString",
    "coordinates": [
     [
      116.34824023481875,
      40.006988577639135
     ],
     [
      116.3483181838485,
      40.006180271119135
     ]
    ]
   }
  },
  {
   "type": "Feature",
   "id": "ROAD-110",
   "properties": {
    "id": "ROAD-110",
    "layer": "ROAD_CENTERLINE",
    "source_type": "agent_generated_design",
    "confidence": "medium",
    "geometry_role": "design_proposal",
    "official_boundary": false,
    "name_zh": "东西缝合点：西直门北大街",
    "note_zh": "概念设计建议，基于临时边界生成；不替代法定规划，官方边界发布后须整体重算。",
    "road_class": "pedestrian",
    "length_m_declared": 90.0,
    "stitching_street": "西直门北大街",
    "stitching_class": "undetermined",
    "nearest_mapped_crossing_m": 68.3,
    "classification_basis_zh": "OSM 无已测绘过街设施：仅登记连通需求；B 类（需渠化）与 C 类（需新建结构）的区分属交通专项论证，本方案不代为判定",
    "position_source_zh": "位置为提交主脊与 OSM 实测干道的交点（EPSG:4548 求交）。OSM 数据 © OpenStreetMap contributors，ODbL 1.0，定级 background_only：它用于定位连通需求，不是官方道路中心线，不得作为红线或精确定线依据。",
    "role_zh": "跨越既有干道的连通需求。A 类为现状已有过街设施、问题在绕行距离与等候安全；未判定类别者仅登记需求，B/C 类的区分须经交通专项论证。"
   },
   "geometry": {
    "type": "LineString",
    "coordinates": [
     [
      116.34764127152103,
      39.95737860784645
     ],
     [
      116.34860842760507,
      39.9576995594657
     ]
    ]
   }
  },
  {
   "type": "Feature",
   "id": "ROAD-111",
   "properties": {
    "id": "ROAD-111",
    "layer": "ROAD_CENTERLINE",
    "source_type": "agent_generated_design",
    "confidence": "medium",
    "geometry_role": "design_proposal",
    "official_boundary": false,
    "name_zh": "东西缝合点：银泉路",
    "note_zh": "概念设计建议，基于临时边界生成；不替代法定规划，官方边界发布后须整体重算。",
    "road_class": "pedestrian",
    "length_m_declared": 90.0,
    "stitching_street": "银泉路",
    "stitching_class": "A",
    "nearest_mapped_crossing_m": 10.5,
    "classification_basis_zh": "OSM 已测绘过街设施在半径内，判为 A 类：现状已有过街，问题在绕行距离、坡度或等候安全",
    "position_source_zh": "位置为提交主脊与 OSM 实测干道的交点（EPSG:4548 求交）。OSM 数据 © OpenStreetMap contributors，ODbL 1.0，定级 background_only：它用于定位连通需求，不是官方道路中心线，不得作为红线或精确定线依据。",
    "role_zh": "跨越既有干道的连通需求。A 类为现状已有过街设施、问题在绕行距离与等候安全；未判定类别者仅登记需求，B/C 类的区分须经交通专项论证。"
   },
   "geometry": {
    "type": "LineString",
    "coordinates": [
     [
      116.34846839320733,
      40.01354349533743
     ],
     [
      116.34845849494943,
      40.01435398469692
     ]
    ]
   }
  }
 ]
}
