{"type": "FeatureCollection", "features": [{"type": "Feature", "id": "GS-0001", "properties": {"id": "GS-0001", "layer": "GREEN_SPACE", "name_zh": "既有公园绿地", "area_sqm": 4632.0, "source_id": "OSM-DERIVED-CORRIDOR-20260808", "source_type": "osm", "confidence": "medium", "geometry_role": "existing_condition"}, "geometry": {"type": "Polygon", "coordinates": [[[116.3295485, 39.97850770000001], [116.32956190000002, 39.978462500000006], [116.3299025, 39.9784768], [116.3298811, 39.97880979999999], [116.33014930000002, 39.978820099999986], [116.33018680000002, 39.97863099999999], [116.3304363, 39.97863720000001], [116.33051140000002, 39.97812129999999], [116.329814, 39.9780966], [116.32974159999999, 39.978158300000004], [116.3297174, 39.9783309], [116.32929100000001, 39.97830419999999], [116.32928290000001, 39.97849329999999], [116.3295485, 39.97850770000001]]]}}, {"type": "Feature", "id": "GS-0002", "properties": {"id": "GS-0002", "layer": "GREEN_SPACE", "name_zh": "既有公园绿地", "area_sqm": 3392.2, "source_id": "OSM-DERIVED-CORRIDOR-20260808", "source_type": "osm", "confidence": "medium", "geometry_role": "existing_condition"}, "geometry": {"type": "Polygon", "coordinates": [[[116.3293532, 39.97882409999999], [116.32894650000001, 39.97880049999999], [116.3288633, 39.979386], [116.3296428, 39.9794333], [116.3296767, 39.9791145], [116.329307, 39.9790886], [116.3293532, 39.97882409999999]]]}}, {"type": "Feature", "id": "GS-0003", "properties": {"id": "GS-0003", "layer": "GREEN_SPACE", "name_zh": "既有公园绿地", "area_sqm": 3256.2, "source_id": "OSM-DERIVED-CORRIDOR-20260808", "source_type": "osm", "confidence": "medium", "geometry_role": "existing_condition"}, "geometry": {"type": "Polygon", "coordinates": [[[116.3296434, 39.98270879999998], [116.32963269999999, 39.98200520000001], [116.3291646, 39.981990999999994], [116.32914300000002, 39.982705100000004], [116.3296434, 39.98270879999998]]]}}, {"type": "Feature", "id": "GS-0004", "properties": {"id": "GS-0004", "layer": "GREEN_SPACE", "name_zh": "既有公园绿地", "area_sqm": 1827.9, "source_id": "OSM-DERIVED-CORRIDOR-20260808", "source_type": "osm", "confidence": "medium", "geometry_role": "existing_condition"}, "geometry": {"type": "Polygon", "coordinates": [[[116.3303842, 39.9823985], [116.3304666, 39.9823989], [116.330445, 39.98302249999999], [116.3308653, 39.98255369999999], [116.3306992, 39.9825107], [116.33083730000001, 39.98233549999999], [116.33065280000001, 39.9823265], [116.3305617, 39.98222449999999], [116.3303854, 39.98222379999999], [116.3303842, 39.9823985]]]}}, {"type": "Feature", "id": "GS-0005", "properties": {"id": "GS-0005", "layer": "GREEN_SPACE", "name_zh": "既有公园绿地", "area_sqm": 4363.6, "source_id": "OSM-DERIVED-CORRIDOR-20260808", "source_type": "osm", "confidence": "medium", "geometry_role": "existing_condition"}, "geometry": {"type": "Polygon", "coordinates": [[[116.3317594, 39.9827547], [116.3311825, 39.9826652], [116.3306517, 39.9832293], [116.3317099, 39.9832699], [116.3317594, 39.9827547]]]}}, {"type": "Feature", "id": "GS-0006", "properties": {"id": "GS-0006", "layer": "GREEN_SPACE", "name_zh": "既有公园绿地", "area_sqm": 3176.4, "source_id": "OSM-DERIVED-CORRIDOR-20260808", "source_type": "osm", "confidence": "medium", "geometry_role": "existing_condition"}, "geometry": {"type": "Polygon", "coordinates": [[[116.32798760000001, 39.98380459999999], [116.32740620000001, 39.98378119999999], [116.32737980000002, 39.9843716], [116.32792460000002, 39.98439960000001], [116.32798760000001, 39.98380459999999]]]}}, {"type": "Feature", "id": "GS-0007", "properties": {"id": "GS-0007", "layer": "GREEN_SPACE", "name_zh": "既有公园绿地", "area_sqm": 137231.9, "source_id": "OSM-DERIVED-CORRIDOR-20260808", "source_type": "osm", "confidence": "medium", "geometry_role": "existing_condition"}, "geometry": {"type": "Polygon", "coordinates": [[[116.3318977, 39.991394], [116.33214960000001, 39.9914028], [116.33215080000001, 39.991365], [116.33220179999999, 39.99136639999999], [116.3322857, 39.9894654], [116.3320025, 39.98945539999999], [116.3320894, 39.987598600000005], [116.33221110000001, 39.986704200000005], [116.3324387, 39.985422299999996], [116.3324443, 39.98539070000001], [116.3326327, 39.9844807], [116.3327808, 39.9844869], [116.3340288, 39.9845464], [116.3344074, 39.98456439999999], [116.33453630000001, 39.98173560000001], [116.3345446, 39.98165120000001], [116.33455040000001, 39.9815925], [116.33485079999998, 39.97924739999999], [116.33496140000001, 39.9784013], [116.33504520000001, 39.97781330000001], [116.3350435, 39.97776379999999], [116.3347391, 39.977738599999995], [116.33478720000001, 39.977467300000015], [116.33416550000001, 39.97740890000001], [116.3335231, 39.9773822], [116.33326789999998, 39.9784918], [116.3327645, 39.9815373], [116.3323394, 39.9845579], [116.33220419999999, 39.985379599999995], [116.33212080000001, 39.98537249999999], [116.3320375, 39.9858717], [116.3319592, 39.9865838], [116.33186785559653, 39.98657727040022], [116.3318624847684, 39.986628324047096], [116.33183678519211, 39.9873864117384], [116.33183678511071, 39.98738641393365], [116.33183242225775, 39.98749481676533], [116.3319233, 39.9875808], [116.33181660000001, 39.99021479999999], [116.33193950000002, 39.9902181], [116.3318977, 39.991394]], [[116.33230637945822, 39.98530999713899], [116.33229772156864, 39.985343791561796], [116.33229770759985, 39.98534383472441], [116.33229768816335, 39.985343876616334], [116.33229766344878, 39.98534391682876], [116.3322976336973, 39.98534395496935], [116.33229759919921, 39.985343990665925], [116.33229756029114, 39.98534402357018], [116.33229751735273, 39.98534405336105], [116.33229747080291, 39.98534407974787], [116.33229742109599, 39.98534410247314], [116.33229736871688, 39.98534412131512], [116.33229731417673, 39.98534413608997], [116.33229725800773, 39.98534414665354], [116.33229720075789, 39.98534415290272], [116.3322971429859, 39.985344154776556], [116.33229708525539, 39.985344152256744], [116.33229702812976, 39.98534414536788], [116.33229697216635, 39.985344134177225], [116.33229691791125, 39.98534411879392], [116.33229686589384, 39.985344099368064], [116.33229681662168, 39.98534407608924], [116.33229677057557, 39.98534404918459], [116.33229672820477, 39.9853440189166], [116.33229668992277, 39.985343985580634], [116.33229665610307, 39.98534394950198], [116.33229662707565, 39.98534391103267], [116.33229660312378, 39.98534387054805], [116.33229658448116, 39.98534382844317], [116.33229657132969, 39.98534378512889], [116.3322965637977, 39.98534374102778], [116.33229656195869, 39.98534369657023], [116.33229656583059, 39.985343652190025], [116.33230177585833, 39.98530938317531], [116.33231780474053, 39.98520395279876], [116.33234455063422, 39.98502803024486], [116.33236930759416, 39.98486518915775], [116.332389156242, 39.98473463233479], [116.33238916588826, 39.9847345881089], [116.3323891812052, 39.9847345448404], [116.33238920204087, 39.98473450295841], [116.33238922818862, 39.98473446287832], [116.33238925938915, 39.98473442499765], [116.332389295333, 39.98473438969205], [116.33238933566365, 39.98473435731171], [116.33238937998117, 39.984734328177794], [116.332389427846, 39.98473430257922], [116.3323894787834, 39.984734280769885], [116.33238953228816, 39.98473426296608], [116.33238958782971, 39.98473424934439], [116.3323896448571, 39.98473424003992], [116.3323897028048, 39.984734235144934], [116.33238976109809, 39.984734234707986], [116.33242092287158, 39.984735195766966], [116.33246044946173, 39.98473641479283], [116.33248172834128, 39.98467350184781], [116.33250824466542, 39.98456430346748], [116.3325649189109, 39.98420554567953], [116.33258777837152, 39.98406085969947], [116.33259861860334, 39.983992247637616], [116.33265461831851, 39.98360974960521], [116.3326546200945, 39.98360973867778], [116.33289262006608, 39.98227783889975], [116.33300051076161, 39.981669590435004], [116.33300052127856, 39.981669547102555], [116.33300053725277, 39.98166950476881], [116.33300055853115, 39.98166946383947], [116.33300058490975, 39.981669424706745], [116.3330006161358, 39.98166938774571], [116.33300065191001, 39.98166935331054], [116.33300069188962, 39.98166932173126], [116.33300073569143, 39.981669293310475], [116.3330007828957, 39.98166926832058], [116.33300083305004, 39.98166924700104], [116.33300088567381, 39.98166922955618], [116.33300094026269, 39.981669216153186], [116.33300099629356, 39.981669206920486], [116.33300105322944, 39.98166920194658], [116.33300111052468, 39.981669201279125], [116.33300116763021, 39.98166920492449], [116.3330012239988, 39.9816692128478], [116.33300127909021, 39.98166922497307], [116.33300133237648, 39.98166924118412], [116.33300138334698, 39.9816692613256], [116.33300143151325, 39.98166928520448], [116.33300147641366, 39.98166931259191], [116.33300151761792, 39.981669343225455], [116.33300155473115, 39.98166937681153], [116.33300158739772, 39.98166941302824], [116.33300161530451, 39.981669451528546], [116.33300163818414, 39.981669491943485], [116.33300165581734, 39.981669533885714], [116.33300166803511, 39.98166957695332], [116.33300167472035, 39.98166962073356], [116.33300167580902, 39.981669664806866], [116.33300167129065, 39.98166970875087], [116.33265298059088, 39.98375545736371], [116.33262338060385, 39.983932957294996], [116.33257818058011, 39.984203257450694], [116.33256768058207, 39.984266057442284], [116.33256768045455, 39.98426605819991], [116.33255648045507, 39.984332158199976], [116.33255647971139, 39.98433216243239], [116.3325285801211, 39.984485460188274], [116.33250898053487, 39.98460165774105], [116.33249878056908, 39.98466255754002], [116.33249877931398, 39.984662564593286], [116.33248462977868, 39.98473765790493], [116.33245978411931, 39.98486951643382], [116.33245568724388, 39.98489125893153], [116.33243209810888, 39.9850321142896], [116.33240280374105, 39.98520703586273], [116.33238526427795, 39.98531176648135], [116.33238525409922, 39.98531181015269], [116.33238523838291, 39.98531185284147], [116.33238521728161, 39.985311894133304], [116.33238519100017, 39.98531193362727], [116.33238515979374, 39.98531197093999], [116.33238512396525, 39.985312005709204], [116.33238508386258, 39.98531203759737], [116.33238503987502, 39.98531206629488], [116.33238499242965, 39.98531209152318], [116.33238494198704, 39.985312113037295], [116.33238488903694, 39.985312130628394], [116.33238483409339, 39.985312144125686], [116.3323847776898, 39.98531215339811], [116.33238472037375, 39.985312158355704], [116.3323846627017, 39.98531215895029], [116.33237589566286, 39.98531191684895], [116.33230637945822, 39.98530999713899]], [[116.33253461460467, 39.98386179502022], [116.33253450088763, 39.983841995578956], [116.33253450561192, 39.98384193646131], [116.33256991937095, 39.98362894287199], [116.33256992007877, 39.983628938764994], [116.3326211083862, 39.983342066783855], [116.3326211189494, 39.98334202345411], [116.33262113496987, 39.98334198112661], [116.33262115629408, 39.98334194020707], [116.33262118271762, 39.983341901087705], [116.33262121398724, 39.98334186414347], [116.33262124980318, 39.9833418297285], [116.33262128982219, 39.983341798172646], [116.33262133366067, 39.98334176977836], [116.33262138089842, 39.98334174481783], [116.33262143108266, 39.98334172353028], [116.3326214837324, 39.98334170611977], [116.33262153834298, 39.98334169275316], [116.33262159439091, 39.98334168355857], [116.33262165133905, 39.98334167862414], [116.33262170864147, 39.98334167799718], [116.332621765749, 39.983341681683676], [116.33262182211422, 39.98334168964831], [116.33262187719687, 39.98334170181473], [116.33262193046897, 39.983341718066306], [116.33262198141996, 39.983341738247304], [116.33262202956142, 39.983341762164265], [116.33262207443192, 39.983341789587946], [116.33262211560141, 39.98334182025549], [116.33262215267526, 39.98334185387296], [116.33262218529808, 39.983341890118105], [116.33262221315724, 39.98334192864353], [116.33262223598565, 39.983341969079994], [116.33262225356457, 39.983342011039866], [116.33262226572542, 39.98334205412098], [116.33262227235171, 39.98334209791042], [116.3326222733799, 39.98334214198844], [116.3326100850774, 39.983644213969924], [116.33261008031782, 39.98364425897062], [116.3325149803224, 39.98419805897113], [116.33251496983681, 39.984198103025115], [116.33251495371417, 39.98419814605993], [116.33251493211397, 39.98419818764987], [116.33251490524994, 39.984198227383516], [116.33251487338778, 39.9841982648678], [116.33251483684268, 39.98419829973192], [116.33251479597618, 39.98419833163098], [116.33251475119255, 39.984198360249394], [116.33251470293477, 39.984198385304126], [116.33251465168027, 39.98419840654727], [116.33251459793604, 39.98419842376871], [116.33251454223377, 39.98419843679806], [116.33251448512446, 39.98419844550646], [116.33251442717308, 39.984198449807735], [116.33251436895287, 39.98419844965935], [116.3325143110398, 39.984198445062766], [116.33251425400678, 39.984198436063465], [116.33251419841797, 39.98419842275045], [116.33251414482325, 39.984198405255455], [116.33251409375286, 39.984198383751504], [116.33251404571199, 39.98419835845135], [116.33251400117585, 39.98419832960528], [116.33251396058502, 39.9841982974986], [116.33251392434104, 39.984198262448984], [116.3325138928025, 39.98419822480311], [116.33251386628129, 39.984198184933405], [116.33251384503984, 39.98419814323427], [116.33251382928826, 39.984198100118206], [116.33251381918237, 39.98419805601173], [116.33251381482214, 39.98419801135119], [116.33251381625068, 39.98419796657834], [116.33252811521433, 39.98405017730294], [116.33253461460467, 39.98386179502022]]]}}, {"type": "Feature", "id": "GS-0008", "properties": {"id": "GS-0008", "layer": "GREEN_SPACE", "name_zh": "既有公园绿地", "area_sqm": 36291.2, "source_id": "OSM-DERIVED-CORRIDOR-20260808", "source_type": "osm", "confidence": "medium", "geometry_role": "existing_condition"}, "geometry": {"type": "Polygon", "coordinates": [[[116.331863, 39.9934743], [116.33188770000001, 39.992903899999995], [116.3319274, 39.99194750000001], [116.3318727, 39.9919475], [116.3318788, 39.9918197], [116.33185230000001, 39.991819], [116.3318453, 39.9919658], [116.33189909999999, 39.9919673], [116.33188320000001, 39.99229879999999], [116.33185310000002, 39.9929032], [116.33176626149134, 39.99290043022622], [116.33175941840288, 39.993046481633776], [116.33175941353348, 39.99304652558118], [116.33175940309745, 39.99304656895132], [116.33175938719495, 39.993046611328104], [116.33175936597857, 39.993046652304955], [116.33175933965184, 39.99304669148873], [116.33175930846737, 39.99304672850346], [116.33175927272434, 39.993046762994], [116.33175923276569, 39.993046794629464], [116.33175918897481, 39.99304682310633], [116.33175914177185, 39.99304684815135], [116.33175909160967, 39.993046869524235], [116.33175903896961, 39.99304688701996], [116.33175898435663, 39.99304690047062], [116.3317589282948, 39.99304690974717], [116.33175887132194, 39.99304691476064], [116.33175881398469, 39.993046915462884], [116.33175875683321, 39.9930469118472], [116.33175870041579, 39.99304690394826], [116.33175864527372, 39.99304689184185], [116.33175859193608, 39.99304687564413], [116.33175854091462, 39.99304685551052], [116.33175849269882, 39.99304683163415], [116.33175844775135, 39.99304680424414], [116.33175840650341, 39.993046773603275], [116.33175836935074, 39.99304674000554], [116.33175833664986, 39.99304670377327], [116.33175830871443, 39.993046665254084], [116.33175828581255, 39.99304662481758], [116.33175826816391, 39.993046582851726], [116.33175825593786, 39.99304653975914], [116.33175824925169, 39.99304649595329], [116.33175824816954, 39.99304645185444], [116.33176397157693, 39.99290035718695], [116.3316838, 39.9928978], [116.33165279999999, 39.9935775], [116.3317048, 39.99358039999999], [116.33168579999999, 39.994033], [116.3314282, 39.99402930000001], [116.3312703, 39.99752239999999], [116.3312932, 39.99794680000001], [116.33126810000002, 39.99896829999999], [116.33208990000001, 39.99900649999999], [116.3320978, 39.99874230000001], [116.3322649, 39.9987471], [116.3322964, 39.99719600000001], [116.3321731, 39.99719240000001], [116.3321876, 39.99687149999999], [116.3319842, 39.99686539999999], [116.33202710000002, 39.9956214], [116.3318132, 39.9956182], [116.331863, 39.9934743]]]}}, {"type": "Feature", "id": "GS-0009", "properties": {"id": "GS-0009", "layer": "GREEN_SPACE", "name_zh": "既有公园绿地", "area_sqm": 3398.2, "source_id": "OSM-DERIVED-CORRIDOR-20260808", "source_type": "osm", "confidence": "medium", "geometry_role": "existing_condition"}, "geometry": {"type": "Polygon", "coordinates": [[[116.33305380000002, 40.004353599999995], [116.33322400000002, 40.0043546], [116.3340253, 40.004118299999995], [116.3338899, 40.0038154], [116.3330714, 40.0039241], [116.33305380000002, 40.004353599999995]]]}}, {"type": "Feature", "id": "GS-0010", "properties": {"id": "GS-0010", "layer": "GREEN_SPACE", "name_zh": "既有公园绿地", "area_sqm": 19197.0, "source_id": "OSM-DERIVED-CORRIDOR-20260808", "source_type": "osm", "confidence": "medium", "geometry_role": "existing_condition"}, "geometry": {"type": "Polygon", "coordinates": [[[116.33151590000001, 40.0059079], [116.3314181, 40.00636179999999], [116.3311483, 40.007036899999996], [116.3308366, 40.0075982], [116.3313016, 40.0074409], [116.33167710000001, 40.007210300000004], [116.3321033, 40.0071366], [116.33244900000001, 40.007135399999996], [116.3325748, 40.0060478], [116.3322175, 40.0060118], [116.3322779, 40.00536189999999], [116.33155950000001, 40.0053072], [116.33151590000001, 40.0059079]]]}}, {"type": "Feature", "id": "GS-0011", "properties": {"id": "GS-0011", "layer": "GREEN_SPACE", "name_zh": "既有公园绿地", "area_sqm": 9465.0, "source_id": "OSM-DERIVED-CORRIDOR-20260808", "source_type": "osm", "confidence": "medium", "geometry_role": "existing_condition"}, "geometry": {"type": "Polygon", "coordinates": [[[116.3336049, 40.0061084], [116.332633, 40.006070599999994], [116.3325783, 40.00713509999999], [116.33353100000001, 40.007117300000004], [116.3336049, 40.0061084]]]}}, {"type": "Feature", "id": "GS-0012", "properties": {"id": "GS-0012", "layer": "GREEN_SPACE", "name_zh": "既有公园绿地", "area_sqm": 2236.1, "source_id": "OSM-DERIVED-CORRIDOR-20260808", "source_type": "osm", "confidence": "medium", "geometry_role": "existing_condition"}, "geometry": {"type": "Polygon", "coordinates": [[[116.3346456, 40.00998310000001], [116.3346202, 40.01001190000001], [116.33461190000001, 40.01027820000001], [116.33468999999998, 40.0102827], [116.3346918, 40.01013650000001], [116.33554559999999, 40.01014249999999], [116.33568090000001, 40.0101391], [116.3356864, 40.009922700000004], [116.3355584, 40.0099104], [116.3354011, 40.009899899999986], [116.3351274, 40.009918], [116.33488730000002, 40.00994810000001], [116.3347102, 40.0099616], [116.3346456, 40.00998310000001]]]}}, {"type": "Feature", "id": "GS-0013", "properties": {"id": "GS-0013", "layer": "GREEN_SPACE", "name_zh": "既有公园绿地", "area_sqm": 241866.9, "source_id": "OSM-DERIVED-CORRIDOR-20260808", "source_type": "osm", "confidence": "medium", "geometry_role": "existing_condition"}, "geometry": {"type": "Polygon", "coordinates": [[[116.3326503, 40.0134521], [116.3326439, 40.0133348], [116.33326269999999, 40.013339699999996], [116.3333391, 40.011406400000006], [116.3334011, 40.0098369], [116.3334875, 40.007647999999996], [116.33305150000001, 40.0078331], [116.3330315, 40.0081674], [116.3322785, 40.008126], [116.3320016, 40.0081895], [116.33211870000001, 40.0072384], [116.3319804, 40.0072613], [116.33179829999999, 40.00728869999999], [116.33165510000002, 40.00733949999999], [116.3313934, 40.0075009], [116.3310685, 40.007667999999995], [116.33093429999998, 40.007700299999996], [116.33078630000001, 40.00771559999999], [116.3303664, 40.0082434], [116.3298369, 40.00893729999999], [116.3295818, 40.009186500000006], [116.3301687, 40.0095725], [116.3295116, 40.0101149], [116.32858659999998, 40.0110726], [116.3274319, 40.012074199999994], [116.3265898, 40.01287059999999], [116.32722140000001, 40.0130856], [116.3277445, 40.013246800000005], [116.3282612, 40.013344599999996], [116.3287142, 40.013378800000005], [116.32927560000002, 40.0134081], [116.32999639999998, 40.01340320000001], [116.3305514, 40.013403200000006], [116.3313732, 40.013415599999995], [116.3315275, 40.01341790000001], [116.3326503, 40.0134521]]]}}, {"type": "Feature", "id": "GS-0014", "properties": {"id": "GS-0014", "layer": "GREEN_SPACE", "name_zh": "既有公园绿地", "area_sqm": 10829.2, "source_id": "OSM-DERIVED-CORRIDOR-20260808", "source_type": "osm", "confidence": "medium", "geometry_role": "existing_condition"}, "geometry": {"type": "Polygon", "coordinates": [[[116.33465900000002, 40.01037600000001], [116.3346126, 40.01040720000001], [116.334571, 40.0111601], [116.33467469999998, 40.01115879999999], [116.33467820000001, 40.01106879999999], [116.33560920000001, 40.01109060000001], [116.3357225, 40.01108940000001], [116.33650839999999, 40.01110749999999], [116.33649429999998, 40.01104269999999], [116.3363591, 40.01083169999999], [116.33615559999998, 40.0106058], [116.3360166, 40.0104658], [116.3358724, 40.0104402], [116.33465900000002, 40.01037600000001]]]}}, {"type": "Feature", "id": "GS-0015", "properties": {"id": "GS-0015", "layer": "GREEN_SPACE", "name_zh": "既有公园绿地", "area_sqm": 1561.6, "source_id": "OSM-DERIVED-CORRIDOR-20260808", "source_type": "osm", "confidence": "medium", "geometry_role": "existing_condition"}, "geometry": {"type": "Polygon", "coordinates": [[[116.3345164, 40.01092519999999], [116.33449850000001, 40.010861199999994], [116.33441420000001, 40.0108395], [116.33402320000002, 40.0108376], [116.33401270000002, 40.010945099999994], [116.33404189999999, 40.01105509999999], [116.3341165, 40.011193000000006], [116.3344977, 40.0112029], [116.3345164, 40.01092519999999]]]}}, {"type": "Feature", "id": "GS-0016", "properties": {"id": "GS-0016", "layer": "GREEN_SPACE", "name_zh": "既有公园绿地", "area_sqm": 12391.2, "source_id": "OSM-DERIVED-CORRIDOR-20260808", "source_type": "osm", "confidence": "medium", "geometry_role": "existing_condition"}, "geometry": {"type": "Polygon", "coordinates": [[[116.33657380000001, 40.01181699999999], [116.33649999999999, 40.01177100000001], [116.33645530000001, 40.011694799999994], [116.33644329999998, 40.01160399999999], [116.33648109999999, 40.011527799999996], [116.3365446, 40.0114752], [116.33661939999999, 40.0114532], [116.336605, 40.011415], [116.33548320000001, 40.011390799999994], [116.33470969999999, 40.01137700000001], [116.33462000000002, 40.0114131], [116.33460340000002, 40.0114775], [116.3345683, 40.0115802], [116.33455070000001, 40.0120959], [116.33464480000002, 40.01209550000001], [116.3346493, 40.012038], [116.33573580000001, 40.012043000000006], [116.33574960000001, 40.01191609999999], [116.3359192, 40.0119235], [116.33591700000001, 40.0120265], [116.33692479999999, 40.012063299999994], [116.3367749, 40.01182610000001], [116.33672650000001, 40.0118381], [116.3366596, 40.01184330000001], [116.33657380000001, 40.01181699999999]]]}}, {"type": "Feature", "id": "GS-0017", "properties": {"id": "GS-0017", "layer": "GREEN_SPACE", "name_zh": "既有公园绿地", "area_sqm": 2162.8, "source_id": "OSM-DERIVED-CORRIDOR-20260808", "source_type": "osm", "confidence": "medium", "geometry_role": "existing_condition"}, "geometry": {"type": "Polygon", "coordinates": [[[116.3340933, 40.01177679999999], [116.33411360000001, 40.01151839999999], [116.3340049, 40.0115284], [116.33397730000002, 40.011629], [116.33396269999999, 40.011876900000004], [116.33406010000002, 40.012041499999995], [116.33415850000002, 40.012168700000004], [116.334483, 40.01218059999999], [116.33450620000002, 40.01151360000001], [116.3342479, 40.0115187], [116.3342391, 40.011657299999996], [116.3343859, 40.01166829999999], [116.334361, 40.0119222], [116.3341971, 40.01191480000001], [116.3341452, 40.0118905], [116.3340966, 40.01188059999999], [116.3340933, 40.01177679999999]]]}}, {"type": "Feature", "id": "GS-0018", "properties": {"id": "GS-0018", "layer": "GREEN_SPACE", "name_zh": "既有公园绿地", "area_sqm": 16186.8, "source_id": "OSM-DERIVED-CORRIDOR-20260808", "source_type": "osm", "confidence": "medium", "geometry_role": "existing_condition"}, "geometry": {"type": "Polygon", "coordinates": [[[116.33722950000002, 40.0126019], [116.3372772, 40.01255350000001], [116.3373351, 40.0125171], [116.3372823, 40.0124036], [116.33721409999998, 40.012328700000005], [116.3371278, 40.0122754], [116.3368758, 40.01230350000001], [116.33653720000001, 40.012284400000006], [116.33587500000002, 40.01224679999999], [116.33560290000001, 40.01224950000001], [116.334724, 40.012268500000005], [116.33455019999998, 40.0123238], [116.3345202, 40.012838], [116.3345826, 40.0128655], [116.33542829999999, 40.01288290000001], [116.3362613, 40.0128997], [116.3372282, 40.0129194], [116.33730680000001, 40.01292329999998], [116.33732350000001, 40.0128622], [116.33732090000001, 40.0127241], [116.3372669, 40.0126936], [116.33723209999998, 40.0126393], [116.33722950000002, 40.0126019]]]}}, {"type": "Feature", "id": "GS-0019", "properties": {"id": "GS-0019", "layer": "GREEN_SPACE", "name_zh": "既有公园绿地", "area_sqm": 2467.4, "source_id": "OSM-DERIVED-CORRIDOR-20260808", "source_type": "osm", "confidence": "medium", "geometry_role": "existing_condition"}, "geometry": {"type": "Polygon", "coordinates": [[[116.33413370000001, 40.012696299999995], [116.3341467, 40.012539099999984], [116.33400880000002, 40.012538500000005], [116.33395120000002, 40.0125571], [116.33391470000001, 40.01282489999999], [116.33390980000001, 40.0130597], [116.33397469999998, 40.0131373], [116.33410369999999, 40.01314850000001], [116.334297, 40.01314580000001], [116.3343234, 40.0130984], [116.3343867, 40.0130568], [116.33444510000001, 40.013035], [116.33445529999999, 40.012577900000004], [116.33442020000001, 40.0125363], [116.3343819, 40.01253409999999], [116.33437379999998, 40.0127298], [116.33414500000002, 40.01272550000001], [116.33413370000001, 40.012696299999995]]]}}, {"type": "Feature", "id": "GS-0020", "properties": {"id": "GS-0020", "layer": "GREEN_SPACE", "name_zh": "既有公园绿地", "area_sqm": 187453.4, "source_id": "OSM-DERIVED-CORRIDOR-20260808", "source_type": "osm", "confidence": "medium", "geometry_role": "existing_condition"}, "geometry": {"type": "Polygon", "coordinates": [[[116.33092619999998, 40.0156961], [116.3309608, 40.0137838], [116.3308626, 40.013736099999996], [116.3299173, 40.013747800000004], [116.32880800000001, 40.01380910000001], [116.32763339999998, 40.0137029], [116.3270121, 40.0134882], [116.3263548, 40.01336509999999], [116.3262069, 40.0133634], [116.3250056, 40.01428670000001], [116.3246681, 40.01457839999999], [116.3239792, 40.01536219999999], [116.3237046, 40.0158292], [116.3235157, 40.0162641], [116.32353, 40.0164123], [116.3242724, 40.01634049999999], [116.328077, 40.0170394], [116.3284328, 40.01724699999999], [116.32914990000002, 40.017565299999994], [116.32945029999999, 40.0162835], [116.3300253, 40.0163295], [116.3300511, 40.0160666], [116.33092400000001, 40.016048100000006], [116.33092549999999, 40.0158073], [116.33092619999998, 40.0156961]]]}}, {"type": "Feature", "id": "GS-0021", "properties": {"id": "GS-0021", "layer": "GREEN_SPACE", "name_zh": "既有公园绿地", "area_sqm": 171869.1, "source_id": "OSM-DERIVED-CORRIDOR-20260808", "source_type": "osm", "confidence": "medium", "geometry_role": "existing_condition"}, "geometry": {"type": "Polygon", "coordinates": [[[116.32360300000002, 40.017495799999985], [116.3237293, 40.0178222], [116.32394670000001, 40.0182389], [116.3244953, 40.01891309999999], [116.32505670000002, 40.01954820000001], [116.3255925, 40.0198218], [116.32642189999999, 40.0203495], [116.32714910000001, 40.02074029999999], [116.32790189999999, 40.021053], [116.3285398, 40.021209299999995], [116.329165, 40.021326499999994], [116.329854, 40.0214829], [116.3299688, 40.021307], [116.3304919, 40.021346099999995], [116.33067050000001, 40.02128749999999], [116.3307088, 40.019958599999995], [116.329165, 40.0196362], [116.3282974, 40.019450500000005], [116.32792740000001, 40.0196655], [116.3272767, 40.01961659999999], [116.3274681, 40.0192942], [116.3278046, 40.01932740000001], [116.32835220000001, 40.0173423], [116.32801670000002, 40.0171445], [116.3276565, 40.01706380000001], [116.32561809999999, 40.016607099999995], [116.32438049999999, 40.01639209999999], [116.32425080000002, 40.0163862], [116.32353, 40.0164123], [116.32350590000001, 40.0164131], [116.32349810000001, 40.016790199999996], [116.32351640000002, 40.01715010000001], [116.32360300000002, 40.017495799999985]]]}}, {"type": "Feature", "id": "GS-0022", "properties": {"id": "GS-0022", "layer": "GREEN_SPACE", "name_zh": "既有公园绿地", "area_sqm": 5591.6, "source_id": "OSM-DERIVED-CORRIDOR-20260808", "source_type": "osm", "confidence": "medium", "geometry_role": "existing_condition"}, "geometry": {"type": "Polygon", "coordinates": [[[116.3476849, 39.95606519999999], [116.34761950000001, 39.9561994], [116.34754480000001, 39.95645180000001], [116.3475191, 39.9566093], [116.3484485, 39.95657709999999], [116.3485442, 39.956455399999996], [116.3485839, 39.9562334], [116.34856520000001, 39.9560491], [116.3485442, 39.9560085], [116.34837370000001, 39.9559667], [116.34805849999998, 39.9559291], [116.34786940000001, 39.95597029999999], [116.3476849, 39.95606519999999]]]}}, {"type": "Feature", "id": "GS-0023", "properties": {"id": "GS-0023", "layer": "GREEN_SPACE", "name_zh": "既有公园绿地", "area_sqm": 2953.9, "source_id": "OSM-DERIVED-CORRIDOR-20260808", "source_type": "osm", "confidence": "medium", "geometry_role": "existing_condition"}, "geometry": {"type": "Polygon", "coordinates": [[[116.34806560000001, 39.956965999999994], [116.3475473, 39.9569561], [116.3474747, 39.957006499999984], [116.34746290000001, 39.95723480000001], [116.34744009999999, 39.9580105], [116.34806560000001, 39.956965999999994]]]}}, {"type": "Feature", "id": "GS-0024", "properties": {"id": "GS-0024", "layer": "GREEN_SPACE", "name_zh": "既有公园绿地", "area_sqm": 8564.3, "source_id": "OSM-DERIVED-CORRIDOR-20260808", "source_type": "osm", "confidence": "medium", "geometry_role": "existing_condition"}, "geometry": {"type": "Polygon", "coordinates": [[[116.3382411, 39.97596500000001], [116.3381814, 39.97588940000001], [116.3380641, 39.9758416], [116.33781190000002, 39.97587659999999], [116.33763220000002, 39.97592389999999], [116.3373104, 39.97598959999999], [116.33695900000001, 39.9761561], [116.33675250000002, 39.97624239999999], [116.33668239999999, 39.976393599999994], [116.33669329999998, 39.976477], [116.33676430000001, 39.9765183], [116.3369993, 39.97656309999999], [116.3373214, 39.97658419999999], [116.3376964, 39.97657300000001], [116.3379343, 39.9765522], [116.33817440000001, 39.9765096], [116.3385503, 39.9764406], [116.33834030000001, 39.9763123], [116.33825849999998, 39.97617770000001], [116.33821160000001, 39.9760698], [116.3382411, 39.97596500000001]]]}}, {"type": "Feature", "id": "GS-0025", "properties": {"id": "GS-0025", "layer": "GREEN_SPACE", "name_zh": "既有公园绿地", "area_sqm": 22549.7, "source_id": "OSM-DERIVED-CORRIDOR-20260808", "source_type": "osm", "confidence": "medium", "geometry_role": "existing_condition"}, "geometry": {"type": "Polygon", "coordinates": [[[116.34580670000001, 39.97747019999999], [116.3459581, 39.977474499999985], [116.34600749999998, 39.9766026], [116.3443187, 39.9765548], [116.34421630000001, 39.9765513], [116.34415350000002, 39.97793], [116.3457799, 39.9779666], [116.3458012, 39.977582999999996], [116.34580670000001, 39.97747019999999]]]}}, {"type": "Feature", "id": "GS-0026", "properties": {"id": "GS-0026", "layer": "GREEN_SPACE", "name_zh": "既有公园绿地", "area_sqm": 2265.3, "source_id": "OSM-DERIVED-CORRIDOR-20260808", "source_type": "osm", "confidence": "medium", "geometry_role": "existing_condition"}, "geometry": {"type": "Polygon", "coordinates": [[[116.33876550000001, 39.97858839999999], [116.3383494, 39.9785753], [116.33831890000002, 39.979148300000006], [116.338735, 39.9791614], [116.33876550000001, 39.97858839999999]]]}}, {"type": "Feature", "id": "GS-0028", "properties": {"id": "GS-0028", "layer": "GREEN_SPACE", "name_zh": "既有公园绿地", "area_sqm": 42800.3, "source_id": "OSM-DERIVED-CORRIDOR-20260808", "source_type": "osm", "confidence": "medium", "geometry_role": "existing_condition"}, "geometry": {"type": "Polygon", "coordinates": [[[116.33830109999998, 39.98319480000001], [116.3382874, 39.98320400000001], [116.3382699, 39.98321270000001], [116.3382495, 39.983219399999996], [116.3382237, 39.9832246], [116.3382025, 39.98322559999998], [116.3381814, 39.9832246], [116.3381596, 39.9832215], [116.3381352, 39.9832143], [116.3381184, 39.98320730000001], [116.3380993, 39.9831963], [116.33808550000002, 39.9831847], [116.33807150000001, 39.98317039999999], [116.338059, 39.9831521], [116.33805740000001, 39.983175199999984], [116.338059, 39.98318909999999], [116.33806940000001, 39.9832068], [116.3380909, 39.98322639999999], [116.3381206, 39.9832368], [116.3398583, 39.983284499999996], [116.3406285, 39.983307200000006], [116.3414316, 39.9833301], [116.3414356, 39.98329009999999], [116.34130150000001, 39.98328800000001], [116.3413095, 39.98312459999999], [116.3415201, 39.98312979999999], [116.34151879999999, 39.98321200000001], [116.3415919, 39.9832117], [116.3416335, 39.982099800000015], [116.34150349999999, 39.9819487], [116.34086409999999, 39.981914999999994], [116.33993160000001, 39.9819031], [116.3381878, 39.98186010000001], [116.33811770000001, 39.981911], [116.3380942, 39.9824783], [116.3380936, 39.9825045], [116.33809219999999, 39.9825286], [116.33809160000001, 39.98255069999999], [116.3380755, 39.98288370000001], [116.3381083, 39.98288380000001], [116.33811170000001, 39.9828092], [116.33824580000001, 39.9828117], [116.3382451, 39.982832800000004], [116.33828869999999, 39.98283479999999], [116.33829, 39.9828503], [116.3384449, 39.982854899999985], [116.33844430000002, 39.9828826], [116.3384973, 39.98288419999999], [116.33849390000002, 39.9829767], [116.3383524, 39.98297199999999], [116.338347, 39.98306449999999], [116.3383873, 39.9830655], [116.3383893, 39.983031600000004], [116.33869040000002, 39.98304039999999], [116.33869310000001, 39.9830249], [116.33861930000002, 39.9830229], [116.33862330000001, 39.98297049999999], [116.33901620000002, 39.9829827], [116.3391068, 39.9830229], [116.3392402, 39.983025999999995], [116.33923619999999, 39.9831935], [116.3390122, 39.98318830000001], [116.33900820000001, 39.98324069999999], [116.33838020000002, 39.9832243], [116.3383836, 39.98315829999999], [116.33833559999998, 39.98315749999998], [116.33832119999998, 39.98317649999999], [116.33830109999998, 39.98319480000001]]]}}, {"type": "Feature", "id": "GS-0029", "properties": {"id": "GS-0029", "layer": "GREEN_SPACE", "name_zh": "既有公园绿地", "area_sqm": 6751.8, "source_id": "OSM-DERIVED-CORRIDOR-20260808", "source_type": "osm", "confidence": "medium", "geometry_role": "existing_condition"}, "geometry": {"type": "Polygon", "coordinates": [[[116.3438808, 39.982050499999986], [116.34331829999999, 39.9820358], [116.34326199999998, 39.98329939999999], [116.3438249, 39.9833141], [116.3438808, 39.982050499999986]]]}}, {"type": "Feature", "id": "GS-0030", "properties": {"id": "GS-0030", "layer": "GREEN_SPACE", "name_zh": "既有公园绿地", "area_sqm": 4139.1, "source_id": "OSM-DERIVED-CORRIDOR-20260808", "source_type": "osm", "confidence": "medium", "geometry_role": "existing_condition"}, "geometry": {"type": "Polygon", "coordinates": [[[116.3443985, 39.98461459999999], [116.3444309, 39.98401019999999], [116.3437101, 39.98398749999999], [116.3436792, 39.9845628], [116.34367770000001, 39.9845919], [116.3443985, 39.98461459999999]]]}}, {"type": "Feature", "id": "GS-0031", "properties": {"id": "GS-0031", "layer": "GREEN_SPACE", "name_zh": "既有公园绿地", "area_sqm": 9570.4, "source_id": "OSM-DERIVED-CORRIDOR-20260808", "source_type": "osm", "confidence": "medium", "geometry_role": "existing_condition"}, "geometry": {"type": "Polygon", "coordinates": [[[116.34012330000002, 39.9847101], [116.34023590000001, 39.984814300000004], [116.34075820000001, 39.9848145], [116.3407752, 39.98463189999998], [116.3413068, 39.98464390000001], [116.341326, 39.984435799999986], [116.34067449999999, 39.98441880000001], [116.3404196, 39.984412699999986], [116.33897330000002, 39.984368], [116.3380197, 39.984339500000004], [116.33800819999999, 39.9846398], [116.33844810000001, 39.9846544], [116.33896200000001, 39.984672800000006], [116.33911920000001, 39.9846767], [116.34012330000002, 39.9847101]]]}}, {"type": "Feature", "id": "GS-0032", "properties": {"id": "GS-0032", "layer": "GREEN_SPACE", "name_zh": "既有公园绿地", "area_sqm": 3524.3, "source_id": "OSM-DERIVED-CORRIDOR-20260808", "source_type": "osm", "confidence": "medium", "geometry_role": "existing_condition"}, "geometry": {"type": "Polygon", "coordinates": [[[116.3410924, 39.988994399999996], [116.3410709, 39.98967559999999], [116.34161599999999, 39.98968579999998], [116.34163150000002, 39.9891988], [116.3416377, 39.98900460000001], [116.3410924, 39.988994399999996]]]}}, {"type": "Feature", "id": "GS-0033", "properties": {"id": "GS-0033", "layer": "GREEN_SPACE", "name_zh": "既有公园绿地", "area_sqm": 660.5, "source_id": "OSM-DERIVED-CORRIDOR-20260808", "source_type": "osm", "confidence": "medium", "geometry_role": "existing_condition"}, "geometry": {"type": "Polygon", "coordinates": [[[116.3456032, 39.9892756], [116.34528979999999, 39.9892687], [116.34528080000001, 39.98960479999999], [116.3454778, 39.989508799999996], [116.3456032, 39.9892756]]]}}, {"type": "Feature", "id": "GS-0034", "properties": {"id": "GS-0034", "layer": "GREEN_SPACE", "name_zh": "既有公园绿地", "area_sqm": 2281.2, "source_id": "OSM-DERIVED-CORRIDOR-20260808", "source_type": "osm", "confidence": "medium", "geometry_role": "existing_condition"}, "geometry": {"type": "Polygon", "coordinates": [[[116.3386195, 39.98970789999999], [116.3381976, 39.9896978], [116.338168, 39.9902663], [116.3385892, 39.990279], [116.3386195, 39.98970789999999]]]}}, {"type": "Feature", "id": "GS-0035", "properties": {"id": "GS-0035", "layer": "GREEN_SPACE", "name_zh": "既有公园绿地", "area_sqm": 1950.4, "source_id": "OSM-DERIVED-CORRIDOR-20260808", "source_type": "osm", "confidence": "medium", "geometry_role": "existing_condition"}, "geometry": {"type": "Polygon", "coordinates": [[[116.34462820000002, 39.990648499999985], [116.34463930000001, 39.9902261], [116.3441525, 39.99021869999999], [116.34414150000002, 39.990641000000004], [116.34462820000002, 39.990648499999985]]]}}, {"type": "Feature", "id": "GS-0036", "properties": {"id": "GS-0036", "layer": "GREEN_SPACE", "name_zh": "既有公园绿地", "area_sqm": 4598.5, "source_id": "OSM-DERIVED-CORRIDOR-20260808", "source_type": "osm", "confidence": "medium", "geometry_role": "existing_condition"}, "geometry": {"type": "Polygon", "coordinates": [[[116.3458633, 39.9907026], [116.34482590000002, 39.9906771], [116.3448064, 39.9911441], [116.3458437, 39.9911695], [116.3458633, 39.9907026]]]}}, {"type": "Feature", "id": "GS-0037", "properties": {"id": "GS-0037", "layer": "GREEN_SPACE", "name_zh": "既有公园绿地", "area_sqm": 3632.0, "source_id": "OSM-DERIVED-CORRIDOR-20260808", "source_type": "osm", "confidence": "medium", "geometry_role": "existing_condition"}, "geometry": {"type": "Polygon", "coordinates": [[[116.34040929999999, 39.99111179999999], [116.34065140000001, 39.991119399999995], [116.3406645, 39.9908724], [116.33976429999998, 39.99084779999999], [116.33974080000002, 39.991338200000015], [116.3403962, 39.99135819999999], [116.34040929999999, 39.99111179999999]]]}}, {"type": "Feature", "id": "GS-0038", "properties": {"id": "GS-0038", "layer": "GREEN_SPACE", "name_zh": "既有公园绿地", "area_sqm": 2966.7, "source_id": "OSM-DERIVED-CORRIDOR-20260808", "source_type": "osm", "confidence": "medium", "geometry_role": "existing_condition"}, "geometry": {"type": "Polygon", "coordinates": [[[116.33740579999998, 39.99127669999999], [116.3383846, 39.9913002], [116.3384392, 39.99130149999999], [116.338453, 39.9910115], [116.33833660000002, 39.991011799999995], [116.33750200000001, 39.9909902], [116.3373688, 39.9909872], [116.3373524, 39.99127539999999], [116.33740579999998, 39.99127669999999]]]}}, {"type": "Feature", "id": "GS-0039", "properties": {"id": "GS-0039", "layer": "GREEN_SPACE", "name_zh": "既有公园绿地", "area_sqm": 5235.3, "source_id": "OSM-DERIVED-CORRIDOR-20260808", "source_type": "osm", "confidence": "medium", "geometry_role": "existing_condition"}, "geometry": {"type": "Polygon", "coordinates": [[[116.33982240000002, 39.99219719999999], [116.3397958, 39.992403499999995], [116.3390827, 39.9923715], [116.33910170000001, 39.9921623], [116.3386996, 39.992147800000005], [116.33869200000001, 39.992248], [116.33848910000002, 39.9922393], [116.33847200000001, 39.9924805], [116.3386768, 39.99249069999998], [116.33867300000001, 39.9925561], [116.33943549999998, 39.9925779], [116.34018270000001, 39.9926098], [116.3401922, 39.99253720000001], [116.34038380000001, 39.99254010000001], [116.34040270000001, 39.99231199999999], [116.3401979, 39.9923003], [116.3401922, 39.99221030000001], [116.33982240000002, 39.99219719999999]]]}}, {"type": "Feature", "id": "GS-0040", "properties": {"id": "GS-0040", "layer": "GREEN_SPACE", "name_zh": "既有公园绿地", "area_sqm": 4232.9, "source_id": "OSM-DERIVED-CORRIDOR-20260808", "source_type": "osm", "confidence": "medium", "geometry_role": "existing_condition"}, "geometry": {"type": "Polygon", "coordinates": [[[116.3427685, 39.992396299999996], [116.34236699999998, 39.99239289999999], [116.342146, 39.992385899999995], [116.34213010000002, 39.992687399999994], [116.34349269999998, 39.9927038], [116.34350340000002, 39.992375100000004], [116.343439, 39.99230930000001], [116.343439, 39.99218189999999], [116.34313859999999, 39.9921696], [116.34314400000001, 39.99224770000001], [116.3432084, 39.992321600000004], [116.34324060000002, 39.992358599999996], [116.34296160000001, 39.9925148], [116.3427685, 39.992396299999996]]]}}, {"type": "Feature", "id": "GS-0041", "properties": {"id": "GS-0041", "layer": "GREEN_SPACE", "name_zh": "既有公园绿地", "area_sqm": 3831.4, "source_id": "OSM-DERIVED-CORRIDOR-20260808", "source_type": "osm", "confidence": "medium", "geometry_role": "existing_condition"}, "geometry": {"type": "Polygon", "coordinates": [[[116.3439119, 39.99322790000001], [116.34395740000001, 39.99278040000001], [116.3430471, 39.9927513], [116.3430319, 39.993204700000014], [116.3439119, 39.99322790000001]]]}}, {"type": "Feature", "id": "GS-0042", "properties": {"id": "GS-0042", "layer": "GREEN_SPACE", "name_zh": "既有公园绿地", "area_sqm": 3723.8, "source_id": "OSM-DERIVED-CORRIDOR-20260808", "source_type": "osm", "confidence": "medium", "geometry_role": "existing_condition"}, "geometry": {"type": "Polygon", "coordinates": [[[116.34114130000002, 39.9935542], [116.34186020000001, 39.9935892], [116.341887, 39.993241899999994], [116.3408463, 39.9932193], [116.3408034, 39.99328299999999], [116.3404815, 39.9932953], [116.34047349999999, 39.9933796], [116.34068, 39.9934494], [116.34114130000002, 39.9935542]]]}}, {"type": "Feature", "id": "GS-0043", "properties": {"id": "GS-0043", "layer": "GREEN_SPACE", "name_zh": "既有公园绿地", "area_sqm": 3970.0, "source_id": "OSM-DERIVED-CORRIDOR-20260808", "source_type": "osm", "confidence": "medium", "geometry_role": "existing_condition"}, "geometry": {"type": "Polygon", "coordinates": [[[116.34590450000002, 39.99352970000001], [116.3454646, 39.993521499999986], [116.3454807, 39.99331599999999], [116.3447795, 39.99329869999999], [116.34477259999998, 39.9934927], [116.34438639999999, 39.9934845], [116.34437500000001, 39.9936767], [116.3458879, 39.993706599999996], [116.34590450000002, 39.99352970000001]]]}}, {"type": "Feature", "id": "GS-0044", "properties": {"id": "GS-0044", "layer": "GREEN_SPACE", "name_zh": "既有公园绿地", "area_sqm": 3370.5, "source_id": "OSM-DERIVED-CORRIDOR-20260808", "source_type": "osm", "confidence": "medium", "geometry_role": "existing_condition"}, "geometry": {"type": "Polygon", "coordinates": [[[116.34501080000001, 39.99377239999999], [116.3450055, 39.99416279999999], [116.3460193, 39.9941834], [116.3460301, 39.9940436], [116.34569750000001, 39.9937888], [116.34501080000001, 39.99377239999999]]]}}, {"type": "Feature", "id": "GS-0045", "properties": {"id": "GS-0045", "layer": "GREEN_SPACE", "name_zh": "既有公园绿地", "area_sqm": 7004.3, "source_id": "OSM-DERIVED-CORRIDOR-20260808", "source_type": "osm", "confidence": "medium", "geometry_role": "existing_condition"}, "geometry": {"type": "Polygon", "coordinates": [[[116.343563, 39.99372189999998], [116.34297120000001, 39.993710300000004], [116.34289530000001, 39.99494249999999], [116.3434947, 39.9949657], [116.343563, 39.99372189999998]]]}}, {"type": "Feature", "id": "GS-0046", "properties": {"id": "GS-0046", "layer": "GREEN_SPACE", "name_zh": "既有公园绿地", "area_sqm": 6855.1, "source_id": "OSM-DERIVED-CORRIDOR-20260808", "source_type": "osm", "confidence": "medium", "geometry_role": "existing_condition"}, "geometry": {"type": "Polygon", "coordinates": [[[116.3437754, 39.99466300000002], [116.34394170000002, 39.99466300000001], [116.34393090000002, 39.9948479], [116.3445639, 39.9948767], [116.34462829999998, 39.99400949999998], [116.34400600000001, 39.9939849], [116.34400600000001, 39.9941123], [116.34366120000001, 39.994102500000004], [116.34363880000001, 39.99465769999999], [116.3437754, 39.99466300000002]]]}}, {"type": "Feature", "id": "GS-0047", "properties": {"id": "GS-0047", "layer": "GREEN_SPACE", "name_zh": "既有公园绿地", "area_sqm": 2009.2, "source_id": "OSM-DERIVED-CORRIDOR-20260808", "source_type": "osm", "confidence": "medium", "geometry_role": "existing_condition"}, "geometry": {"type": "Polygon", "coordinates": [[[116.3369697, 39.997772], [116.33663650000001, 39.99777160000001], [116.3366363, 39.9978434], [116.33663619999999, 39.99794090000001], [116.3368101, 39.9979411], [116.3368099, 39.998023200000006], [116.3374602, 39.9980238], [116.33746030000002, 39.99795029999999], [116.33746039999998, 39.9978578], [116.3373804, 39.99785769999999], [116.3373806, 39.99770949999999], [116.33696979999999, 39.997709099999994], [116.3369697, 39.997772]]]}}, {"type": "Feature", "id": "GS-0048", "properties": {"id": "GS-0048", "layer": "GREEN_SPACE", "name_zh": "既有公园绿地", "area_sqm": 9281.6, "source_id": "OSM-DERIVED-CORRIDOR-20260808", "source_type": "osm", "confidence": "medium", "geometry_role": "existing_condition"}, "geometry": {"type": "Polygon", "coordinates": [[[116.33622909999998, 39.998940100000006], [116.3348119, 39.9989053], [116.3348062, 39.99914329999999], [116.33726740000002, 39.99920269999999], [116.3377726, 39.9992221], [116.33777800000001, 39.99918199999999], [116.3388913, 39.9992069], [116.3388877, 39.999247], [116.33910060000001, 39.999247], [116.33909540000002, 39.9990106], [116.3373344, 39.99896940000001], [116.33622909999998, 39.998940100000006]]]}}, {"type": "Feature", "id": "GS-0049", "properties": {"id": "GS-0049", "layer": "GREEN_SPACE", "name_zh": "既有公园绿地", "area_sqm": 7769.6, "source_id": "OSM-DERIVED-CORRIDOR-20260808", "source_type": "osm", "confidence": "medium", "geometry_role": "existing_condition"}, "geometry": {"type": "Polygon", "coordinates": [[[116.342521, 39.9991411], [116.3425222, 39.999094899999996], [116.3391551, 39.9990121], [116.33916189999998, 39.99925249999999], [116.3425621, 39.9993375], [116.3425746, 39.99914270000001], [116.342521, 39.9991411]]]}}, {"type": "Feature", "id": "GS-0050", "properties": {"id": "GS-0050", "layer": "GREEN_SPACE", "name_zh": "既有公园绿地", "area_sqm": 6625.0, "source_id": "OSM-DERIVED-CORRIDOR-20260808", "source_type": "osm", "confidence": "medium", "geometry_role": "existing_condition"}, "geometry": {"type": "Polygon", "coordinates": [[[116.33996830000001, 39.99995160000001], [116.33840719999999, 39.9999229], [116.33838040000002, 40.00039960000001], [116.33938889999999, 40.000416], [116.3395606, 40.0003215], [116.3399468, 40.000337900000005], [116.33996830000001, 39.99995160000001]]]}}, {"type": "Feature", "id": "GS-0051", "properties": {"id": "GS-0051", "layer": "GREEN_SPACE", "name_zh": "既有公园绿地", "area_sqm": 2029.5, "source_id": "OSM-DERIVED-CORRIDOR-20260808", "source_type": "osm", "confidence": "medium", "geometry_role": "existing_condition"}, "geometry": {"type": "Polygon", "coordinates": [[[116.3423887, 40.0044143], [116.3400954, 40.0044246], [116.34009810000002, 40.00451089999999], [116.3423833, 40.00451499999999], [116.3423887, 40.0044143]]]}}, {"type": "Feature", "id": "GS-0052", "properties": {"id": "GS-0052", "layer": "GREEN_SPACE", "name_zh": "既有公园绿地", "area_sqm": 1514.2, "source_id": "OSM-DERIVED-CORRIDOR-20260808", "source_type": "osm", "confidence": "medium", "geometry_role": "existing_condition"}, "geometry": {"type": "Polygon", "coordinates": [[[116.34534110000001, 40.006181099999985], [116.34574240000002, 40.0061968], [116.3459458, 40.00608719999999], [116.3459607, 40.005905899999995], [116.345338, 40.0059178], [116.34534110000001, 40.006181099999985]]]}}, {"type": "Feature", "id": "GS-0053", "properties": {"id": "GS-0053", "layer": "GREEN_SPACE", "name_zh": "既有公园绿地", "area_sqm": 7901.6, "source_id": "OSM-DERIVED-CORRIDOR-20260808", "source_type": "osm", "confidence": "medium", "geometry_role": "existing_condition"}, "geometry": {"type": "Polygon", "coordinates": [[[116.3452053, 40.007073599999984], [116.34321330000002, 40.007064299999996], [116.3432159, 40.007484999999996], [116.345196, 40.0074921], [116.3452053, 40.007073599999984]]]}}, {"type": "Feature", "id": "GS-0054", "properties": {"id": "GS-0054", "layer": "GREEN_SPACE", "name_zh": "既有公园绿地", "area_sqm": 1946.3, "source_id": "OSM-DERIVED-CORRIDOR-20260808", "source_type": "osm", "confidence": "medium", "geometry_role": "existing_condition"}, "geometry": {"type": "Polygon", "coordinates": [[[116.33649429999998, 40.010446399999985], [116.33637840000002, 40.0104574], [116.3362592, 40.0104912], [116.3361775, 40.0105386], [116.3362802, 40.0106561], [116.3363729, 40.0107812], [116.33649759999999, 40.01094689999999], [116.3367195, 40.010874999999984], [116.33668300000001, 40.010826], [116.33666319999999, 40.010737199999994], [116.3367173, 40.010684], [116.3368067, 40.0106586], [116.3368883, 40.01064590000001], [116.33687950000001, 40.01057319999999], [116.3368232, 40.0104988], [116.3366665, 40.0104481], [116.33649429999998, 40.010446399999985]]]}}, {"type": "Feature", "id": "GS-0056", "properties": {"id": "GS-0056", "layer": "GREEN_SPACE", "name_zh": "既有公园绿地", "area_sqm": 2688.6, "source_id": "OSM-DERIVED-CORRIDOR-20260808", "source_type": "osm", "confidence": "medium", "geometry_role": "existing_condition"}, "geometry": {"type": "Polygon", "coordinates": [[[116.33704300000001, 40.01163369999999], [116.33702719999998, 40.01174529999999], [116.33691940000001, 40.01173080000002], [116.336903, 40.0117596], [116.3368064, 40.0118238], [116.33691469999998, 40.0119654], [116.33703279999999, 40.011902400000004], [116.3372264, 40.01183590000001], [116.3373548, 40.01183069999999], [116.33737150000002, 40.01175400000001], [116.33736790000002, 40.011674699999986], [116.3373331, 40.01159309999999], [116.33727879999999, 40.011526], [116.33724940000002, 40.01144889999999], [116.3372388, 40.01126020000002], [116.3371836, 40.01122699999999], [116.33696950000001, 40.011198199999995], [116.33689219999998, 40.011194800000006], [116.33679730000001, 40.0112219], [116.3366715, 40.0113107], [116.33669470000001, 40.0114349], [116.33675020000001, 40.0114435], [116.3368443, 40.011476], [116.3368805, 40.0114318], [116.33690709999999, 40.011443200000016], [116.3369577, 40.011470200000005], [116.33697400000001, 40.0114897], [116.3370277, 40.011474899999996], [116.33707720000001, 40.011570699999986], [116.33702919999999, 40.011593399999995], [116.33704300000001, 40.01163369999999]]]}}, {"type": "Feature", "id": "GS-0057", "properties": {"id": "GS-0057", "layer": "GREEN_SPACE", "name_zh": "既有公园绿地", "area_sqm": 542.7, "source_id": "OSM-DERIVED-CORRIDOR-20260808", "source_type": "osm", "confidence": "medium", "geometry_role": "existing_condition"}, "geometry": {"type": "Polygon", "coordinates": [[[116.3374653, 40.011565899999994], [116.33739550000001, 40.01157769999998], [116.337449, 40.0117237], [116.33743690000001, 40.01177710000001], [116.3373996, 40.01184049999999], [116.3375285, 40.01186100000001], [116.337711, 40.0118641], [116.3377784, 40.011862900000004], [116.33777509999999, 40.011840500000005], [116.3377248, 40.01183739999998], [116.337724, 40.0118119], [116.33765830000002, 40.01180759999999], [116.3375902, 40.01167149999999], [116.3375577, 40.0115988], [116.3374653, 40.011565899999994]]]}}, {"type": "Feature", "id": "GS-0058", "properties": {"id": "GS-0058", "layer": "GREEN_SPACE", "name_zh": "既有公园绿地", "area_sqm": 10627.0, "source_id": "OSM-DERIVED-CORRIDOR-20260808", "source_type": "osm", "confidence": "medium", "geometry_role": "existing_condition"}, "geometry": {"type": "Polygon", "coordinates": [[[116.3394809, 40.01220790000001], [116.3394977, 40.01167869999999], [116.3390014, 40.0116396], [116.33874959999999, 40.01162109999999], [116.3383173, 40.011571999999994], [116.33877449999999, 40.01263990000001], [116.339043, 40.01266749999999], [116.3390938, 40.0128122], [116.33913840000001, 40.01292080000001], [116.3392603, 40.01292039999999], [116.3395865, 40.0129056], [116.33960570000002, 40.012699700000006], [116.3396002, 40.01241859999999], [116.3394809, 40.01220790000001]]]}}, {"type": "Feature", "id": "GS-0059", "properties": {"id": "GS-0059", "layer": "GREEN_SPACE", "name_zh": "既有公园绿地", "area_sqm": 3091.1, "source_id": "OSM-DERIVED-CORRIDOR-20260808", "source_type": "osm", "confidence": "medium", "geometry_role": "existing_condition"}, "geometry": {"type": "Polygon", "coordinates": [[[116.3376186, 40.012203800000016], [116.3374344, 40.012195600000005], [116.337267, 40.0122087], [116.3372045, 40.0122507], [116.3372216, 40.0122833], [116.3373001, 40.012326099999996], [116.3373351, 40.01241009999999], [116.33737670000001, 40.012513799999994], [116.3374515, 40.012534800000005], [116.33749630000001, 40.01257509999999], [116.33751580000002, 40.01263530000001], [116.3374991, 40.012676299999995], [116.33747200000002, 40.01270449999999], [116.33742259999998, 40.01272269999998], [116.337399, 40.0127637], [116.3373948, 40.0128329], [116.33740730000001, 40.01291859999999], [116.33745460000002, 40.01292449999999], [116.3376564, 40.01293069999999], [116.3378712, 40.012932100000015], [116.33787020000001, 40.012887199999994], [116.33789860000002, 40.01279809999999], [116.3379081, 40.0126785], [116.3378646, 40.012602400000006], [116.33778130000002, 40.01246759999999], [116.33776240000002, 40.012364000000005], [116.33775200000001, 40.01221830000001], [116.3376186, 40.012203800000016]]]}}, {"type": "Feature", "id": "GS-0060", "properties": {"id": "GS-0060", "layer": "GREEN_SPACE", "name_zh": "既有公园绿地", "area_sqm": 30336.5, "source_id": "OSM-DERIVED-CORRIDOR-20260808", "source_type": "osm", "confidence": "medium", "geometry_role": "existing_condition"}, "geometry": {"type": "Polygon", "coordinates": [[[116.35047750000001, 39.9433667], [116.35047209999999, 39.943420200000006], [116.35049370000002, 39.94357019999999], [116.35047710000002, 39.9447369], [116.3504803, 39.945306900000006], [116.35054710000001, 39.945505], [116.3505382, 39.94615730000001], [116.3504999, 39.9462323], [116.3504882, 39.946554], [116.35065449999999, 39.946554], [116.35070712261681, 39.94657306971081], [116.35082305925486, 39.946509133961065], [116.35082310670083, 39.94650911037731], [116.35082315688031, 39.946509090424804], [116.35082320932565, 39.94650907428951], [116.35088016392335, 39.94649396205466], [116.35084128329848, 39.94643761120027], [116.35084125891281, 39.94643757124367], [116.35084123972754, 39.94643752964125], [116.35084122592713, 39.94643748679283], [116.35084121764415, 39.946437443110256], [116.35084121495822, 39.946437399013334], [116.35084121789518, 39.946437354925884], [116.3508412264268, 39.94643731127165], [116.35084124047106, 39.946437268470206], [116.350841259893, 39.946437226932886], [116.35084128450595, 39.94643718705893], [116.35084131407335, 39.94643714923157], [116.350841348311, 39.94643711381437], [116.35084138688991, 39.94643708114771], [116.35084142943921, 39.94643705154556], [116.35084147555, 39.94643702529244], [116.35084152477911, 39.94643700264065], [116.3508415766534, 39.946436983807914], [116.35084163067428, 39.946436968975235], [116.35128163067178, 39.94633456897585], [116.3512816915954, 39.94633455750061], [116.35128175376497, 39.94633455111128], [116.35345455375086, 39.946201951112016], [116.35345461289677, 39.9462019498122], [116.35345467191075, 39.946201953117324], [116.3539917719073, 39.94625315311698], [116.35399182743562, 39.94625316051517], [116.35399188178152, 39.94625317199113], [116.35399193444077, 39.946253187438344], [116.35399198492478, 39.94625320671354], [116.3539920327651, 39.94625322963782], [116.35399207751784, 39.94625325599849], [116.35399211876783, 39.94625328555099], [116.35399215613225, 39.94625331802109], [116.3539921892645, 39.94625335310754], [116.35399221785708, 39.94625339048477], [116.35399224164473, 39.94625342980599], [116.35399226040674, 39.94625347070635], [116.35399227396904, 39.94625351280636], [116.35399228220575, 39.9462535557154], [116.35399228504049, 39.94625359903532], [116.35399228244694, 39.946253642364205], [116.35399227444914, 39.94625368530001], [116.35399226112135, 39.94625372744436], [116.35399224258718, 39.946253768406216], [116.35399221901864, 39.946253807805526], [116.35399219063439, 39.9462538452767], [116.35393604231342, 39.94632038219813], [116.35401127133471, 39.946354543684436], [116.3540821, 39.94630419999999], [116.3542508, 39.94618139999999], [116.35345010000002, 39.946065899999994], [116.3513862, 39.946180700000006], [116.3507891, 39.9462139], [116.35073340000001, 39.943991399999994], [116.35099380000001, 39.943564699999996], [116.35127139999999, 39.9434407], [116.35329, 39.944045100000004], [116.3557193, 39.9447214], [116.35601755703641, 39.94445853724173], [116.35594298692146, 39.9444048070305], [116.3539268, 39.9438685], [116.3536747, 39.9438397], [116.35272649999999, 39.94361409999999], [116.3526729, 39.943519499999994], [116.351026, 39.9430794], [116.35083690000002, 39.943078799999995], [116.35067730000002, 39.9431288], [116.35058610000002, 39.9432316], [116.35047750000001, 39.9433667]]]}}, {"type": "Feature", "id": "GS-0061", "properties": {"id": "GS-0061", "layer": "GREEN_SPACE", "name_zh": "既有公园绿地", "area_sqm": 3615.7, "source_id": "OSM-DERIVED-CORRIDOR-20260808", "source_type": "osm", "confidence": "medium", "geometry_role": "existing_condition"}, "geometry": {"type": "Polygon", "coordinates": [[[116.3504668, 39.94680489999999], [116.3503984, 39.9468055], [116.35034340000001, 39.9481086], [116.3503166, 39.9484417], [116.35028722506091, 39.94854526557642], [116.35046966904154, 39.94856195284946], [116.35046973318364, 39.948561961525535], [116.35054149678164, 39.94857487387145], [116.3505848, 39.9484499], [116.35065590000002, 39.9482531], [116.35063980000001, 39.9481832], [116.3507028, 39.9481415], [116.3506827, 39.9480598], [116.35063980000001, 39.948039299999984], [116.35066659999998, 39.9479077], [116.3505164, 39.9473607], [116.3504668, 39.94680489999999]]]}}, {"type": "Feature", "id": "GS-0062", "properties": {"id": "GS-0062", "layer": "GREEN_SPACE", "name_zh": "既有公园绿地", "area_sqm": 3137.6, "source_id": "OSM-DERIVED-CORRIDOR-20260808", "source_type": "osm", "confidence": "medium", "geometry_role": "existing_condition"}, "geometry": {"type": "Polygon", "coordinates": [[[116.35020929999999, 39.94881999999999], [116.34983510000002, 39.94988990000001], [116.3498083, 39.9499392], [116.34988739999999, 39.9499921], [116.3501288, 39.949765899999996], [116.3505274001276, 39.94861555696575], [116.35045455331209, 39.94860103591399], [116.35045452450677, 39.94860102956195], [116.35028317052135, 39.948559560413365], [116.35020929999999, 39.94881999999999]]]}}]}