{"type": "FeatureCollection", "features": [{"type": "Feature", "id": "KEY-001", "properties": {"id": "KEY-001", "layer": "KEY_AREA", "area_id": "zhongzhiyuan_ai_acceleration_area", "name_zh": "众智园AI自主创新加速区", "official_area_sqm": 1921000, "area_sqm_declared": 1973684.2, "derivation_method": "position from the place names the announcement uses for this area, located from OSM nodes; extent grown over the same partition to the announced area", "source_type": "osm", "confidence": "medium", "geometry_role": "provisional_constraint", "official_boundary": false, "boundary_precision": "provisional_rough", "source_id": "OSM-DERIVED-CORRIDOR-20260808", "source_title": "OSM 路网/铁路/水系剖分 + 公告点名四至道路推定的临时走廊边界", "source_date": "2026-08-08", "original_format": "geojson", "original_crs": "EPSG:4326 (OSM), area recomputed in EPSG:4548", "usage_note": "provisional only; not an official redline, approval basis, or precise-area basis; recompute all layers when official polygons are published"}, "geometry": {"type": "Polygon", "coordinates": [[[116.33366590000001, 40.00272869999999], [116.33357830000001, 40.00266349999998], [116.3335287, 40.00259359999999], [116.33341470000002, 40.00233310000001], [116.3330955, 40.0014709], [116.333009, 40.0012396], [116.33268270000002, 40.0005237], [116.33265010000001, 40.0004522], [116.33216940000001, 39.999536400000004], [116.3320927, 39.9993921], [116.3320453, 39.99931409999999], [116.3319481, 39.99928599999999], [116.33190244915781, 39.999275743999824], [116.33161051712933, 39.999269260764066], [116.331548, 40.0004956], [116.3313611, 40.005014799999984], [116.33129690000001, 40.0055994], [116.3311822, 40.0061579], [116.3310376, 40.0066602], [116.33096879999998, 40.00687370000001], [116.3308473, 40.0071783], [116.33053900000002, 40.00775159999999], [116.3303569, 40.0080352], [116.330046, 40.0084323], [116.3297702, 40.008754200000006], [116.32947679999998, 40.009048400000005], [116.32900659999999, 40.00949080000001], [116.3248705, 40.013134], [116.3217142, 40.0159276], [116.32152287211599, 40.01609399451539], [116.3215827, 40.0161534], [116.3216411, 40.0161872], [116.3217305, 40.016257499999995], [116.3218211, 40.016372499999996], [116.3218331, 40.0165003], [116.32188190000001, 40.01669390000001], [116.32194039999999, 40.016989699999996], [116.32198330000001, 40.017204200000016], [116.3220226318414, 40.017398195103006], [116.3220453, 40.017509999999994], [116.32208230501828, 40.017715816161584], [116.32211079999999, 40.017874299999995], [116.32217160000002, 40.01817650000001], [116.32220740000001, 40.0183938], [116.32237519999998, 40.01925950000001], [116.32240750000001, 40.019414699999984], [116.32244964149827, 40.019577073145456], [116.32249138116956, 40.01973789727586], [116.3225014, 40.0197765], [116.32261330000001, 40.0199024], [116.3226651, 40.01995879999999], [116.3227485, 40.020080099999994], [116.3228294, 40.02025549999999], [116.32281710000001, 40.0203619], [116.32262892896347, 40.02028634583738], [116.3228126, 40.0206691], [116.32127580000001, 40.02010140000001], [116.32072828704982, 40.0199249570782], [116.32062092847936, 40.0200940022222], [116.3205451, 40.02021339999999], [116.319021, 40.022692799999994], [116.31841089999999, 40.02371050000001], [116.3180827, 40.0243203], [116.3178744, 40.024791599999986], [116.3173441, 40.026032400000005], [116.31672260000002, 40.0280938], [116.31635666155192, 40.029315522761955], [116.3166241, 40.02935899999999], [116.31826539999999, 40.0296274], [116.31840070000001, 40.029649499999984], [116.31859470000002, 40.0296861], [116.31900159999999, 40.02974350000001], [116.31973970000001, 40.0297698], [116.3198847, 40.02976559999999], [116.3201989, 40.0297566], [116.3214104, 40.0297199], [116.3214704, 40.0297181], [116.3231311, 40.02965269999999], [116.32350839999998, 40.0296365], [116.3236024, 40.029632400000004], [116.3236122, 40.029344], [116.3238643, 40.028795800000005], [116.32390820000002, 40.028535299999994], [116.32391420000002, 40.0284998], [116.3241328, 40.0279698], [116.3241852, 40.02784289999999], [116.32473150000001, 40.0269498], [116.3249888, 40.026529000000004], [116.32510320000002, 40.02643789999999], [116.3252705, 40.02641999999999], [116.32690880000001, 40.02654449999999], [116.3275096, 40.0265901], [116.32768769999998, 40.02659659999999], [116.3278019, 40.0266019], [116.32822659999998, 40.0266164], [116.3293023, 40.02661119999999], [116.3306743, 40.02660989999999], [116.33080289999998, 40.0266098], [116.33078870000001, 40.0262682], [116.33076860000001, 40.0259157], [116.3307633, 40.0254485], [116.33073739999999, 40.02417739999999], [116.33075669908146, 40.02339652794928], [116.33076704631569, 40.02297785267653], [116.33077092291596, 40.02282099392493], [116.3307744, 40.0226803], [116.3308034278629, 40.021911376535535], [116.33080859834361, 40.02177441273088], [116.3308165, 40.0215651], [116.33082160081518, 40.02146025142562], [116.33075800000002, 40.0214178], [116.3307948, 40.02087379999999], [116.3308033, 40.02017599999999], [116.3308084, 40.0197554], [116.33092480000002, 40.01947669999999], [116.3309347, 40.0193305], [116.33099219999998, 40.01847810000001], [116.3310087, 40.01783419999999], [116.3310204, 40.0173772], [116.33103140000001, 40.016946399999995], [116.33103860000001, 40.01648709999999], [116.3310435, 40.0161781], [116.3310448, 40.01609210000001], [116.3310507, 40.0157131], [116.331051, 40.0156924], [116.3310535, 40.015532], [116.3310547, 40.01545529999999], [116.33105750000001, 40.01527790000001], [116.3310532, 40.013933], [116.33106140000001, 40.01371459999999], [116.3310619, 40.013700599999986], [116.3310654, 40.013602899999995], [116.3309661, 40.01360760000001], [116.33010700000001, 40.013588899999995], [116.3290075, 40.0135541], [116.32880439999998, 40.0135427], [116.32871, 40.01354260000001], [116.3283716, 40.0135156], [116.3280721, 40.013466799999996], [116.327773, 40.01341440000001], [116.327338, 40.013297699999995], [116.3265429, 40.013030500000006], [116.3264013, 40.012986399999996], [116.32630180000001, 40.012991899999996], [116.3262005, 40.01300989999999], [116.3261028, 40.01304319999999], [116.3259843, 40.013096899999994], [116.3261975, 40.012918600000006], [116.3263947, 40.01274149999999], [116.3263785, 40.01281430000001], [116.3263907, 40.0128696], [116.32641530000001, 40.0129134], [116.3264691, 40.012943799999995], [116.3265815, 40.012980699999986], [116.3273687, 40.0132282], [116.3277469, 40.013341999999994], [116.3281393, 40.0134073], [116.3287233, 40.0134701], [116.32939990000001, 40.01348240000001], [116.3295557, 40.01348550000001], [116.3309346, 40.0135139], [116.3309761, 40.013512], [116.33107169999998, 40.01351320000001], [116.33116430000001, 40.0135121], [116.33124770000002, 40.013513799999984], [116.3313291, 40.0135142], [116.3330541, 40.01358319999999], [116.3333564, 40.013610699999994], [116.33336, 40.01352959999999], [116.33335960000001, 40.01350659999999], [116.3334252, 40.01206259999999], [116.3334662, 40.0111389], [116.33349070000001, 40.010588000000006], [116.3334982, 40.01041949999998], [116.333502, 40.0103334], [116.33353549999998, 40.009483100000004], [116.33356620000002, 40.008633999999994], [116.33359120000001, 40.0079421], [116.3336063, 40.0071712], [116.33362810000001, 40.006754699999995], [116.3350693, 40.0063728], [116.33518469999999, 40.006343400000006], [116.33536109999999, 40.0062984], [116.33531160000001, 40.006196499999994], [116.3350164, 40.0055891], [116.33488200000001, 40.0053125], [116.33481200000001, 40.005168600000005], [116.33474540000002, 40.0050438], [116.3345034, 40.0045903], [116.3342758, 40.00412879999999], [116.3342637, 40.004101999999996], [116.3340961, 40.00373079999999], [116.333954, 40.00336169999999], [116.33393950000001, 40.0033241], [116.33390860000002, 40.0032439], [116.33387620000002, 40.0031596], [116.3337735, 40.00289279999999], [116.3336754, 40.0027358], [116.33366590000001, 40.00272869999999]], [[116.3243966, 40.0177805], [116.32443900000001, 40.0176352], [116.32443900000001, 40.017509399999994], [116.3244362, 40.017355499999994], [116.32439369999999, 40.017212400000005], [116.3245013, 40.01711480000001], [116.32460330000002, 40.01707789999999], [116.32474769999999, 40.01708880000001], [116.3249487, 40.01713], [116.32506190000001, 40.01717769999999], [116.3251582, 40.017234], [116.325161, 40.0173251], [116.3251384, 40.01742050000001], [116.32508180000002, 40.01748769999998], [116.3250223, 40.01755059999999], [116.324926, 40.017593999999995], [116.32488359999999, 40.0176872], [116.3248496, 40.0177761], [116.32481849999999, 40.0179084], [116.3247675, 40.01796259999999], [116.3246656, 40.01801679999999], [116.32451160000001, 40.01799590000001], [116.3244419, 40.0179865], [116.3244022, 40.017878100000004], [116.3243966, 40.0177805]], [[116.3265432, 40.01412919999999], [116.3265687, 40.01399469999999], [116.32662820000002, 40.0138516], [116.3267329, 40.01380609999998], [116.32690280000001, 40.01381039999999], [116.3271237, 40.013816899999995], [116.32730770000002, 40.0137866], [116.3275002, 40.013766999999994], [116.3277664, 40.0137475], [116.32793060000002, 40.013754], [116.3280212, 40.01378439999999], [116.32820529999998, 40.0138321], [116.32825620000001, 40.0138798], [116.32816, 40.01395350000001], [116.3279051, 40.013957899999994], [116.3277098, 40.0139557], [116.32751160000001, 40.013946999999995], [116.32740679999999, 40.01394049999999], [116.32720010000001, 40.0139449], [116.3270529, 40.01398609999999], [116.32691419999999, 40.01409230000001], [116.32684339999999, 40.0141747], [116.3267471, 40.014302699999995], [116.3266197, 40.0144935], [116.3265432, 40.0144241], [116.3265348, 40.0142875], [116.3265432, 40.01412919999999]], [[116.32763330000002, 40.0140663], [116.32787120000002, 40.01405979999999], [116.3281543, 40.01408359999999], [116.3282279, 40.0141986], [116.3282534, 40.0143135], [116.3281798, 40.0144306], [116.328041, 40.014491299999996], [116.32791359999999, 40.014569400000006], [116.32775790000001, 40.0145911], [116.32768430000002, 40.014461000000004], [116.32754840000001, 40.0144241], [116.3274181, 40.0143959], [116.32722559999999, 40.0143569], [116.32709819999998, 40.014333], [116.3269283, 40.0142723], [116.32708969999999, 40.014159500000005], [116.327404, 40.0141032], [116.32763330000002, 40.0140663]], [[116.3266776, 40.0146199], [116.3267471, 40.0147286], [116.326821, 40.014824899999994], [116.32680500000001, 40.0148787], [116.3267754, 40.0149438], [116.32673480000001, 40.0150382], [116.32666939999999, 40.01506369999999], [116.32657819999999, 40.01503919999999], [116.32653260000001, 40.014989199999995], [116.32657450000002, 40.0149146], [116.3266719, 40.0148136], [116.3266596, 40.014773000000005], [116.3266182, 40.014669000000005], [116.3266776, 40.0146199]], [[116.32516150000001, 40.01908309999999], [116.3252246, 40.01912649999999], [116.3253023, 40.019141], [116.32552080000002, 40.0190461], [116.3255985, 40.0187999], [116.32568460000002, 40.0187565], [116.32579179999999, 40.018756499999995], [116.32585689999999, 40.01880469999999], [116.32586529999999, 40.0188739], [116.32578969999999, 40.01915220000001], [116.32579810000001, 40.01938069999998], [116.32575180000002, 40.0194434], [116.32560060000002, 40.01945950000001], [116.325422, 40.01939360000001], [116.325046, 40.019160299999996], [116.32481070000001, 40.0189447], [116.32479389999999, 40.01890129999999], [116.32482960000002, 40.01887709999999], [116.3250838, 40.01894789999999], [116.32516150000001, 40.01908309999999]]]}}, {"type": "Feature", "id": "KEY-002", "properties": {"id": "KEY-002", "layer": "KEY_AREA", "area_id": "beijing_ai_origin_community", "name_zh": "北京AI原点社区", "official_area_sqm": 1043000, "area_sqm_declared": 1040988.5, "derivation_method": "position from the place names the announcement uses for this area, located from OSM nodes; extent grown over the same partition to the announced area", "source_type": "osm", "confidence": "medium", "geometry_role": "provisional_constraint", "official_boundary": false, "boundary_precision": "provisional_rough", "source_id": "OSM-DERIVED-CORRIDOR-20260808", "source_title": "OSM 路网/铁路/水系剖分 + 公告点名四至道路推定的临时走廊边界", "source_date": "2026-08-08", "original_format": "geojson", "original_crs": "EPSG:4326 (OSM), area recomputed in EPSG:4548", "usage_note": "provisional only; not an official redline, approval basis, or precise-area basis; recompute all layers when official polygons are published"}, "geometry": {"type": "Polygon", "coordinates": [[[116.3319392, 39.98603990000001], [116.33196260792666, 39.9860143285492], [116.33194666813047, 39.986154472125705], [116.331908411592, 39.986186600720174], [116.33187930000001, 39.98646289999999], [116.3318619, 39.9866283], [116.3318362, 39.987386400000005], [116.33175569999999, 39.989386499999995], [116.33175462185702, 39.98941201476605], [116.3313514, 39.98939560000001], [116.3312827, 39.98939279999999], [116.33084269999999, 39.9913526], [116.33083610000001, 39.9913819], [116.33082800000001, 39.991417899999995], [116.33081489999998, 39.991488899999986], [116.3308435, 39.99157769999999], [116.33086399999999, 39.991659399999996], [116.33088169999999, 39.99171489999999], [116.3310794, 39.9923361], [116.33118380000002, 39.9926874], [116.33129630000002, 39.993065999999985], [116.33133650000002, 39.9932588], [116.331352, 39.99336650000001], [116.3313621, 39.993467700000004], [116.33136029999999, 39.9936198], [116.3313352, 39.9941338], [116.3312155, 39.9960896], [116.3311455, 39.997282299999995], [116.3311372, 39.99742249999999], [116.33113110000001, 39.99752419999999], [116.33112130000002, 39.997658], [116.3311044, 39.99788849999999], [116.3311042, 39.99794589999999], [116.33105159999998, 39.9989766], [116.33104519999999, 39.9991033], [116.33104107193608, 39.99922457336827], [116.33136260708815, 39.99923358317344], [116.33136725151716, 39.99910795086145], [116.33140782460259, 39.99910853577768], [116.33145389999999, 39.9991092], [116.33147626105301, 39.99910971258224], [116.33152287277481, 39.99911078104847], [116.33155860000001, 39.9991116], [116.3316183930287, 39.99911476315788], [116.33161197970107, 39.99924057028107], [116.33254830000001, 39.999266799999994], [116.3327213, 39.99927160000001], [116.33263600000001, 39.9992808], [116.3327238, 39.99929399999999], [116.33254899999999, 39.999290099999996], [116.33190244915781, 39.999275743999824], [116.3319481, 39.99928599999999], [116.3320453, 39.99931409999999], [116.3320927, 39.9993921], [116.33216940000001, 39.999536400000004], [116.33265010000001, 40.0004522], [116.33268270000002, 40.0005237], [116.3332533, 40.0005271], [116.33324910000002, 40.0007007], [116.33332849999998, 40.000702600000004], [116.33368970000001, 40.000711599999995], [116.3337764, 40.00071380000001], [116.33379140000001, 40.00033860000001], [116.33382190000002, 39.99957229999998], [116.33382340000001, 39.99953659999999], [116.3338269, 39.9994562], [116.33379610000001, 39.9993739], [116.33378461832544, 39.999317038428956], [116.33378117096233, 39.999299965772], [116.33377090000002, 39.9992491], [116.33393209999998, 39.999251099999995], [116.33393320000002, 39.999151499999996], [116.33393449999998, 39.9991205], [116.3339364, 39.999046899999996], [116.33394880000002, 39.998566600000004], [116.33398189999998, 39.9977563], [116.33398570000001, 39.99763959999999], [116.33399710000002, 39.997287099999994], [116.3339274, 39.996992399999996], [116.3339499, 39.996548499999996], [116.3339697, 39.9961574], [116.33402539999999, 39.99600619999999], [116.33402840000001, 39.99563589999999], [116.3340381, 39.99545669999999], [116.3341224, 39.993914300000014], [116.33415010000002, 39.99340920000001], [116.3341942, 39.99260169999999], [116.33424130000002, 39.991740300000004], [116.3342574, 39.991657399999994], [116.33440229999998, 39.9916617], [116.3348373, 39.991674399999994], [116.3371872, 39.9917446], [116.3371804, 39.9918392], [116.3371392, 39.9922855], [116.33710990000002, 39.99260319999999], [116.3370978, 39.9927343], [116.33706459999999, 39.99332789999999], [116.3380941, 39.9934068], [116.3389888, 39.9934739], [116.3399025, 39.9935425], [116.33999, 39.99354910000001], [116.34028989999999, 39.993442300000005], [116.3404307, 39.9934247], [116.3409526, 39.993549099999996], [116.341141, 39.9935866], [116.34200510000001, 39.99363009999999], [116.34207230000001, 39.9927237], [116.34212750000002, 39.9919787], [116.34212839999999, 39.9919407], [116.34213029999998, 39.99187739999999], [116.3421313, 39.9918127], [116.34213290000001, 39.991746500000005], [116.34213350000002, 39.99170659999999], [116.3421298, 39.9916849], [116.3421189, 39.99161869999999], [116.34212890000002, 39.9910851], [116.3421307, 39.99103269999999], [116.34215480000002, 39.9904722], [116.3421565, 39.9904334], [116.342163, 39.989743499999996], [116.3421907, 39.98904139999999], [116.34219290000001, 39.9889847], [116.34219869999998, 39.988837600000004], [116.3422086, 39.9885858], [116.34224720000002, 39.98760559999999], [116.3422507, 39.98751690000001], [116.34419140000001, 39.98755469999998], [116.34525500000001, 39.987575400000004], [116.34672030000002, 39.987616100000004], [116.34688799999999, 39.9876208], [116.34695120000002, 39.9860032], [116.3469523, 39.9859749], [116.3467685, 39.9857998], [116.34676851471569, 39.98570231607035], [116.3451442, 39.985636199999995], [116.3444762, 39.9856109], [116.34421959999999, 39.9856054], [116.34236789999999, 39.98555309999999], [116.34185410000002, 39.98554219999999], [116.34067960000002, 39.98552320000001], [116.3401091, 39.98550779999999], [116.33986829999999, 39.985500699999996], [116.33966730000002, 39.985494499999994], [116.3393235, 39.9854863], [116.3389635, 39.98547349999999], [116.33811989999998, 39.98543149999999], [116.33461847833138, 39.98529103508778], [116.3346144, 39.98537420000001], [116.33461340000001, 39.98539499999999], [116.33460950000001, 39.98544319999999], [116.3344996, 39.9854469], [116.3345037, 39.9853687], [116.33450837349649, 39.98528661633922], [116.33451740444423, 39.98512799929779], [116.33452657729167, 39.984966889122596], [116.33463412552624, 39.984971956959775], [116.33464447505875, 39.98476090706845], [116.33453848854124, 39.984754255759405], [116.33412650000001, 39.984728399999995], [116.3333858, 39.9847654], [116.33248405046409, 39.984737593311564], [116.33245920480364, 39.984869451840325], [116.33245510726366, 39.984891197864016], [116.33243151753572, 39.985032056755564], [116.33240222316641, 39.98520697832854], [116.33238468370241, 39.985311708947094], [116.3323759166637, 39.98531146684576], [116.33230590164236, 39.98530953336066], [116.33229714724168, 39.98534370449538], [116.3323023572691, 39.98530943548065], [116.33231838615043, 39.985204005104], [116.33234513204263, 39.98502808254997], [116.33236988900123, 39.98486524146271], [116.33238973764797, 39.98473468463964], [116.33216070519582, 39.98472762080137], [116.33215370000002, 39.98476990000001], [116.33213969692169, 39.9848543898095], [116.33211268196366, 39.9850173882519], [116.3320831351989, 39.985195661758894], [116.33206536320155, 39.985302890499014], [116.33203199218083, 39.985301968864285], [116.3320108, 39.985430699999995], [116.331941, 39.9858773], [116.33192242765037, 39.986053572897305], [116.3319392, 39.98603990000001]], [[116.3341584, 39.9916531], [116.3341782, 39.99156949999999], [116.33427230000001, 39.991574199999995], [116.3342574, 39.991657399999994], [116.3341584, 39.9916531]], [[116.3318269, 39.9915993], [116.3318231, 39.9916748], [116.33175883334333, 39.99304646541668], [116.33181553599472, 39.991599050894955], [116.33172299988945, 39.99159702241272], [116.33167642004301, 39.99159600130878], [116.3316772, 39.9915751], [116.33167964808358, 39.991509673805176], [116.33172594472887, 39.99151081211814], [116.33181890313449, 39.99151309766534], [116.3318312, 39.9915134], [116.33190469109297, 39.99151530312419], [116.33190204684838, 39.99160113926199], [116.3318269, 39.9915993]]]}}, {"type": "Feature", "id": "KEY-003", "properties": {"id": "KEY-003", "layer": "KEY_AREA", "area_id": "dazhongsi_ai_industry_cluster", "name_zh": "大钟寺AI产业聚集区", "official_area_sqm": 720000, "area_sqm_declared": 687128.9, "derivation_method": "position from the place names the announcement uses for this area, located from OSM nodes; extent grown over the same partition to the announced area", "source_type": "osm", "confidence": "medium", "geometry_role": "provisional_constraint", "official_boundary": false, "boundary_precision": "provisional_rough", "source_id": "OSM-DERIVED-CORRIDOR-20260808", "source_title": "OSM 路网/铁路/水系剖分 + 公告点名四至道路推定的临时走廊边界", "source_date": "2026-08-08", "original_format": "geojson", "original_crs": "EPSG:4326 (OSM), area recomputed in EPSG:4548", "usage_note": "provisional only; not an official redline, approval basis, or precise-area basis; recompute all layers when official polygons are published"}, "geometry": {"type": "Polygon", "coordinates": [[[116.33469959999998, 39.96278780000001], [116.33441500000002, 39.96299969999999], [116.33433370000002, 39.963068199999995], [116.33423210000001, 39.96315859999999], [116.3341305, 39.96324899999999], [116.3340146, 39.96336109999999], [116.3339394, 39.96344529999999], [116.33382550000002, 39.96359170000001], [116.3337381, 39.96372410000001], [116.3336324, 39.963879899999995], [116.33356740000002, 39.96399679999999], [116.33348809999998, 39.9641495], [116.3334393, 39.9642679], [116.33339260000001, 39.96440650000001], [116.33336410000001, 39.9645203], [116.3333316, 39.9646543], [116.33330920000002, 39.9648007], [116.33329090000001, 39.964947200000005], [116.33317210000001, 39.9659632], [116.3331703, 39.96597819999999], [116.3331608, 39.9660597], [116.33332600000001, 39.9660609], [116.33404673163774, 39.966066345191706], [116.3335193, 39.96609480000001], [116.33315236492146, 39.9661014980854], [116.33313520739593, 39.96618651807869], [116.33313328243007, 39.966196056770436], [116.33311156242122, 39.96630368470327], [116.3330826, 39.9664472], [116.33306830000001, 39.966595999999996], [116.3330669, 39.966610299999985], [116.33300469999999, 39.967255699999995], [116.3329359, 39.96777699999999], [116.3327312, 39.969326900000006], [116.33271729999998, 39.9694318], [116.33231909999999, 39.970880199999996], [116.3322751, 39.9712926], [116.3321056, 39.972682799999994], [116.33205149999999, 39.9731291], [116.3318395, 39.974876399999985], [116.33182470000001, 39.9749877], [116.33182541682702, 39.97507004550728], [116.33210299631878, 39.975074668539484], [116.33351050000002, 39.97509809999999], [116.33386436313843, 39.97507600589336], [116.33387031109089, 39.975043245511394], [116.33388616585421, 39.97495591982001], [116.33393472436761, 39.974955170784874], [116.33415302507198, 39.97495180315473], [116.33421530000001, 39.97461319999999], [116.3342789518123, 39.97437005043814], [116.33423599999999, 39.974549800000005], [116.3341809, 39.9748256], [116.33415783152279, 39.97495172900308], [116.33421599003475, 39.97495083174513], [116.3342702, 39.97466059999999], [116.3344335, 39.9740742], [116.3346294, 39.97353789999999], [116.3348681, 39.97306969999999], [116.3357359, 39.97193270000001], [116.33772340000002, 39.969358400000004], [116.3380779, 39.9688575], [116.3381881, 39.96867710000001], [116.3383066, 39.968464499999996], [116.33846989999999, 39.9681534], [116.33868449999999, 39.9677064], [116.3388478, 39.96723800000001], [116.339017, 39.96665929999999], [116.33904256613481, 39.966492655661156], [116.33899567252942, 39.96649225820766], [116.33897600813845, 39.96649209153362], [116.338869162561, 39.96649118585954], [116.33882512194005, 39.96649081252156], [116.33885033816682, 39.96632786878027], [116.33886998918149, 39.9662008860959], [116.3385163, 39.9661984], [116.3378622, 39.96619329999999], [116.33750946445049, 39.966190656971925], [116.337828, 39.9661897], [116.3388722, 39.96618659999999], [116.33889014149217, 39.966070800429726], [116.33889533758817, 39.96603726324892], [116.3389252324551, 39.96603839209586], [116.33905106836819, 39.96604314364565], [116.3390695, 39.9659329], [116.33916330000001, 39.965329200000006], [116.33918656003723, 39.96517893159455], [116.339076, 39.966009899999996], [116.33907085648875, 39.966043890830356], [116.3391111802109, 39.96604541341358], [116.33967360000001, 39.9623792], [116.33982750000001, 39.96146310000001], [116.3399348, 39.9609946], [116.3401634, 39.9603009], [116.34039670000001, 39.959692900000015], [116.3410359, 39.9584234], [116.34171700000002, 39.9571684], [116.34190696265, 39.95681491555249], [116.3418410523076, 39.95681547353252], [116.34181430000001, 39.9568157], [116.34174682193678, 39.95681898214385], [116.3415741, 39.95714259999999], [116.3416389, 39.956986], [116.3416786, 39.95687939999999], [116.34170034627176, 39.95682124270463], [116.341679078525, 39.956822277154465], [116.3416352163611, 39.956824410570064], [116.3413846, 39.956836599999995], [116.34081469999998, 39.95686439999999], [116.3406095, 39.9568736], [116.34022060000001, 39.95688599999999], [116.3401481, 39.95689360000001], [116.3400019, 39.9568857], [116.33996590000001, 39.956957800000005], [116.339942, 39.957005699999996], [116.3386537, 39.959586], [116.3384001, 39.95988270000001], [116.3382732, 39.9600112], [116.33819459999998, 39.96008089999999], [116.33796100000002, 39.9602736], [116.3371701, 39.96084669999999], [116.3369861, 39.9609423], [116.3361215, 39.9615975], [116.3361041, 39.96171489999999], [116.33469959999998, 39.96278780000001]]]}}]}