{"type": "FeatureCollection", "features": [{"type": "Feature", "id": "PH-1", "properties": {"id": "PH-1", "layer": "PHASE", "phase": 1, "name_zh": "第一期：会让站段", "area_id": "beijing_ai_origin_community", "note_zh": "中段最稠密处先做限界与待避空间，验证低介入场景与余量率口径", "area_sqm": 1040846.4, "source_id": "OSM-DERIVED-CORRIDOR-20260808", "source_type": "agent_generated_design", "confidence": "low", "geometry_role": "design_proposal", "usage_note": "概念建议，供专业团队深化研究；非审定规划结论"}, "geometry": {"type": "Polygon", "coordinates": [[[116.3319481, 39.99928599999999], [116.3320453, 39.99931409999999], [116.3320927, 39.9993921], [116.33216940000001, 39.999536400000004], [116.33265010000001, 40.0004522], [116.33268270000002, 40.0005237], [116.3332533, 40.0005271], [116.33324910000002, 40.0007007], [116.33332849999998, 40.000702600000004], [116.33368970000001, 40.000711599999995], [116.3337764, 40.00071380000001], [116.33379140000001, 40.00033860000001], [116.33382190000002, 39.99957229999998], [116.33382340000001, 39.99953659999999], [116.3338269, 39.9994562], [116.33379627055524, 39.99937435573747], [116.33379607723253, 39.999374349951495], [116.33379601985678, 39.99937434605366], [116.33379596325665, 39.9993743378389], [116.33379590797992, 39.999374325386704], [116.33379585456157, 39.9993743088176], [116.3337958035186, 39.99937428829193], [116.33379575534501, 39.99937426400834], [116.33379571050699, 39.99937423620187], [116.3337956694385, 39.999374205141606], [116.33379563253702, 39.99937417112818], [116.33379560015969, 39.999374134490736], [116.33379557261982, 39.99937409558389], [116.33379555018396, 39.999374054784184], [116.33379553306926, 39.999374012486456], [116.33379552144136, 39.99937396910007], [116.33378403976725, 39.99931710752896], [116.3337805924043, 39.99930003487202], [116.33377032144242, 39.999249169099954], [116.33377031546989, 39.999249125806855], [116.33377031496144, 39.99924908227251], [116.33377031992183, 39.999249038903905], [116.33377033030472, 39.9992489961064], [116.33377034601297, 39.99924895428007], [116.33377036689981, 39.99924891381591], [116.33377039276996, 39.999248875092164], [116.33377042338164, 39.99924883847081], [116.33377045844863, 39.999248804294176], [116.33377049764316, 39.999248772881764], [116.33377054059886, 39.99924874452717], [116.33377058691418, 39.999248719495505], [116.33377063615616, 39.99924869802069], [116.3337706878645, 39.99924868030354], [116.33377074155585, 39.999248666509615], [116.33377079672832, 39.999248656767875], [116.33377085286614, 39.99924865116942], [116.33377090944457, 39.999248649766514], [116.33393210497307, 39.99925064971104], [116.33393320000002, 39.999151499999996], [116.33393449999998, 39.9991205], [116.3339364, 39.999046899999996], [116.33394880000002, 39.998566600000004], [116.33398189999998, 39.9977563], [116.33398570000001, 39.99763959999999], [116.33399710000002, 39.997287099999994], [116.3339274, 39.996992399999996], [116.3339499, 39.996548499999996], [116.3339697, 39.9961574], [116.33402539999999, 39.99600619999999], [116.33402840000001, 39.99563589999999], [116.3340381, 39.99545669999999], [116.3341224, 39.993914300000014], [116.33415010000002, 39.99340920000001], [116.3341942, 39.99260169999999], [116.33424130000002, 39.991740300000004], [116.33425731314217, 39.99165784723748], [116.33415836699363, 39.991653549576455], [116.33415830899055, 39.991653544818256], [116.33415825189103, 39.99165353564384], [116.33415819626195, 39.9916535221443], [116.33415814265558, 39.991653504453645], [116.3341580916042, 39.99165348274751], [116.33415804361461, 39.99165345724142], [116.33415799916325, 39.991653428188584], [116.33415795869146, 39.99165339587744], [116.33415792260104, 39.991653360628796], [116.33415789125031, 39.99165332279258], [116.33415786495051, 39.991653282744466], [116.33415784396274, 39.99165324088202], [116.33415782849542, 39.991653197620884], [116.33415781870207, 39.99165315339055], [116.33415781467991, 39.99165310863015], [116.33415781646889, 39.991653063784085], [116.33415782405125, 39.99165301929757], [116.33417762405192, 39.99156941929766], [116.33417763692553, 39.99156937676031], [116.3341776550962, 39.99156933538234], [116.33417767839299, 39.99156929555297], [116.33417770659673, 39.99156925764693], [116.33417773944214, 39.99156922202079], [116.33417777662018, 39.9915691890097], [116.33417781778111, 39.991569158924236], [116.33417786253771, 39.991569132047395], [116.33417791046898, 39.99156910863203], [116.33417796112397, 39.991569088898416], [116.33417801402616, 39.99156907303219], [116.33417806867787, 39.99156906118262], [116.334178124565, 39.99156905346117], [116.33417818116175, 39.991569049940495], [116.33417823793575, 39.991569050653695], [116.33427233793515, 39.99157375065368], [116.33427239412562, 39.99157375556556], [116.33427244943778, 39.99157376462473], [116.33427250335546, 39.991573777746616], [116.33427255537549, 39.9915737948088], [116.3342726050125, 39.99157381565201], [116.33427265180327, 39.99157384008182], [116.33427269531114, 39.99157386787021], [116.33427273513018, 39.99157389875788], [116.33427277088879, 39.9915739324566], [116.33427280225325, 39.99157396865192], [116.3342728289309, 39.991574007006086], [116.33427285067285, 39.991574047161166], [116.33427286727613, 39.991574088742475], [116.33427287858585, 39.991574131361986], [116.3342728844965, 39.99157417462201], [116.33427288495287, 39.991574218118835], [116.33427287995072, 39.99157426144659], [116.33425798783156, 39.99165741744465], [116.33440229999998, 39.9916617], [116.3348373, 39.991674399999994], [116.3371872, 39.9917446], [116.3371804, 39.9918392], [116.3371392, 39.9922855], [116.33710990000002, 39.99260319999999], [116.3370978, 39.9927343], [116.33706459999999, 39.99332789999999], [116.3380941, 39.9934068], [116.3389888, 39.9934739], [116.3399025, 39.9935425], [116.33999, 39.99354910000001], [116.34028989999999, 39.993442300000005], [116.3404307, 39.9934247], [116.3409526, 39.993549099999996], [116.341141, 39.9935866], [116.34200510000001, 39.99363009999999], [116.34207230000001, 39.9927237], [116.34212750000002, 39.9919787], [116.34212839999999, 39.9919407], [116.34213028648337, 39.99187785031732], [116.34213027168165, 39.99187784976597], [116.34213021582451, 39.991877845614134], [116.34213016074085, 39.99187783736778], [116.34213010693675, 39.991877825102684], [116.34213005490659, 39.991877808931534], [116.3421300051285, 39.99187778900292], [116.34212995805981, 39.99187776549995], [116.34212991413305, 39.99187773863859], [116.34212987375182, 39.99187770866566], [116.34212983728713, 39.991877675856564], [116.34212980507412, 39.99187764051276], [116.34212977740869, 39.991877602959], [116.34212975454511, 39.99187756354036], [116.34212973669342, 39.99187752261904], [116.34212972401768, 39.991877480571034], [116.34212971663435, 39.99187743778269], [116.34212971461123, 39.99187739464718], [116.34213071461183, 39.9918126946472], [116.34213071820518, 39.991812649900425], [116.34213072756563, 39.99181260565026], [116.3421307426004, 39.99181256233535], [116.34213076316043, 39.99181252038503], [116.34213078904192, 39.99181248021519], [116.34213081998833, 39.99181244222398], [116.34213085569289, 39.991812406787986], [116.34213089580169, 39.99181237425849], [116.34213093991713, 39.991812344957914], [116.3421309876019, 39.991812319176724], [116.34213103838339, 39.991812297170476], [116.34213109175813, 39.99181227915733], [116.34213114719711, 39.991812265315794], [116.34213120415075, 39.991812255783124], [116.3421312620545, 39.99181225065379], [116.34213131087402, 39.99181225008821], [116.34213290000001, 39.991746500000005], [116.34213350000002, 39.99170659999999], [116.3421298, 39.9916849], [116.3421189, 39.99161869999999], [116.34212890000002, 39.9910851], [116.3421307, 39.99103269999999], [116.34215480000002, 39.9904722], [116.3421565, 39.9904334], [116.342163, 39.989743499999996], [116.3421907, 39.98904139999999], [116.34219290000001, 39.9889847], [116.34219869999998, 39.988837600000004], [116.3422086, 39.9885858], [116.34224720000002, 39.98760559999999], [116.3422507, 39.98751690000001], [116.34419140000001, 39.98755469999998], [116.34525500000001, 39.987575400000004], [116.34672030000002, 39.987616100000004], [116.34688741498218, 39.98762078360457], [116.34695061488263, 39.98600318650592], [116.34695170840438, 39.98597505317949], [116.34676804455658, 39.98580008288548], [116.34676801106409, 39.98580004760501], [116.34676798217362, 39.98580000999399], [116.34676795815703, 39.985799970406454], [116.34676793924048, 39.985799929215], [116.3467679256019, 39.98579988680734], [116.34676791736973, 39.98579984358263], [116.34676791462145, 39.98579979994771], [116.34676792933799, 39.98570231601807], [116.34676792934157, 39.985702292247424], [116.3451442, 39.985636199999995], [116.3444762, 39.9856109], [116.34421959999999, 39.9856054], [116.34236789999999, 39.98555309999999], [116.34185410000002, 39.98554219999999], [116.34067960000002, 39.98552320000001], [116.3401091, 39.98550779999999], [116.33986829999999, 39.985500699999996], [116.33966730000002, 39.985494499999994], [116.3393235, 39.9854863], [116.3389635, 39.98547349999999], [116.33811989999998, 39.98543149999999], [116.33461906297052, 39.985291058550345], [116.3346149849662, 39.98537421680765], [116.33461398497434, 39.98539501664166], [116.33461398424367, 39.9853950279727], [116.33461008424409, 39.98544322797274], [116.33461007791453, 39.98544327166028], [116.33461006607754, 39.98544331466492], [116.33461004884595, 39.98544335657684], [116.3346100263839, 39.98544339699658], [116.3346099989055, 39.98544343553898], [116.33460996667264, 39.98544347183673], [116.33460992999245, 39.985443505543934], [116.33460988921449, 39.98544353633932], [116.33460984472738, 39.985443563929465], [116.33460979695506, 39.985443588051425], [116.33460974635283, 39.985443608475315], [116.33460969340287, 39.98544362500648], [116.33460963860983, 39.98544363748742], [116.33460958249586, 39.98544364579916], [116.33460952559571, 39.98544364986251], [116.334499625595, 39.98544734986254], [116.33449956863562, 39.98544734964637], [116.33449951197322, 39.98544734517278], [116.33449945614429, 39.985447336484164], [116.3344994016774, 39.98544732366279], [116.33449934908833, 39.98544730683001], [116.33449929887496, 39.985447286145245], [116.33449925151274, 39.985447261804346], [116.33449920745012, 39.98544723403776], [116.33449916710427, 39.985447203108386], [116.33449913085722, 39.98544716930908], [116.33449909905218, 39.985447132959884], [116.33449907199027, 39.98544709440494], [116.33449904992773, 39.98544705400931], [116.33449903307344, 39.985447012155475], [116.334499021587, 39.9854469692397], [116.33449901557715, 39.985446925668356], [116.33449901510083, 39.98544688185397], [116.33450311510148, 39.985368681854006], [116.33450311518659, 39.98536868029724], [116.3345077886838, 39.98528659663648], [116.3345168196329, 39.98512797959512], [116.33452599248167, 39.984966869419985], [116.33452599789867, 39.984966824935604], [116.33452600901983, 39.98496678108316], [116.33452602573564, 39.984966738294354], [116.33452604788157, 39.98496669699048], [116.33452607523955, 39.984966657578134], [116.33452610754027, 39.984966620445384], [116.33452614446573, 39.984966585957764], [116.33452618565238, 39.98496655445482], [116.33452623069473, 39.98496652624671], [116.33452627914937, 39.984966501611105], [116.33452633053925, 39.98496648079061], [116.33452638435838, 39.98496646399014], [116.33452644007698, 39.98496645137514], [116.33452649714647, 39.984966443069794], [116.33452655500498, 39.98496643915586], [116.3345266130829, 39.984966439671865], [116.33463414759831, 39.98497150686259], [116.33464445302046, 39.984761356479325], [116.33464442746208, 39.98476135587069], [116.33453844094387, 39.9847547045616], [116.33453838558108, 39.98475469903256], [116.33453833115479, 39.98475468947162], [116.33453827816004, 39.98475467596578], [116.33453822707885, 39.984754658637875], [116.33453817837585, 39.9847546376455], [116.33453813249402, 39.98475461317962], [116.3345380898507, 39.984754585462746], [116.3345380508337, 39.98475455474698], [116.33453801579799, 39.98475452131174], [116.3345379850622, 39.9847544854611], [116.33453795890591, 39.984754447521176], [116.334537937567, 39.98475440783703], [116.33453792123959, 39.98475436676964], [116.33453791007217, 39.984754324692545], [116.33453790416637, 39.98475428198845], [116.33453790357584, 39.98475423904577], [116.33453790453845, 39.98475421910935], [116.33412650000001, 39.984728399999995], [116.3333858, 39.9847654], [116.33248463853242, 39.98473761144775], [116.33248462977868, 39.98473765790493], [116.33245978411931, 39.98486951643382], [116.33245568724388, 39.98489125893153], [116.33243209810888, 39.9850321142896], [116.33240280374105, 39.98520703586273], [116.33238526427795, 39.98531176648135], [116.33238525409922, 39.98531181015269], [116.33238523838291, 39.98531185284147], [116.33238521728161, 39.985311894133304], [116.33238519100017, 39.98531193362727], [116.33238515979374, 39.98531197093999], [116.33238512396525, 39.985312005709204], [116.33238508386258, 39.98531203759737], [116.33238503987502, 39.98531206629488], [116.33238499242965, 39.98531209152318], [116.33238494198704, 39.985312113037295], [116.33238488903694, 39.985312130628394], [116.33238483409339, 39.985312144125686], [116.3323847776898, 39.98531215339811], [116.33238472037375, 39.985312158355704], [116.3323846627017, 39.98531215895029], [116.33237589566286, 39.98531191684895], [116.33230637945822, 39.98530999713899], [116.33229772156864, 39.985343791561796], [116.33229770759985, 39.98534383472441], [116.33229768816335, 39.985343876616334], [116.33229766344878, 39.98534391682876], [116.3322976336973, 39.98534395496935], [116.33229759919921, 39.985343990665925], [116.33229756029114, 39.98534402357018], [116.33229751735273, 39.98534405336105], [116.33229747080291, 39.98534407974787], [116.33229742109599, 39.98534410247314], [116.33229736871688, 39.98534412131512], [116.33229731417673, 39.98534413608997], [116.33229725800773, 39.98534414665354], [116.33229720075789, 39.98534415290272], [116.3322971429859, 39.985344154776556], [116.33229708525539, 39.985344152256744], [116.33229702812976, 39.98534414536788], [116.33229697216635, 39.985344134177225], [116.33229691791125, 39.98534411879392], [116.33229686589384, 39.985344099368064], [116.33229681662168, 39.98534407608924], [116.33229677057557, 39.98534404918459], [116.33229672820477, 39.9853440189166], [116.33229668992277, 39.985343985580634], [116.33229665610307, 39.98534394950198], [116.33229662707565, 39.98534391103267], [116.33229660312378, 39.98534387054805], [116.33229658448116, 39.98534382844317], [116.33229657132969, 39.98534378512889], [116.3322965637977, 39.98534374102778], [116.33229656195869, 39.98534369657023], [116.33229656583059, 39.985343652190025], [116.33230177585833, 39.98530938317531], [116.33231780474053, 39.98520395279876], [116.33234455063422, 39.98502803024486], [116.33236930759416, 39.98486518915775], [116.33238915104054, 39.984734666548015], [116.33216128982028, 39.984727638832986], [116.33216128586673, 39.98472767773323], [116.33215428067126, 39.984769956931885], [116.33214027759098, 39.98485444675757], [116.33211326263428, 39.98501744520012], [116.33208371587101, 39.985195718707274], [116.33206594387455, 39.98530294744749], [116.33206593375883, 39.98530299116752], [116.33206591809412, 39.98530303390851], [116.33206589703279, 39.98530307525475], [116.33206587077963, 39.98530311480413], [116.33206583958999, 39.98530315217203], [116.3320658037672, 39.98530318699502], [116.33206576365967, 39.9853032189344], [116.33206571965745, 39.985303247679575], [116.33206567218852, 39.98530327295096], [116.33206562171449, 39.985303294502785], [116.33206556872629, 39.985303312125446], [116.33206551373927, 39.985303325647564], [116.33206545728815, 39.98530333493761], [116.33206539992199, 39.985303339905236], [116.33206534219872, 39.98530334050215], [116.33203250571778, 39.9853024336303], [116.33201138096857, 39.98543075516085], [116.33194158254796, 39.98587734507976], [116.33192314575807, 39.98605233137725], [116.33193874549247, 39.986039614401136], [116.33196212930022, 39.986014069298655], [116.3319621641388, 39.9860140349064], [116.33196220313809, 39.986014003267194], [116.33196224593252, 39.98601397467767], [116.3319622921208, 39.986013949405866], [116.33196234126991, 39.98601392768872], [116.33196239291907, 39.98601390972984], [116.33196244658406, 39.98601389569762], [116.3319625017617, 39.98601388572358], [116.33196255793467, 39.986013879901265], [116.33196261457636, 39.986013878285256], [116.3319626711557, 39.98601388089068], [116.33196272714224, 39.98601388769314], [116.33196278201109, 39.98601389862884], [116.33196283524777, 39.986013913595265], [116.33196288635322, 39.98601393245209], [116.33196293484829, 39.98601395502253], [116.33196298027832, 39.98601398109495], [116.33196302221734, 39.98601401042495], [116.33196306027216, 39.98601404273753], [116.33196309408603, 39.98601407772973], [116.33196312334192, 39.98601411507349], [116.33196314776553, 39.98601415441868], [116.33196316712788, 39.98601419539645], [116.33196318124743, 39.98601423762257], [116.33196318999182, 39.98601428070119], [116.33196319327904, 39.986014324228414], [116.3319631910783, 39.98601436779613], [116.3319472512833, 39.98615451137274], [116.3319472439758, 39.9861545530689], [116.33194723164108, 39.986154594058405], [116.33194721438677, 39.98615463398342], [116.33194719236354, 39.98615467249538], [116.33194716576367, 39.986154709258095], [116.33194713481937, 39.98615474395058], [116.33194709980077, 39.98615477626998], [116.33190897884393, 39.98618679100056], [116.33187988347315, 39.98646293634598], [116.3318624847684, 39.986628324047096], [116.33183678519211, 39.9873864117384], [116.33183678511071, 39.98738641393365], [116.33175628512775, 39.98938651393421], [116.33175628509913, 39.98938651462806], [116.33175520695639, 39.98941202939411], [116.3317552021773, 39.98941207400545], [116.33175519166356, 39.98941211803138], [116.33175517551909, 39.98941216103685], [116.33175515390339, 39.9894122025969], [116.33175512703006, 39.98941224230083], [116.3317550951647, 39.98941227975629], [116.33175505862214, 39.98941231459315], [116.33175501776353, 39.98941234646716], [116.33175497299264, 39.989412375063324], [116.33175492475185, 39.98941240009909], [116.3317548735179, 39.98941242132704], [116.33175481979708, 39.98941243853741], [116.33175476412022, 39.98941245156011], [116.33175470703753, 39.98941246026647], [116.33175464911312, 39.98941246457045], [116.33175459091936, 39.989412464429535], [116.3313513690597, 39.98939604966335], [116.33128318836896, 39.98939327082893], [116.33084327688572, 39.991352676628615], [116.33083667684052, 39.99138197683091], [116.33082857836757, 39.99141797004528], [116.33081549560077, 39.991488876647104], [116.33084406824982, 39.991577591722745], [116.33084407481911, 39.991577614669], [116.33086457205138, 39.99165930363585], [116.3308822685714, 39.9917147927226], [116.3310799686437, 39.99233599293339], [116.33107997071356, 39.99233599966028], [116.33118437071639, 39.9926872996598], [116.33129687072298, 39.99306589967135], [116.33129687805311, 39.9930659286965], [116.33133707805472, 39.99325872869633], [116.331337081887, 39.993258750457635], [116.33135258188788, 39.99336645045757], [116.33135258372478, 39.99336646553567], [116.33136268372566, 39.99346766553563], [116.3313626854187, 39.99346770409854], [116.33136088541998, 39.993619804098564], [116.33136088503173, 39.99361981690069], [116.33133578503612, 39.99413381690084], [116.33133578480108, 39.99413382117267], [116.33121608484429, 39.996089620739205], [116.33114608487992, 39.99728232030548], [116.33113778487075, 39.997422520481415], [116.33113168485559, 39.99752422075038], [116.33113168455084, 39.99752422532556], [116.33112188455198, 39.997658025325634], [116.33110498543648, 39.997888513288665], [116.33110478547906, 39.99794590120668], [116.33110478503072, 39.99794591765986], [116.33105218504404, 39.99897661757072], [116.33104578519357, 39.99910331463271], [116.33104167239382, 39.99922413960391], [116.33136203860592, 39.99923311665397], [116.33136666626257, 39.99910793806402], [116.3313666706671, 39.999107894277444], [116.33136668059684, 39.999107851029095], [116.33136669595734, 39.99910780873038], [116.3313667166025, 39.99910776778366], [116.33136674233592, 39.99910772857844], [116.33136677291283, 39.99910769148765], [116.33136680804236, 39.999107656864076], [116.33136684739034, 39.999107625037105], [116.3313668905825, 39.999107596309464], [116.33136693720799, 39.999107570954415], [116.33136698682327, 39.99910754921318], [116.3313670389564, 39.99910753129254], [116.33136709311148, 39.99910751736295], [116.33136714877335, 39.999107507556914], [116.33136720541256, 39.99910750196775], [116.33136726249032, 39.999107500648584], [116.33140783557546, 39.999108085564814], [116.33145391097257, 39.999108749787126], [116.33145391744323, 39.999108749907926], [116.33147627849608, 39.99910926249015], [116.33152289021758, 39.99911033095637], [116.33155861744255, 39.9991111499079], [116.33155864017853, 39.99911115076955], [116.33161843320681, 39.99911431392739], [116.3316184892019, 39.99911431898223], [116.3316185443052, 39.999114328155756], [116.33161859800576, 39.999114341362855], [116.33161864980565, 39.9991143584811], [116.33161869922456, 39.99911437935175], [116.33161874580422, 39.99911440378128], [116.33161878911277, 39.99911443154316], [116.33161882874856, 39.999114462379985], [116.33161886434411, 39.999114496005795], [116.33161889556935, 39.99911453210879], [116.33161892213471, 39.9991145703542], [116.33161894379388, 39.99911461038744], [116.33161896034605, 39.99911465183724], [116.3316189716377, 39.99911469431925], [116.33161897756415, 39.9991147374396], [116.33161897807041, 39.99911478079842], [116.3316125877447, 39.99924013672637], [116.3325483212179, 39.999266350003765], [116.33272132110812, 39.999271150000716], [116.33272137876286, 39.999271153801004], [116.33272143564822, 39.99927116195975], [116.33272149120856, 39.99927117439727], [116.33272154490122, 39.99927119099208], [116.33272159620165, 39.999271211582084], [116.33272164460881, 39.99927123596615], [116.33272168964982, 39.999271263906074], [116.33272173088471, 39.99927129512898], [116.33272176791074, 39.999271329329865], [116.33272180036624, 39.99927136617466], [116.33272182793415, 39.99927140530346], [116.3327218503452, 39.99927144633404], [116.33272186738047, 39.999271488865645], [116.33272187887357, 39.999271532482794], [116.33272188471226, 39.999271576759455], [116.33272188483949, 39.99927162126314], [116.33272187925397, 39.999271665559114], [116.33272186801032, 39.9992717092147], [116.33272185121838, 39.9992717518035], [116.3327218290421, 39.99927179290946], [116.33272180169816, 39.99927183213111], [116.33272176945361, 39.999271869085284], [116.33272173262348, 39.99927190341104], [116.33272169156746, 39.999271934773084], [116.33272164668662, 39.99927196286506], [116.33272159841934, 39.99927198741258], [116.33272154723711, 39.99927200817584], [116.33272149363985, 39.99927202495205], [116.33272143815114, 39.999272037577335], [116.33272138131298, 39.99927204592836], [116.33263953805654, 39.99928087310382], [116.33272391232691, 39.99929355807251], [116.33272396871214, 39.99929356880754], [116.33272402343677, 39.99929358378671], [116.33272407596215, 39.99929360286258], [116.33272412577129, 39.999293625847386], [116.33272417237393, 39.9992936525149], [116.33272421531139, 39.99929368260263], [116.332724254161, 39.99929371581443], [116.33272428854043, 39.99929375182344], [116.33272431811125, 39.99929379027516], [116.33272434258241, 39.999293830791174], [116.33272436171303, 39.999293872972665], [116.33272437531484, 39.99929391640448], [116.33272438325396, 39.999293960659095], [116.33272438545221, 39.99929400530093], [116.332724381888, 39.9992940498906], [116.33272437259639, 39.999294093989185], [116.33272435766884, 39.999294137162686], [116.33272433725224, 39.99929417898611], [116.33272431154762, 39.999294219047805], [116.33272428080794, 39.999294256953455], [116.33272424533575, 39.99929429232999], [116.33272420548022, 39.99929432482916], [116.33272416163365, 39.999294354131116], [116.33272411422759, 39.99929437994742], [116.33272406372865, 39.999294402024], [116.3327240106339, 39.999294420143535], [116.3327239554659, 39.999294434127705], [116.3327238987677, 39.999294443838814], [116.33272384109732, 39.999294449181335], [116.33272378302246, 39.99929445010267], [116.33254898308792, 39.999290550104114], [116.33190467424033, 39.99927624389135], [116.3319481, 39.99928599999999]], [[116.33182368501973, 39.99167481681797], [116.33175941840288, 39.993046481633776], [116.33175941353348, 39.99304652558118], [116.33175940309745, 39.99304656895132], [116.33175938719495, 39.993046611328104], [116.33175936597857, 39.993046652304955], [116.33175933965184, 39.99304669148873], [116.33175930846737, 39.99304672850346], [116.33175927272434, 39.993046762994], [116.33175923276569, 39.993046794629464], [116.33175918897481, 39.99304682310633], [116.33175914177185, 39.99304684815135], [116.33175909160967, 39.993046869524235], [116.33175903896961, 39.99304688701996], [116.33175898435663, 39.99304690047062], [116.3317589282948, 39.99304690974717], [116.33175887132194, 39.99304691476064], [116.33175881398469, 39.993046915462884], [116.33175875683321, 39.9930469118472], [116.33175870041579, 39.99304690394826], [116.33175864527372, 39.99304689184185], [116.33175859193608, 39.99304687564413], [116.33175854091462, 39.99304685551052], [116.33175849269882, 39.99304683163415], [116.33175844775135, 39.99304680424414], [116.33175840650341, 39.993046773603275], [116.33175836935074, 39.99304674000554], [116.33175833664986, 39.99304670377327], [116.33175830871443, 39.993046665254084], [116.33175828581255, 39.99304662481758], [116.33175826816391, 39.993046582851726], [116.33175825593786, 39.99304653975914], [116.33175824925169, 39.99304649595329], [116.33175824816954, 39.99304645185444], [116.3318149331727, 39.99159948815614], [116.33172298321152, 39.99159747252252], [116.33167640336477, 39.991596451418566], [116.33167634607918, 39.99159644799304], [116.33167628950608, 39.9915964402646], [116.33167623419043, 39.991596428307695], [116.3316761806651, 39.9915964122375], [116.33167612944573, 39.99159639220881], [116.33167608102568, 39.99159636841459], [116.33167603587137, 39.99159634108402], [116.3316759944178, 39.991596310480396], [116.33167595706429, 39.99159627689851], [116.33167592417067, 39.99159624066187], [116.3316758960538, 39.99159620211954], [116.33167587298452, 39.99159616164279], [116.33167585518504, 39.991596119621526], [116.33167584282688, 39.99159607646059], [116.33167583602905, 39.991596032575686], [116.33167583485702, 39.99159598838959], [116.3316766148142, 39.991575087080804], [116.33167906289962, 39.99150966085094], [116.33167906738299, 39.99150961670634], [116.33167907748151, 39.99150957311386], [116.33167909309746, 39.99150953049502], [116.33167911407995, 39.99150948926193], [116.33167914022602, 39.99150944981331], [116.33167917128283, 39.99150941253058], [116.33167920695013, 39.99150937777428], [116.33167924688301, 39.991509345880466], [116.33167929069533, 39.99150931715756], [116.33167933796344, 39.991509291883276], [116.3316793882303, 39.991509270302025], [116.33167944100983, 39.99150925262248], [116.33167949579165, 39.99150923901559], [116.3316795520461, 39.991509229612944], [116.33167960922918, 39.991509224505435], [116.33167966678796, 39.9915092237425], [116.33172596343299, 39.99151036205546], [116.33181892183798, 39.99151264760265], [116.33183121870339, 39.991512949937295], [116.33183121969888, 39.99151294996241], [116.33190471079136, 39.99151485308659], [116.33190476768442, 39.99151485670197], [116.33190482384914, 39.991514864562305], [116.33190487875154, 39.99151487659287], [116.3319049318695, 39.991514892679255], [116.33190498269798, 39.9915149126685], [116.33190503075362, 39.99151493637053], [116.33190507557946, 39.99151496355998], [116.33190511674927, 39.99151499397828], [116.33190515387159, 39.99151502733622], [116.33190518659342, 39.99151506331656], [116.33190521460362, 39.99151510157723], [116.3319052376358, 39.99151514175435], [116.331905255471, 39.99151518346593], [116.33190526793963, 39.991515226315315], [116.33190527492309, 39.991515269895054], [116.331905276355, 39.99151531379078], [116.33190263211115, 39.9916011499286], [116.33190262789748, 39.991601194228046], [116.33190261803004, 39.991601237992654], [116.33190260260487, 39.99160128079658], [116.331902581772, 39.99160132222334], [116.3319025557342, 39.99160136186983], [116.33190252474479, 39.99160139935028], [116.3319024891053, 39.991601434300016], [116.33190244916251, 39.99160146637893], [116.33190240530513, 39.99160149527491], [116.33190235795986, 39.99160152070679], [116.33190230758737, 39.9916015424271], [116.33190225467783, 39.9916015602245], [116.33190219974604, 39.99160157392582], [116.33190214332652, 39.991601583397724], [116.33190208596824, 39.991601588548086], [116.33190202822931, 39.991601589326756], [116.33182746249742, 39.99159976428812], [116.33182368501973, 39.99167481681797]]]}}, {"type": "Feature", "id": "PH-2", "properties": {"id": "PH-2", "layer": "PHASE", "phase": 2, "name_zh": "第二期：联络线段", "area_id": "zhongzhiyuan_ai_acceleration_area", "note_zh": "北端接区域基础设施，打通干线进出口与算力/数据调度接口", "area_sqm": 1973532.6, "source_id": "OSM-DERIVED-CORRIDOR-20260808", "source_type": "agent_generated_design", "confidence": "low", "geometry_role": "design_proposal", "usage_note": "概念建议，供专业团队深化研究；非审定规划结论"}, "geometry": {"type": "Polygon", "coordinates": [[[116.33357830000001, 40.00266349999998], [116.3335287, 40.00259359999999], [116.33341470000002, 40.00233310000001], [116.3330955, 40.0014709], [116.333009, 40.0012396], [116.33268270000002, 40.0005237], [116.33265010000001, 40.0004522], [116.33216940000001, 39.999536400000004], [116.3320927, 39.9993921], [116.3320453, 39.99931409999999], [116.3319481, 39.99928599999999], [116.33190467424033, 39.99927624389135], [116.33190243225911, 39.9992761941042], [116.33161050022873, 39.99926971086839], [116.33161049419094, 39.9992697107343], [116.331548, 40.0004956], [116.3313611, 40.005014799999984], [116.33129690000001, 40.0055994], [116.3311822, 40.0061579], [116.3310376, 40.0066602], [116.33096879999998, 40.00687370000001], [116.3308473, 40.0071783], [116.33053900000002, 40.00775159999999], [116.3303569, 40.0080352], [116.330046, 40.0084323], [116.3297702, 40.008754200000006], [116.32947679999998, 40.009048400000005], [116.32900659999999, 40.00949080000001], [116.3248705, 40.013134], [116.3217142, 40.0159276], [116.32152326696966, 40.01609365111922], [116.3215233351551, 40.01609371882334], [116.32152336825766, 40.0160937552772], [116.32152339652338, 40.016093794063366], [116.32152341967667, 40.016093834803726], [116.32152343749185, 40.016093877101085], [116.32152344979522, 40.01609392054312], [116.32152345646688, 40.01609396470631], [116.32152345744171, 40.0160940091601], [116.3215234527103, 40.016094053471114], [116.32152344231868, 40.01609409720739], [116.32152342636822, 40.01609413994252], [116.32152340501439, 40.01609418125989], [116.3215233784654, 40.0160942207567], [116.32152334698003, 40.016094258047914], [116.32152331086526, 40.01609429276997], [116.32152323709954, 40.01609435692252], [116.3215827, 40.0161534], [116.3216411, 40.0161872], [116.3217305, 40.016257499999995], [116.3218211, 40.016372499999996], [116.3218331, 40.0165003], [116.32188190000001, 40.01669390000001], [116.32194039999999, 40.016989699999996], [116.32198330000001, 40.017204200000016], [116.3220226318414, 40.017398195103006], [116.3220453, 40.017509999999994], [116.32208230501828, 40.017715816161584], [116.32211079999999, 40.017874299999995], [116.32217160000002, 40.01817650000001], [116.32220740000001, 40.0183938], [116.32237519999998, 40.01925950000001], [116.32240750000001, 40.019414699999984], [116.32244950174716, 40.0195765346792], [116.32244987618043, 40.01957666058768], [116.32244992661248, 40.019576679816446], [116.32244997441049, 40.01957670267901], [116.32245001913286, 40.01957672896417], [116.32245006036638, 40.01957675842908], [116.32245009773015, 40.01957679080153], [116.32245013087899, 40.01957682578245], [116.32245015950666, 40.019576863048655], [116.32245018334861, 40.019576902255864], [116.32245020218464, 40.01957694304185], [116.32245021584072, 40.01957698502981], [116.32249195551327, 40.01973780916003], [116.32249196402923, 40.01973785324174], [116.322491966836, 40.01973789775478], [116.32249196390607, 40.01973794226312], [116.32249195526819, 40.01973798633082], [116.32249194100697, 40.0197380295262], [116.32249192126203, 40.01973807142617], [116.32249189622685, 40.019738111620335], [116.32249186614663, 40.019738149714954], [116.322491831316, 40.019738185336905], [116.32249179207612, 40.019738218137284], [116.32249174881136, 40.01973824779476], [116.32249170194551, 40.019738274018884], [116.32249165193765, 40.01973829655276], [116.32249159927755, 40.01973831517568], [116.32249154448108, 40.019738329705206], [116.32249149571119, 40.01973833860704], [116.3225014, 40.0197765], [116.32261330000001, 40.0199024], [116.3226651, 40.01995879999999], [116.3227485, 40.020080099999994], [116.3228294, 40.02025549999999], [116.32281710000001, 40.0203619], [116.32262944757748, 40.02028655407116], [116.32262943937691, 40.02028656665645], [116.32262940942296, 40.02028660333659], [116.32262937502415, 40.02028663763452], [116.32262933649866, 40.02028666923293], [116.32262929420297, 40.02028669783951], [116.32262924852829, 40.0202867231896], [116.32262919989724, 40.02028674504868], [116.32262914875966, 40.020286763214514], [116.32262913147866, 40.02028676786361], [116.3228126, 40.0206691], [116.32127580000001, 40.02010140000001], [116.32072828704982, 40.0199249570782], [116.32062118517847, 40.020093598028886], [116.32062120419815, 40.02009360495265], [116.32062125242174, 40.02009362708344], [116.32062129766662, 40.02009365266375], [116.32062133951669, 40.02009368145835], [116.32062137758719, 40.02009371320244], [116.32062141152801, 40.020093747604164], [116.32062144102704, 40.02009378434716], [116.3206214658131, 40.020093823093575], [116.32062148565821, 40.02009386348713], [116.3206215003799, 40.020093905156386], [116.32062150984284, 40.020093947718195], [116.32062151395995, 40.02009399078118], [116.32062151269346, 40.020094033949356], [116.32062150605493, 40.0200940768258], [116.32062149410544, 40.02009411901625], [116.32062147695487, 40.02009416013276], [116.32062145476092, 40.02009419979721], [116.32054562792064, 40.02021359499561], [116.31902153073567, 40.02269299044701], [116.31841143677121, 40.02371068039232], [116.31808324846108, 40.02432045868133], [116.31787495552118, 40.02479174271566], [116.31734466465896, 40.026032521358815], [116.31672317070634, 40.02809390135698], [116.3163573661754, 40.02931517706525], [116.3166242211898, 40.029358559454224], [116.31662422188079, 40.029358559566894], [116.31826552179814, 40.02962695955322], [116.31840082174169, 40.02964905954399], [116.3184008396101, 40.02964906268804], [116.31859482277393, 40.02968565951171], [116.31900166672686, 40.02974305160538], [116.31973970253662, 40.02976934931806], [116.31988467794439, 40.029765150030336], [116.32019887756496, 40.02975615004118], [116.32141037693162, 40.02971945006029], [116.32147037359623, 40.02971765016031], [116.32313106868146, 40.029652250353735], [116.32350836708534, 40.02963605042226], [116.32360182852747, 40.02963197391275], [116.32361161445074, 40.029343988241514], [116.32361161924541, 40.029343941323226], [116.32361163038415, 40.02934389504592], [116.32361164774525, 40.029343849915115], [116.32386372707805, 40.02879569486658], [116.32390761911226, 40.02853524214811], [116.32391361914064, 40.02849974198177], [116.32391362813766, 40.02849970255677], [116.32391364165343, 40.02849966390175], [116.32413224165727, 40.02796966390282], [116.32418464171695, 40.027842763760674], [116.3241846699455, 40.02784270838157], [116.32473096994292, 40.02694960839702], [116.3249882699185, 40.02652880844224], [116.32498830031095, 40.02652876507148], [116.3249883366844, 40.026528724512694], [116.32498837860354, 40.02652868725133], [116.32510277860356, 40.02643758725175], [116.32510281907503, 40.02643755794395], [116.32510286297885, 40.02643753171829], [116.32510290991944, 40.02643750881106], [116.3251029594738, 40.026437489428666], [116.32510301119544, 40.02643747374576], [116.32510306461835, 40.02643746190364], [116.3251031192611, 40.02643745400902], [116.32527041926002, 40.02641955400912], [116.32527048836025, 40.0264195497994], [116.32527055762348, 40.026419551894875], [116.3269088576129, 40.02654405189397], [116.32750964268836, 40.02658965076124], [116.3276877277746, 40.0265961502169], [116.32768773529565, 40.026596150528654], [116.32780193064373, 40.02660145031277], [116.32822661116028, 40.02661594964758], [116.32930229631349, 40.026610749719204], [116.32930229928259, 40.02661074971061], [116.3306742992736, 40.02660944971055], [116.33080229527619, 40.02660935018055], [116.33078811468663, 40.02626821705206], [116.3307680148418, 40.025915719720246], [116.3307680143021, 40.02591570392692], [116.33076271432381, 40.02544850548999], [116.33073681436652, 40.02417740705287], [116.3307368144004, 40.02417739144557], [116.33075611348853, 40.02339651939502], [116.33075611749348, 40.02339647469415], [116.33075612725702, 40.0233964305206], [116.33075614268253, 40.02339638731171], [116.33075616361725, 40.023396345495385], [116.33075618985387, 40.023396305485626], [116.33075622113265, 40.023396267678585], [116.33075625714385, 40.02339623244864], [116.33075629753093, 40.0233962001446], [116.33075634189399, 40.02339617108635], [116.33075638979372, 40.023396145561584], [116.3307564407559, 40.02339612382304], [116.33075649427589, 40.023396106085976], [116.33075654982379, 40.023396092526006], [116.33075660684956, 40.02339608327739], [116.33075666478855, 40.02339607843173], [116.33075671019866, 40.023396078124144], [116.3307670345055, 40.02297833055062], [116.330766839479, 40.02297827395338], [116.33076678868231, 40.02297825706331], [116.33076674018598, 40.022978236562516], [116.33076669442303, 40.02297821263406], [116.33076665180211, 40.02297818549162], [116.33076661270373, 40.02297815537751], [116.330766577477, 40.02297812256061], [116.33076654643646, 40.022978087333975], [116.33076651985928, 40.02297805001211], [116.33076649798275, 40.02297801092826], [116.3307664810022, 40.022977970431405], [116.33076646906923, 40.02297792888314], [116.33076646229043, 40.02297788665444], [116.33076646072631, 40.02297784412235], [116.33077033732793, 40.02282098537078], [116.33077034130265, 40.02282094086505], [116.3307703509859, 40.0228208968801], [116.33077036628264, 40.02282085384765], [116.3307703870427, 40.022820812190055], [116.33077041306238, 40.022820772316166], [116.33077044408626, 40.02282073461739], [116.33077047980983, 40.02282069946369], [116.33077051988248, 40.02282066720015], [116.33077056391093, 40.02282063814339], [116.330770611463, 40.022820612578634], [116.33077066207196, 40.02282059075677], [116.3307707152411, 40.02282057289203], [116.33077077044857, 40.02282055915968], [116.3307708271525, 40.022820549694565], [116.33077088479638, 40.022820544589564], [116.33077093403536, 40.02282054399992], [116.3307744, 40.0226803], [116.33080341075205, 40.02191182979367], [116.33080334200706, 40.021911821961346], [116.33080328638837, 40.021911813491464], [116.33080323209556, 40.021911800926524], [116.33080317963748, 40.021911784384244], [116.33080312950571, 40.02191176401967], [116.33080308217009, 40.02191174002367], [116.33080303807425, 40.0219117126211], [116.33080299763147, 40.02191168206879], [116.3308029612207, 40.02191164865309], [116.33080292918325, 40.021911612687134], [116.33080290181937, 40.021911574508], [116.33080287938546, 40.02191153447351], [116.3308028620918, 40.02191149295885], [116.33080285010047, 40.02191145035309], [116.33080284352381, 40.02191140705551], [116.3308028424235, 40.021911363471915], [116.33080801290538, 40.02177439966729], [116.33080801719068, 40.02177435682329], [116.3308080267683, 40.02177431448842], [116.33080804155102, 40.02177427304819], [116.33080806140426, 40.021774232880006], [116.33080808614713, 40.021774194349646], [116.33080811555439, 40.02177415780798], [116.33080814935822, 40.021774123587804], [116.33080818725078, 40.02177409200075], [116.330808228887, 40.02177406333443], [116.33080827388767, 40.02177403784994], [116.33080832184305, 40.021774015779314], [116.33080837231643, 40.021773997323585], [116.33080842484812, 40.02177398265079], [116.33080847895975, 40.021773971894554], [116.33080853415859, 40.02177396515284], [116.33080858994194, 40.021773962487046], [116.33080861531599, 40.0217739631386], [116.3308165, 40.0215651], [116.33082160081518, 40.02146025142562], [116.33075800000002, 40.0214178], [116.3307948, 40.02087379999999], [116.3308033, 40.02017599999999], [116.3308084, 40.0197554], [116.33092480000002, 40.01947669999999], [116.3309347, 40.0193305], [116.33099219999998, 40.01847810000001], [116.3310087, 40.01783419999999], [116.3310204, 40.0173772], [116.33103140000001, 40.016946399999995], [116.33103860000001, 40.01648709999999], [116.3310435, 40.0161781], [116.3310448, 40.01609210000001], [116.3310507, 40.0157131], [116.331051, 40.0156924], [116.3310535, 40.015532], [116.3310547, 40.01545529999999], [116.33105750000001, 40.01527790000001], [116.3310532, 40.013933], [116.33106140000001, 40.01371459999999], [116.3310619, 40.013700599999986], [116.33106538389097, 40.01360334967264], [116.33106534571276, 40.01360334835184], [116.33106529021862, 40.01360334230788], [116.33106523573007, 40.01360333221235], [116.33106518274623, 40.013603318157735], [116.33106513175247, 40.013603300272784], [116.33106508321583, 40.01360327872132], [116.33106503758098, 40.013603253700765], [116.33106499526586, 40.013603225440306], [116.33106495665815, 40.013603194198794], [116.33106492211145, 40.01360316026241], [116.33106489194223, 40.013603123942026], [116.33106486642683, 40.013603085570324], [116.33106484579898, 40.013603045498776], [116.33106483024761, 40.013603004094456], [116.33106481991521, 40.01360296173666], [116.33106481592907, 40.01360292764509], [116.3309661, 40.01360760000001], [116.33010700000001, 40.013588899999995], [116.3290075, 40.0135541], [116.32880439999998, 40.0135427], [116.32871, 40.01354260000001], [116.3283716, 40.0135156], [116.3280721, 40.013466799999996], [116.327773, 40.01341440000001], [116.327338, 40.013297699999995], [116.3265429, 40.013030500000006], [116.3264013, 40.012986399999996], [116.32630180000001, 40.012991899999996], [116.3262005, 40.01300989999999], [116.3261028, 40.01304319999999], [116.3259843, 40.013096899999994], [116.3261975, 40.012918600000006], [116.3263947, 40.01274149999999], [116.3263785, 40.01281430000001], [116.3263907, 40.0128696], [116.32641530000001, 40.0129134], [116.3264691, 40.012943799999995], [116.3265815, 40.012980699999986], [116.3273687, 40.0132282], [116.3277469, 40.013341999999994], [116.3281393, 40.0134073], [116.3287233, 40.0134701], [116.32939990000001, 40.01348240000001], [116.3295557, 40.01348550000001], [116.3309346, 40.0135139], [116.3309761, 40.013512], [116.33107111404904, 40.01351319264522], [116.3310711152379, 40.0135131757177], [116.33107112132038, 40.01351313090892], [116.33107113319558, 40.01351308679173], [116.33107115074463, 40.01351304380782], [116.3310711737919, 40.01351300238741], [116.33107120210664, 40.013512962945164], [116.33107123540545, 40.01351292587591], [116.33107127335497, 40.0135128915507], [116.3310713155753, 40.013512860313156], [116.33107136164385, 40.01351283247599], [116.33107141109944, 40.01351280831782], [116.33107146344699, 40.0135127880805], [116.3310715181625, 40.0135127719666], [116.33107157469827, 40.01351276013745], [116.33107163248833, 40.01351275271143], [116.3310716909542, 40.01351274976291], [116.33116429095364, 40.013511649762904], [116.33116431551916, 40.01351164986731], [116.33124771551863, 40.01351334986729], [116.33124777299446, 40.01351335322085], [116.33124782976311, 40.01351336090287], [116.3312478852746, 40.01351337283893], [116.33124793899113, 40.013513388913395], [116.33124799039224, 40.013513408970525], [116.33124803898002, 40.01351343281602], [116.33124808428371, 40.01351346021883], [116.3312481258644, 40.0135134909135], [116.33124816331926, 40.01351352460265], [116.33124819628537, 40.013513560959886], [116.33124822444344, 40.01351359963299], [116.3312482475206, 40.01351364024726], [116.33124826529331, 40.01351368240924], [116.33124827758937, 40.013513725710474], [116.33124828428964, 40.013513769731425], [116.3312482850672, 40.01351380287523], [116.3313291, 40.0135142], [116.3330541, 40.01358319999999], [116.3333564, 40.013610699999994], [116.33336, 40.01352959999999], [116.33335960000001, 40.01350659999999], [116.3334252, 40.01206259999999], [116.3334662, 40.0111389], [116.33349070000001, 40.010588000000006], [116.3334982, 40.01041949999998], [116.333502, 40.0103334], [116.33353549999998, 40.009483100000004], [116.33356620000002, 40.008633999999994], [116.33359120000001, 40.0079421], [116.3336063, 40.0071712], [116.33362810000001, 40.006754699999995], [116.3350693, 40.0063728], [116.33518469999999, 40.006343400000006], [116.33536109999999, 40.0062984], [116.33531160000001, 40.006196499999994], [116.3350164, 40.0055891], [116.33488200000001, 40.0053125], [116.33481200000001, 40.005168600000005], [116.33474540000002, 40.0050438], [116.3345034, 40.0045903], [116.3342758, 40.00412879999999], [116.3342637, 40.004101999999996], [116.3340961, 40.00373079999999], [116.333954, 40.00336169999999], [116.33393950000001, 40.0033241], [116.33390860000002, 40.0032439], [116.33387620000002, 40.0031596], [116.3337735, 40.00289279999999], [116.3336754, 40.0027358], [116.33366590000001, 40.00272869999999], [116.33357830000001, 40.00266349999998]], [[116.32443900000001, 40.0176352], [116.32443900000001, 40.017509399999994], [116.3244362, 40.017355499999994], [116.32439369999999, 40.017212400000005], [116.3245013, 40.01711480000001], [116.32460330000002, 40.01707789999999], [116.32474769999999, 40.01708880000001], [116.3249487, 40.01713], [116.32506190000001, 40.01717769999999], [116.3251582, 40.017234], [116.325161, 40.0173251], [116.3251384, 40.01742050000001], [116.32508180000002, 40.01748769999998], [116.3250223, 40.01755059999999], [116.324926, 40.017593999999995], [116.32488359999999, 40.0176872], [116.3248496, 40.0177761], [116.32481849999999, 40.0179084], [116.3247675, 40.01796259999999], [116.3246656, 40.01801679999999], [116.32451160000001, 40.01799590000001], [116.3244419, 40.0179865], [116.3244022, 40.017878100000004], [116.3243966, 40.0177805], [116.32443900000001, 40.0176352]], [[116.3265687, 40.01399469999999], [116.32662820000002, 40.0138516], [116.3267329, 40.01380609999998], [116.32690280000001, 40.01381039999999], [116.3271237, 40.013816899999995], [116.32730770000002, 40.0137866], [116.3275002, 40.013766999999994], [116.3277664, 40.0137475], [116.32793060000002, 40.013754], [116.3280212, 40.01378439999999], [116.32820529999998, 40.0138321], [116.32825620000001, 40.0138798], [116.32816, 40.01395350000001], [116.3279051, 40.013957899999994], [116.3277098, 40.0139557], [116.32751160000001, 40.013946999999995], [116.32740679999999, 40.01394049999999], [116.32720010000001, 40.0139449], [116.3270529, 40.01398609999999], [116.32691419999999, 40.01409230000001], [116.32684339999999, 40.0141747], [116.3267471, 40.014302699999995], [116.3266197, 40.0144935], [116.3265432, 40.0144241], [116.3265348, 40.0142875], [116.3265432, 40.01412919999999], [116.3265687, 40.01399469999999]], [[116.32787120000002, 40.01405979999999], [116.3281543, 40.01408359999999], [116.3282279, 40.0141986], [116.3282534, 40.0143135], [116.3281798, 40.0144306], [116.328041, 40.014491299999996], [116.32791359999999, 40.014569400000006], [116.32775790000001, 40.0145911], [116.32768430000002, 40.014461000000004], [116.32754840000001, 40.0144241], [116.3274181, 40.0143959], [116.32722559999999, 40.0143569], [116.32709819999998, 40.014333], [116.3269283, 40.0142723], [116.32708969999999, 40.014159500000005], [116.327404, 40.0141032], [116.32763330000002, 40.0140663], [116.32787120000002, 40.01405979999999]], [[116.3267471, 40.0147286], [116.326821, 40.014824899999994], [116.32680500000001, 40.0148787], [116.3267754, 40.0149438], [116.32673480000001, 40.0150382], [116.32666939999999, 40.01506369999999], [116.32657819999999, 40.01503919999999], [116.32653260000001, 40.014989199999995], [116.32657450000002, 40.0149146], [116.3266719, 40.0148136], [116.3266596, 40.014773000000005], [116.3266182, 40.014669000000005], [116.3266776, 40.0146199], [116.3267471, 40.0147286]], [[116.3252246, 40.01912649999999], [116.3253023, 40.019141], [116.32552080000002, 40.0190461], [116.3255985, 40.0187999], [116.32568460000002, 40.0187565], [116.32579179999999, 40.018756499999995], [116.32585689999999, 40.01880469999999], [116.32586529999999, 40.0188739], [116.32578969999999, 40.01915220000001], [116.32579810000001, 40.01938069999998], [116.32575180000002, 40.0194434], [116.32560060000002, 40.01945950000001], [116.325422, 40.01939360000001], [116.325046, 40.019160299999996], [116.32481070000001, 40.0189447], [116.32479389999999, 40.01890129999999], [116.32482960000002, 40.01887709999999], [116.3250838, 40.01894789999999], [116.32516150000001, 40.01908309999999], [116.3252246, 40.01912649999999]]]}}, {"type": "Feature", "id": "PH-3", "properties": {"id": "PH-3", "layer": "PHASE", "phase": 3, "name_zh": "第三期：咽喉区段", "area_id": "dazhongsi_ai_industry_cluster", "note_zh": "南端干线扇出为普通路网，完成四象限步行连通与静态交通组织", "area_sqm": 686955.7, "source_id": "OSM-DERIVED-CORRIDOR-20260808", "source_type": "agent_generated_design", "confidence": "low", "geometry_role": "design_proposal", "usage_note": "概念建议，供专业团队深化研究；非审定规划结论"}, "geometry": {"type": "Polygon", "coordinates": [[[116.3342702, 39.97466059999999], [116.3344335, 39.9740742], [116.3346294, 39.97353789999999], [116.3348681, 39.97306969999999], [116.3357359, 39.97193270000001], [116.33772340000002, 39.969358400000004], [116.3380779, 39.9688575], [116.3381881, 39.96867710000001], [116.3383066, 39.968464499999996], [116.33846989999999, 39.9681534], [116.33868449999999, 39.9677064], [116.3388478, 39.96723800000001], [116.339017, 39.96665929999999], [116.33904249713746, 39.966493105398584], [116.33899566608345, 39.96649270847522], [116.33897600169234, 39.96649254180119], [116.33886915611419, 39.966491636127095], [116.33882511549297, 39.9664912627891], [116.33882505784742, 39.96649126010773], [116.33882500082603, 39.96649125306757], [116.33882494498408, 39.966491241737195], [116.33882489086542, 39.966491226226935], [116.33882483899704, 39.966491206687884], [116.33882478988409, 39.966491183310254], [116.33882474400481, 39.96649115632174], [116.33882470180603, 39.966491125985165], [116.33882466369869, 39.96649109259596], [116.33882463005386, 39.966491056479285], [116.33882460119924, 39.96649101798684], [116.33882457741578, 39.966490977493486], [116.33882455893513, 39.96649093539359], [116.33882454593724, 39.96649089209711], [116.33882453854869, 39.966490848025686], [116.33882453684144, 39.966490803608515], [116.33882454083212, 39.96649075927814], [116.33884975706025, 39.966327815536985], [116.33886933086488, 39.96620133178327], [116.33851629465312, 39.96619885027609], [116.33786219418387, 39.96619375027262], [116.33750945875086, 39.9661911072454], [116.33750940166837, 39.96619110466797], [116.33750934518531, 39.96619109781633], [116.33750928984088, 39.96619108675587], [116.33750923616347, 39.966191071592206], [116.33750918466556, 39.9661910524701], [116.3375091358388, 39.96619102957211], [116.33750909014935, 39.96619100311684], [116.33750904803338, 39.96619097335687], [116.33750900989304, 39.966190940576325], [116.33750897609242, 39.96619090508818], [116.33750894695424, 39.96619086723121], [116.33750892275665, 39.96619082736687], [116.33750890373074, 39.96619078587575], [116.33750889005806, 39.96619074315397], [116.33750888186923, 39.96619069960938], [116.33750887924236, 39.96619065565773], [116.3375088822026, 39.96619061171864], [116.33750889072162, 39.966190568211566], [116.33750890471812, 39.966190525551916], [116.3375089240585, 39.96619048414696], [116.33750894855805, 39.96619044439198], [116.33750897798292, 39.96619040666653], [116.33750901205218, 39.96619037133079], [116.33750905044053, 39.9661903387221], [116.33750909278153, 39.9661903091518], [116.33750913867087, 39.96619028290219], [116.33750918767052, 39.96619026022388], [116.33750923931261, 39.966190241333386], [116.33750929310413, 39.966190226411065], [116.33750934853151, 39.966190215599354], [116.3375094050656, 39.96619020900151], [116.33750946216664, 39.96619020668052], [116.33782799771407, 39.96618924970859], [116.33887168017327, 39.96618615124732], [116.33888956039735, 39.96607074712459], [116.3388947564936, 39.96603720994383], [116.33889476632265, 39.96603716553731], [116.33889478186855, 39.96603712210864], [116.3388948029757, 39.966037080092384], [116.3388948294329, 39.966037039909054], [116.33889486097536, 39.966037001960736], [116.33889489728745, 39.96603696662722], [116.33889493800572, 39.966036934262085], [116.33889498272276, 39.966036905189235], [116.33889503099107, 39.9660368796996], [116.33889508232758, 39.96603685804827], [116.33889513621857, 39.966036840451885], [116.33889519212471, 39.96603682708658], [116.33889524948657, 39.966036818086096], [116.33889530773006, 39.966036813540484], [116.3388953662724, 39.966036813495236], [116.33892526113912, 39.966037942342176], [116.33905055694018, 39.96604267349768], [116.3390689192405, 39.965932844543886], [116.33916271891918, 39.96532914664486], [116.3391859789424, 39.96517887833822], [116.33918598845955, 39.96517883499494], [116.3391860034236, 39.9651787925722], [116.33918602369192, 39.965178751474305], [116.3391860490714, 39.96517871209286], [116.33918607932019, 39.96517867480317], [116.33918611414995, 39.96517863996061], [116.33918615322888, 39.96517860789719], [116.33918619618447, 39.965178578918454], [116.33918624260744, 39.96517855330058], [116.33918629205537, 39.96517853128769], [116.3391863440571, 39.96517851308955], [116.33918639811698, 39.96517849887955], [116.33918645371989, 39.965178488793185], [116.33918651033598, 39.9651784829265], [116.33918656742568, 39.965178481335435], [116.33918662444499, 39.96517848403514], [116.3391866808505, 39.965178490999904], [116.33918673610472, 39.96517850216334], [116.33918678968112, 39.965178517419055], [116.3391868410691, 39.96517853662171], [116.33918688977896, 39.965178559588274], [116.3391869353465, 39.96517858609991], [116.33918697733753, 39.96517861590395], [116.33918701535185, 39.96517864871639], [116.33918704902726, 39.96517868422452], [116.33918707804278, 39.96517872209001], [116.33918710212191, 39.965178761951954], [116.33918712103522, 39.965178803430526], [116.33918713460248, 39.96517884613047], [116.33918714269437, 39.96517888964483], [116.33918714523378, 39.96517893355897], [116.33918714219652, 39.96517897745438], [116.33907658216623, 39.966009945860435], [116.3390765812822, 39.96600995207827], [116.33907151013787, 39.966043464674804], [116.33911120889373, 39.96604496365983], [116.33911124897762, 39.96604496517337], [116.33967360000001, 39.9623792], [116.33982750000001, 39.96146310000001], [116.3399348, 39.9609946], [116.3401634, 39.9603009], [116.34039670000001, 39.959692900000015], [116.3410359, 39.9584234], [116.34171700000002, 39.9571684], [116.34190671954158, 39.9568153679337], [116.34184105874384, 39.95681592380108], [116.34181432168762, 39.95681615013944], [116.34174722413097, 39.9568194137755], [116.3415746412567, 39.95714277108264], [116.34157461671182, 39.95714281130059], [116.34157458713592, 39.957142849461185], [116.3415745528169, 39.95714288519286], [116.34157451408896, 39.95714291814769], [116.34157447132918, 39.95714294800482], [116.34157442495389, 39.95714297447355], [116.34157437541461, 39.957142997296145], [116.34157432319373, 39.95714301625041], [116.34157426879968, 39.95714303115178], [116.34157421276207, 39.95714304185515], [116.34157415562653, 39.95714304825633], [116.34157409794939, 39.95714305029298], [116.34157404029222, 39.95714304794529], [116.34157398321639, 39.95714304123609], [116.34157392727764, 39.9571430302307], [116.34157387302064, 39.95714301503631], [116.34157382097365, 39.95714299580086], [116.34157377164348, 39.9571429727116], [116.3415737255104, 39.95714294599339], [116.34157368302358, 39.95714291590634], [116.34157364459676, 39.957142882743426], [116.34157361060403, 39.95714284682753], [116.3415735813764, 39.95714280850834], [116.34157355719843, 39.95714276815898], [116.34157353830552, 39.957142726172314], [116.34157352488167, 39.95714268295715], [116.34157351705755, 39.95714263893426], [116.34157351490938, 39.95714259453227], [116.34157351845802, 39.95714255018353], [116.34157352766896, 39.95714250631984], [116.34157354245251, 39.957142463368264], [116.34163833986426, 39.956985869626266], [116.34167803751389, 39.95687927593962], [116.3416780376864, 39.956879275477355], [116.34169955428162, 39.956821732420906], [116.34167911543382, 39.956822726553526], [116.3416352532696, 39.95682485996916], [116.34138463695027, 39.95683704939704], [116.34081473701367, 39.95686484939391], [116.34081473403235, 39.956864849533446], [116.34060953403102, 39.95687404953352], [116.34060952422384, 39.956874049909686], [116.34022065171254, 39.95688644903323], [116.34014817897527, 39.956894046175336], [116.34014811909627, 39.95689405005583], [116.34014805901585, 39.95689404918976], [116.34000229090533, 39.956886172527426], [116.33996644622088, 39.95695796146569], [116.3399425462474, 39.95700586141328], [116.33865424622168, 39.95958616150566], [116.33865422055568, 39.95958620566463], [116.33865418888196, 39.95958624745002], [116.33840058888313, 39.95988294745109], [116.33840056589197, 39.95988297245387], [116.33827366589233, 39.96001147245436], [116.3382736419522, 39.960011495129834], [116.33819504195228, 39.96008119513014], [116.33819502788573, 39.9600812071602], [116.33796142788589, 39.96027390716106], [116.3379614011563, 39.96027392782671], [116.33717050115577, 39.960847027829395], [116.33717046549111, 39.96084705165754], [116.33717042744534, 39.96084707319468], [116.33698647215546, 39.960942649965176], [116.3361220579648, 39.96159770916163], [116.33610468140331, 39.96171495102537], [116.3361046723097, 39.961714993893544], [116.33610465789103, 39.96171503588808], [116.3361046382814, 39.96171507661823], [116.3361046136633, 39.96171511570504], [116.33610458426578, 39.9617151527848], [116.33610455036239, 39.9617151875125], [116.33610451226859, 39.961715219565036], [116.33470001226834, 39.962788119569964], [116.33470000691479, 39.9627881236074], [116.33441541990685, 39.96300001393506], [116.33433413743913, 39.96306849916347], [116.33423254261989, 39.96315889455428], [116.33413095046964, 39.963249287570356], [116.33401507068362, 39.963361368019875], [116.33393989266673, 39.96344554340646], [116.33382601253162, 39.96359191787474], [116.3337386217386, 39.96372430392877], [116.33373861875515, 39.96372430838668], [116.33363292916587, 39.96388009304317], [116.33356794079154, 39.963996972136535], [116.33348865134676, 39.96414965181369], [116.33343986253989, 39.96426802465889], [116.33339317111631, 39.96440659920855], [116.3333646749487, 39.964520383909665], [116.33333217887942, 39.964654367707645], [116.33330978191552, 39.96480074787262], [116.33329148268564, 39.96494724171743], [116.33317268285396, 39.965963240351705], [116.33317268272954, 39.96596324140195], [116.33317088280019, 39.96597824081419], [116.33316143950756, 39.9660592543311], [116.33332600552377, 39.96606044972544], [116.3340467373811, 39.96606589491872], [116.33404679505576, 39.9660658975489], [116.33404685211227, 39.96606590454224], [116.33404690799453, 39.96606591583058], [116.33404696215783, 39.966065931303916], [116.33404701407427, 39.9660659508114], [116.33404706323779, 39.96606597416288], [116.33404710916922, 39.96606600113079], [116.33404715142085, 39.96606603145227], [116.33404718958087, 39.96606606483175], [116.33404722327732, 39.966066100943905], [116.33404725218175, 39.96606613943673], [116.33404727601247, 39.96606617993505], [116.33404729453716, 39.96606622204412], [116.33404730757528, 39.96606626535352], [116.33404731499974, 39.96606630944109], [116.33404731673818, 39.96606635387712], [116.33404731277365, 39.9660663982285], [116.33404730314481, 39.96606644206293], [116.3340472879455, 39.96606648495315], [116.33404726732385, 39.96606652648113], [116.33404724148087, 39.96606656624208], [116.33404721066847, 39.966066603848454], [116.33404717518698, 39.966066638933704], [116.33404713538218, 39.96606667115584], [116.33404709164212, 39.96606670020083], [116.33404704439307, 39.966066725785545], [116.33404699409563, 39.966066747660605], [116.33404694124, 39.96606676561282], [116.33404688634138, 39.96606677946719], [116.33404682993489, 39.96606678908868], [116.33404677257028, 39.96606679438351], [116.33351934092912, 39.96609524919196], [116.33351931388043, 39.96609525016795], [116.33315286810027, 39.966101939322385], [116.3331357856759, 39.966186587172935], [116.33313386071012, 39.9661961258647], [116.33311214070217, 39.96630375379765], [116.33308318188668, 39.9664472512331], [116.33306888362031, 39.96659603320695], [116.33306888356032, 39.966596033825326], [116.33306748358615, 39.966610333562784], [116.33300528361693, 39.967255733300405], [116.33300528222509, 39.96725574549294], [116.33293648222944, 39.96777704549332], [116.33273178223831, 39.969326945525516], [116.33271788221975, 39.96943184567253], [116.33271787256858, 39.969431893187696], [116.33231968025439, 39.97088026527606], [116.33227568329174, 39.971292636840616], [116.33227568269558, 39.9712926420561], [116.3321061827222, 39.97268284193467], [116.33205208274052, 39.97312914181473], [116.33184008275074, 39.97487644185248], [116.33184008224526, 39.97487644582789], [116.33182528548527, 39.97498772146945], [116.33182599828963, 39.975069604792765], [116.332103008985, 39.97507421835109], [116.3335104826119, 39.975097649311365], [116.33386384835812, 39.975075586260985], [116.33386973143274, 39.97504318321736], [116.33388558619677, 39.97495585752606], [116.33388559729454, 39.97495581294128], [116.33388561417058, 39.97495576944274], [116.33388563665339, 39.974955727472455], [116.33388566451453, 39.97495568745701], [116.33388569747073, 39.97495564980309], [116.33388573518715, 39.97495561489334], [116.33388577728044, 39.97495558308258], [116.33388582332284, 39.974955554694084], [116.33388587284637, 39.97495553001639], [116.33388592534776, 39.974955509300244], [116.33388598029342, 39.97495549275625], [116.33388603712494, 39.974955480552495], [116.33388609526473, 39.97495547281305], [116.33388615412193, 39.974955469616525], [116.333934712635, 39.974954720581394], [116.33415251534423, 39.974951360634066], [116.33421472049042, 39.974613136912645], [116.33421472623908, 39.97461311109389], [116.33427837805334, 39.97436996153237], [116.3342783920522, 39.974369918920644], [116.33427841138398, 39.97436987756188], [116.33427843586442, 39.97436983785013], [116.33427846526038, 39.974369800163736], [116.33427849929176, 39.974369764861734], [116.33427853763433, 39.97436973228042], [116.33427857992281, 39.974369702730236], [116.33427862575432, 39.9743696764927], [116.33427867469221, 39.97436965381777], [116.33427872627028, 39.974369634921494], [116.33427877999708, 39.97436961998386], [116.33427883536079, 39.97436960914721], [116.33427889183393, 39.974369602514784], [116.3342789488785, 39.974369600149764], [116.334279005951, 39.97436960207469], [116.33427906250776, 39.974369608271196], [116.33427911800989, 39.97436961868027], [116.33427917192864, 39.97436963320275], [116.3342792237503, 39.974369651700265], [116.33427927298122, 39.974369673996605], [116.33427931915232, 39.97436969987932], [116.33427936182373, 39.974369729101845], [116.33427940058891, 39.97436976138578], [116.3342794350786, 39.97436979642353], [116.33427946496413, 39.9743698338813], [116.33427948996082, 39.97436987340224], [116.33427950983054, 39.97436991460981], [116.33427952438394, 39.97436995711143], [116.33427953348244, 39.97437000050218], [116.3342795370393, 39.97437004436866], [116.33427953502063, 39.974370088292986], [116.3342795274457, 39.97437013185666], [116.33423657718538, 39.974549874929885], [116.33418147905579, 39.97482566557924], [116.33415850685299, 39.974951268199874], [116.33421597830032, 39.97495038154166], [116.33421603462483, 39.97495038275985], [116.33421607320402, 39.97495038647178], [116.3342702, 39.97466059999999]]]}}]}