{"type": "FeatureCollection", "features": [{"type": "Feature", "id": "PS-0001", "properties": {"id": "PS-0001", "layer": "PUBLIC_SPACE", "name_zh": "干线限界（连续公共空间预留）", "area_sqm": 171272.7, "reserve_half_width_m": 30.0, "note_zh": "限界宽度由须通过之物反推确定，是被需求定义的供给，不是剩余用地", "source_id": "OSM-DERIVED-CORRIDOR-20260808", "source_type": "agent_generated_design", "confidence": "low", "geometry_role": "design_proposal", "usage_note": "概念建议，供专业团队深化研究；非审定规划结论"}, "geometry": {"type": "Polygon", "coordinates": [[[116.31938413959938, 40.01978523429031], [116.3193858567686, 40.01978092127159], [116.31962063236836, 40.019173147722775], [116.31981928176563, 40.01868821816931], [116.31999196061597, 40.01834506612324], [116.32009576418552, 40.01816508730562], [116.32029156584409, 40.01783758148535], [116.3204945469511, 40.01754658605693], [116.32069725765109, 40.01729389052832], [116.32095397013617, 40.01699891013456], [116.32142300593758, 40.016532235322835], [116.32152360643957, 40.016432202265975], [116.32157348409122, 40.01638766849295], [116.32193432981421, 40.01606591829494], [116.32509864279737, 40.01328748792447], [116.3250993435457, 40.01328687071051], [116.32922234039091, 40.009643961363416], [116.32923029119402, 40.00963668104212], [116.32969979061495, 40.00919107994411], [116.32970674139915, 40.00918426227923], [116.33000134090062, 40.00888556157168], [116.3300152383057, 40.00887041856593], [116.33029373752649, 40.00854371786149], [116.3303027379054, 40.00853257914319], [116.33060013680326, 40.008143778365906], [116.33061189749334, 40.00812708763398], [116.33079229654282, 40.00784808714209], [116.33080114293861, 40.00783330478424], [116.33111374076942, 40.00726660390399], [116.33112574460654, 40.00724143666771], [116.3312457433065, 40.006945136313696], [116.331251418467, 40.00692947878653], [116.33131201758837, 40.00674047860298], [116.33131380044495, 40.006734640049004], [116.33146259801916, 40.00622183959385], [116.3314674783321, 40.00620132422812], [116.3315722755455, 40.005638923894374], [116.3315750637401, 40.00561841083759], [116.3316255607508, 40.00503061066202], [116.33162614017982, 40.0050215612984], [116.33186501122205, 39.9993589603449], [116.3318650501238, 39.99935798355191], [116.33186814349381, 39.99927543265638], [116.33161050022873, 39.99926971086839], [116.33151699432142, 39.99926763413053], [116.33146968926124, 39.99926658347069], [116.33140216887465, 39.9992650837888], [116.3313614757081, 39.99926417994194], [116.3311658453087, 39.9992598345428], [116.3311627682781, 39.99934192696129], [116.33092405101625, 40.00499950922185], [116.33087482121024, 40.00557249063085], [116.33077384710394, 40.00611434457979], [116.33062884947621, 40.00661403205988], [116.33057171346229, 40.00679222579615], [116.33046004541336, 40.00706794952563], [116.33015839173834, 40.007614800685126], [116.3299882025186, 40.0078780072226], [116.32970138771041, 40.0082529667262], [116.32943417377842, 40.00856642583806], [116.32915026426149, 40.00885428538309], [116.32868820227394, 40.009292824385696], [116.32456960759413, 40.01293181967598], [116.32140475628123, 40.01571070432241], [116.32140299458673, 40.015712263062284], [116.32118687297468, 40.01590496836964], [116.32121158377241, 40.015939442023345], [116.32126551594618, 40.015987781230656], [116.32131073235674, 40.01601780467556], [116.32134225588507, 40.01598960647851], [116.32134227402845, 40.01598959098922], [116.32135097607026, 40.01598249914034], [116.32138365125596, 40.01595587002839], [116.3213836916996, 40.015955840083826], [116.32138373568684, 40.01595581325479], [116.32138378281334, 40.01595578978788], [116.32138383264598, 40.01595576989879], [116.32138388472669, 40.015955753770314], [116.32138393857679, 40.01595574155072], [116.32138399370132, 40.01595573335234], [116.32138404959356, 40.0159557292505], [116.3213841057398, 40.015955729282915], [116.32138416162398, 40.01595573344928], [116.32138421673243, 40.01595574171131], [116.32138427055861, 40.01595575399305], [116.32138432260777, 40.01595577018163], [116.3213843724015, 40.01595579012824], [116.32138441948213, 40.01595581364953], [116.3213844634169, 40.01595584052932], [116.32138450380204, 40.01595587052054], [116.32138454026627, 40.01595590334753], [116.32139734962168, 40.01596862234315], [116.32148358682664, 40.01605425105428], [116.3215233351551, 40.01609371882334], [116.32152336825766, 40.0160937552772], [116.32152339652338, 40.016093794063366], [116.32152341967667, 40.016093834803726], [116.32152343749185, 40.016093877101085], [116.32152344979522, 40.01609392054312], [116.32152345646688, 40.01609396470631], [116.32152345744171, 40.0160940091601], [116.3215234527103, 40.016094053471114], [116.32152344231868, 40.01609409720739], [116.32152342636822, 40.01609413994252], [116.32152340501439, 40.01609418125989], [116.3215233784654, 40.0160942207567], [116.32152334698003, 40.016094258047914], [116.32152331086526, 40.01609429276997], [116.32149173696905, 40.016121751926214], [116.32147371006742, 40.01613742953111], [116.32147367046376, 40.01613746078186], [116.32147362711224, 40.01613748893867], [116.32147358041995, 40.016137513737135], [116.32147353082526, 40.01613753494438], [116.32147347879388, 40.01613755236132], [116.32147342481434, 40.01613756582441], [116.32147336939356, 40.01613757520721], [116.32147331305185, 40.01613758042164], [116.32147325631827, 40.01613758141873], [116.32147319972556, 40.016137578189124], [116.32147314380505, 40.016137570763135], [116.32147308908188, 40.01613755921049], [116.32147303606985, 40.016137543639694], [116.32147298526672, 40.01613752419692], [116.32147293714951, 40.016137501064755], [116.32147289217008, 40.01613747446036], [116.32147285075071, 40.016137444633586], [116.32142904385606, 40.016102685572946], [116.32138939754026, 40.01607122772462], [116.32132492111724, 40.01602841583482], [116.32131085533688, 40.0160190762441], [116.3211573441327, 40.01615639350658], [116.32088744717443, 40.01639789078628], [116.32045066328395, 40.01680137590736], [116.32009399075483, 40.01718234656783], [116.31974681572476, 40.017634114079534], [116.31952703821435, 40.01797827886563], [116.31932245267436, 40.01839674929512], [116.31924406387941, 40.018580973489755], [116.31927681711404, 40.01859017228509], [116.31927687150946, 40.0185901900009], [116.31927692330699, 40.01859021183979], [116.31927697197955, 40.018590237579595], [116.31927701703195, 40.018590266958384], [116.3192770580058, 40.01859029967729], [116.3192770944842, 40.01859033540338], [116.31927712609607, 40.01859037377318], [116.31927715251969, 40.01859041439628], [116.31927717348626, 40.018590456859386], [116.31927718878244, 40.01859050073044], [116.3192771982526, 40.018590545563086], [116.31927720180043, 40.01859059090116], [116.31927719938975, 40.018590636283406], [116.31927719104516, 40.01859068124806], [116.31927717685151, 40.018590725337624], [116.31922538172509, 40.018722682822144], [116.31922536307334, 40.018722723264396], [116.31922533949954, 40.018722762158035], [116.31922531121774, 40.01872279914983], [116.31922527848477, 40.018722833903894], [116.31922524159789, 40.018722866104625], [116.31922520089203, 40.01872289545964], [116.31922515673685, 40.01872292170234], [116.31922510953329, 40.01872294459444], [116.31922505971004, 40.01872296392804], [116.3192250077195, 40.01872297952761], [116.31922495403376, 40.018722991251465], [116.31922489914042, 40.018722998993134], [116.31922484353785, 40.01872300268234], [116.31922478773103, 40.018723002285604], [116.31922473222674, 40.01872299780648], [116.31922467752894, 40.01872298928565], [116.31922462413439, 40.01872297680053], [116.31918792626017, 40.0187129037772], [116.31911996041062, 40.018872631122974], [116.3189928004531, 40.01921962045711], [116.319026197917, 40.01923008744975], [116.31902625011857, 40.0192301061615], [116.31902629967722, 40.019230128725056], [116.31902634611362, 40.019230154922184], [116.31902638897868, 40.01923018449953], [116.31902642785784, 40.019230217171035], [116.31902646237505, 40.019230252620716], [116.31902649219654, 40.019230290505725], [116.31902651703382, 40.01923033045967], [116.31902653664676, 40.01923037209613], [116.31902655084559, 40.01923041501242], [116.31902655949305, 40.019230458793494], [116.31902656250548, 40.019230503015905], [116.31902655985374, 40.01923054725198], [116.31902655156351, 40.01923059107387], [116.31902653771492, 40.01923063405778], [116.31897589814511, 40.01936015317954], [116.3189029421253, 40.019546749411646], [116.31908696161484, 40.01960414762183], [116.31915844822083, 40.01941909020849], [116.31920910802162, 40.01928794650863], [116.31920912707122, 40.01928790481198], [116.31920915134532, 40.01928786475192], [116.3192091806101, 40.01928782671432], [116.31920921458367, 40.01928779106557], [116.31920925293876, 40.0192877581491], [116.31920929530595, 40.01928772828194], [116.3192093412771, 40.01928770175182], [116.31920939040937, 40.019287678814294], [116.3192094422295, 40.0192876596903], [116.31920949623836, 40.01928764456405], [116.31920955191562, 40.01928763358126], [116.31920960872503, 40.019287626847735], [116.31920966611936, 40.0192876244283], [116.31920972354573, 40.019287626346305], [116.31920978045096, 40.01928763258324], [116.31920983628693, 40.019287643079025], [116.31920989051576, 40.0192876577326], [116.3192593824596, 40.01930316871707], [116.31925943466555, 40.019303187430445], [116.31925948422808, 40.019303209996245], [116.31925953066782, 40.0193032361962], [116.31925957353552, 40.019303265776884], [116.3192596124165, 40.019303298452144], [116.31925964693468, 40.01930333390592], [116.31925967675618, 40.01930337179526], [116.31925970159249, 40.01930341175366], [116.31925972120344, 40.01930345339463], [116.31925973539927, 40.01930349631534], [116.31925974404267, 40.019303540100616], [116.31925974705007, 40.01930358432695], [116.31925974439235, 40.019303628566504], [116.31925973609522, 40.01930367239135], [116.31925972223894, 40.019303715377625], [116.31920834368269, 40.01943506689707], [116.31913604594088, 40.01961989831295], [116.31909856085203, 40.01971572968307], [116.31909856036067, 40.019715730932646], [116.3163836670375, 40.02658339797282], [116.31640580038992, 40.026585915320034], [116.31644024768464, 40.02658720612067], [116.31647469368055, 40.02658589499364], [116.31650880664002, 40.02658199456594], [116.31654225803281, 40.026575542401204], [116.31657472570029, 40.026566600637985], [116.31660589695802, 40.02655525539128], [116.3166354716072, 40.02654161592312], [116.31666316482594, 40.026525813590354], [116.31668870991224, 40.026508000579526], [116.31671186085251, 40.026488348441084], [116.31673239469087, 40.026467046437396], [116.31675011367638, 40.02644429971981], [116.31676484716728, 40.02642032735298], [116.31677645327447, 40.026395360205086], [116.319299037016, 40.01999277981556], [116.31938413959938, 40.01978523429031]], [[116.31947090268761, 40.018790132381696], [116.31947087647399, 40.01879017259622], [116.3194708451727, 40.018790210599214], [116.3194708090961, 40.018790246011456], [116.31947076860422, 40.01879027847954], [116.31947072410112, 40.01879030767947], [116.31947067603093, 40.01879033331982], [116.31947062487333, 40.01879035514473], [116.31947057113888, 40.01879037293643], [116.31947051536378, 40.018790386517345], [116.31947045810463, 40.01879039575195], [116.31947039993288, 40.01879040054808], [116.319470341429, 40.01879040085789], [116.31947028317683, 40.018790396678284], [116.31947022575768, 40.01879038805096], [116.31947016974458, 40.01879037506203], [116.3194151813234, 40.0187752816947], [116.31941512945968, 40.018775265265994], [116.31941507987804, 40.01877524509781], [116.31941503303334, 40.01877522137516], [116.31941498935521, 40.01877519431563], [116.31941494924439, 40.01877516416746], [116.31941491306884, 40.01877513120723], [116.31941488116036, 40.018775095737254], [116.3194148538117, 40.018775058082944], [116.3194148312737, 40.018775018589736], [116.31941481375316, 40.018774977619856], [116.31941480141074, 40.01877493554917], [116.3194147943597, 40.0187748927636], [116.31941479266472, 40.018774849655635], [116.31941479634135, 40.01877480662071], [116.31941480535585, 40.018774764053624], [116.31941481962555, 40.01877472234484], [116.31946819688443, 40.01864442234869], [116.3194682174693, 40.0186443797361], [116.31946824353713, 40.01864433893634], [116.31946827482224, 40.018644300365196], [116.3194683110058, 40.01864426441573], [116.31946835171907, 40.01864423145432], [116.31946839654712, 40.01864420181689], [116.31946844503315, 40.01864417580544], [116.31946849668303, 40.01864415368505], [116.31946855097036, 40.01864413568119], [116.31946860734196, 40.0186441219773], [116.31946866522331, 40.018644112713034], [116.31946872402457, 40.01864410798282], [116.31946878314648, 40.018644107834874], [116.31946884198653, 40.01864411227065], [116.3194688999451, 40.01864412124502], [116.31946895643155, 40.01864413466646], [116.3195254079199, 40.01865998900632], [116.31952545969928, 40.018660005753695], [116.31952550915359, 40.01866002623819], [116.31952555582791, 40.01866005027136], [116.31952559929277, 40.018660077632084], [116.31952563914837, 40.01866010806866], [116.31952567502795, 40.01866014130108], [116.31952570660147, 40.018660177023584], [116.31952573357844, 40.01866021490752], [116.31952575571066, 40.01866025460438], [116.31952577279453, 40.01866029574892], [116.31952578467289, 40.01866033796265], [116.31952579123643, 40.01866038085715], [116.31952579242478, 40.01866042403785], [116.31952578822698, 40.01866046710743], [116.31952577868171, 40.01866050966967], [116.31952576387674, 40.01866055133301], [116.31947092355195, 40.018790090356966], [116.31947090268761, 40.018790132381696]]]}}, {"type": "Feature", "id": "PS-0002", "properties": {"id": "PS-0002", "layer": "PUBLIC_SPACE", "name_zh": "干线限界（连续公共空间预留）", "area_sqm": 152895.6, "reserve_half_width_m": 30.0, "note_zh": "限界宽度由须通过之物反推确定，是被需求定义的供给，不是剩余用地", "source_id": "OSM-DERIVED-CORRIDOR-20260808", "source_type": "agent_generated_design", "confidence": "low", "geometry_role": "design_proposal", "usage_note": "概念建议，供专业团队深化研究；非审定规划结论"}, "geometry": {"type": "Polygon", "coordinates": [[[116.33190923748109, 39.99817875977296], [116.33210860451393, 39.993088636074965], [116.33217469585807, 39.99140133655282], [116.33231442301324, 39.98783193936565], [116.33233708998702, 39.98760967663573], [116.33245683065267, 39.98667221815306], [116.33260876317934, 39.98561962684308], [116.33263903865317, 39.98542083782388], [116.332745918152, 39.98471780700003], [116.33280778449098, 39.98433145391323], [116.33291867264691, 39.98366450912828], [116.33390508008503, 39.9781358339288], [116.3341414684985, 39.976972322959696], [116.33414236439114, 39.976967645369506], [116.3343840878675, 39.97562413289175], [116.33443721222193, 39.97533503657388], [116.33449197593316, 39.97503726879512], [116.33419699596782, 39.97505568811638], [116.33418581087444, 39.975115570858975], [116.3341713505421, 39.97519298840983], [116.33416677559937, 39.97521748164396], [116.33416676493938, 39.97521752411158], [116.33416674903262, 39.97521756559641], [116.33416672802583, 39.97521760571575], [116.3341667021129, 39.9752176440994], [116.33416667153286, 39.97521768039326], [116.33416663656782, 39.97521771426245], [116.33416659754045, 39.9752177453945], [116.33416655481076, 39.975217773502166], [116.33416650877305, 39.97521779832612], [116.33416645985203, 39.975217819637336], [116.33416640849907, 39.97521783723919], [116.33416635518799, 39.97521785096926], [116.33416630041059, 39.97521786070089], [116.33416624467232, 39.9752178663443], [116.3341661884874, 39.97521786784742], [116.33410985191048, 39.97521729194855], [116.33409977964918, 39.97527236235546], [116.33389397972884, 39.97641196196751], [116.33389397904645, 39.976411965635364], [116.33380184861248, 39.97689304197377], [116.33379507977367, 39.97693066174315], [116.33379507828046, 39.97693066953912], [116.33378748504508, 39.97696804339403], [116.33377217905169, 39.977047965636025], [116.33377217676909, 39.977047976613356], [116.33376233779781, 39.97709181730463], [116.33376232533693, 39.977091860212724], [116.33376230749636, 39.977091901981375], [116.33376228444617, 39.97709194221242], [116.33376225640609, 39.977091980522296], [116.33376222364343, 39.97709201654582], [116.33376218647058, 39.977092049939536], [116.33376214524183, 39.9770920803851], [116.33376210035033, 39.9770921075923], [116.33376205222395, 39.97709213130172], [116.33376200132155, 39.97709215128735], [116.33376194812834, 39.97709216735866], [116.33376189315149, 39.97709217936245], [116.33376183691506, 39.97709218718426], [116.33376177995518, 39.97709219074953], [116.33376172281487, 39.9770921900243], [116.33376166603887, 39.977092185015444], [116.3337616101684, 39.97709217577074], [116.33376155573613, 39.977092162378305], [116.33376150326097, 39.97709214496584], [116.33376145324318, 39.97709212369929], [116.33376140615958, 39.97709209878145], [116.33376136245904, 39.97709207044982], [116.33376132255817, 39.97709203897453], [116.33376128683733, 39.97709200465564], [116.33376125563709, 39.97709196782028], [116.33376122925486, 39.977091928819654], [116.33376120794217, 39.97709188802556], [116.3337611919022, 39.97709184582688], [116.33376118128785, 39.97709180262592], [116.33376117620034, 39.97709175883451], [116.33376117668813, 39.97709171487014], [116.33376118274658, 39.97709167115193], [116.333786327691, 39.97696790821656], [116.33380068976665, 39.97689291459236], [116.33403572023744, 39.97558663825813], [116.33403572047276, 39.97558663696408], [116.33408892047517, 39.975297136964365], [116.33410361728018, 39.97521722821356], [116.33389060861889, 39.97521505048025], [116.33383929856663, 39.97521452584395], [116.33383924031035, 39.975214523008596], [116.33383918271086, 39.97521451572287], [116.33383912634115, 39.97521450405924], [116.33383907176187, 39.97521448813372], [116.33383901951596, 39.97521446810471], [116.33383897012304, 39.975214444171456], [116.33383892407447, 39.97521441657199], [116.33383888182826, 39.97521438558085], [116.3338388438046, 39.9752143515063], [116.33383881038169, 39.975214314687285], [116.33383878189207, 39.975214275490025], [116.33383875861901, 39.97521423430438], [116.33383874079408, 39.975214191540054], [116.33383872859454, 39.9752141476224], [116.33383872214179, 39.975214102988254], [116.33383872149993, 39.975214058081555], [116.3338387266754, 39.975214013349024], [116.33384444535399, 39.97518248833588], [116.33385142033131, 39.97514403775933], [116.33385619059337, 39.975117763968896], [116.3337677423235, 39.975118249503566], [116.33374179106619, 39.97525934667097], [116.33368858385431, 39.97554887793156], [116.33368844266224, 39.97554965436134], [116.33344705736698, 39.97689121178132], [116.333210626204, 39.97805487525677], [116.33320967490397, 39.978059861634485], [116.3322225474521, 39.98359225847993], [116.33222212274008, 39.98359472268005], [116.33211091940778, 39.984263522322266], [116.33211071608592, 39.98426476812459], [116.33204861415001, 39.98465256792406], [116.33204835681592, 39.984654216590656], [116.33203784143923, 39.98472338058503], [116.33212673842704, 39.984726122501854], [116.3321607286474, 39.984727170869775], [116.33216078547315, 39.98472717476276], [116.33216084153635, 39.98472718289252], [116.33216089630449, 39.98472719518184], [116.33216094925737, 39.98472721151397], [116.33216099989197, 39.98472723173377], [116.33216104772738, 39.984727255649204], [116.33216109230918, 39.98472728303309], [116.33216113321393, 39.98472731362533], [116.33216117005307, 39.98472734713532], [116.3321612024767, 39.984727383244774], [116.33216123017682, 39.9847274216107], [116.33216125289032, 39.98472746186868], [116.33216127040146, 39.984727503636286], [116.3321612825439, 39.98472754651682], [116.3321612892023, 39.98472759010296], [116.33216129031344, 39.98472763398069], [116.33216128586673, 39.98472767773323], [116.33215428067126, 39.984769956931885], [116.33214027759098, 39.98485444675757], [116.33211326263428, 39.98501744520012], [116.33208371587101, 39.985195718707274], [116.33206594387455, 39.98530294744749], [116.33206593375883, 39.98530299116752], [116.33206591809412, 39.98530303390851], [116.33206589703279, 39.98530307525475], [116.33206587077963, 39.98530311480413], [116.33206583958999, 39.98530315217203], [116.3320658037672, 39.98530318699502], [116.33206576365967, 39.9853032189344], [116.33206571965745, 39.985303247679575], [116.33206567218852, 39.98530327295096], [116.33206562171449, 39.985303294502785], [116.33206556872629, 39.985303312125446], [116.33206551373927, 39.985303325647564], [116.33206545728815, 39.98530333493761], [116.33206539992199, 39.985303339905236], [116.33206534219872, 39.98530334050215], [116.33203250571778, 39.9853024336303], [116.33201138096857, 39.98543075516085], [116.33194158254796, 39.98587734507976], [116.33192314575807, 39.98605233137725], [116.33193874549247, 39.986039614401136], [116.33196212930022, 39.986014069298655], [116.3319621641388, 39.9860140349064], [116.33196220313809, 39.986014003267194], [116.33196224593252, 39.98601397467767], [116.3319622921208, 39.986013949405866], [116.33196234126991, 39.98601392768872], [116.33196239291907, 39.98601390972984], [116.33196244658406, 39.98601389569762], [116.3319625017617, 39.98601388572358], [116.33196255793467, 39.986013879901265], [116.33196261457636, 39.986013878285256], [116.3319626711557, 39.98601388089068], [116.33196272714224, 39.98601388769314], [116.33196278201109, 39.98601389862884], [116.33196283524777, 39.986013913595265], [116.33196288635322, 39.98601393245209], [116.33196293484829, 39.98601395502253], [116.33196298027832, 39.98601398109495], [116.33196302221734, 39.98601401042495], [116.33196306027216, 39.98601404273753], [116.33196309408603, 39.98601407772973], [116.33196312334192, 39.98601411507349], [116.33196314776553, 39.98601415441868], [116.33196316712788, 39.98601419539645], [116.33196318124743, 39.98601423762257], [116.33196318999182, 39.98601428070119], [116.33196319327904, 39.986014324228414], [116.3319631910783, 39.98601436779613], [116.3319472512833, 39.98615451137274], [116.3319472439758, 39.9861545530689], [116.33194723164108, 39.986154594058405], [116.33194721438677, 39.98615463398342], [116.33194719236354, 39.98615467249538], [116.33194716576367, 39.986154709258095], [116.33194713481937, 39.98615474395058], [116.33194709980077, 39.98615477626998], [116.33190897884393, 39.98618679100056], [116.33187988347315, 39.98646293634598], [116.3318624847684, 39.986628324047096], [116.33183678519211, 39.9873864117384], [116.33183678511071, 39.98738641393365], [116.33175628512775, 39.98938651393421], [116.33175628509913, 39.98938651462806], [116.33175520695639, 39.98941202939411], [116.3317552021773, 39.98941207400545], [116.33175519166356, 39.98941211803138], [116.33175517551909, 39.98941216103685], [116.33175515390339, 39.9894122025969], [116.33175512703006, 39.98941224230083], [116.3317550951647, 39.98941227975629], [116.33175505862214, 39.98941231459315], [116.33175501776353, 39.98941234646716], [116.33175497299264, 39.989412375063324], [116.33175492475185, 39.98941240009909], [116.3317548735179, 39.98941242132704], [116.33175481979708, 39.98941243853741], [116.33175476412022, 39.98941245156011], [116.33175470703753, 39.98941246026647], [116.33175464911312, 39.98941246457045], [116.33175459091936, 39.989412464429535], [116.33155007161965, 39.98940413882575], [116.33147250415719, 39.99138506449923], [116.33140639561346, 39.99307236211536], [116.3312069695266, 39.99816266276796], [116.33120695600347, 39.998163015566746], [116.33116705155211, 39.9992276529858], [116.33136203860592, 39.99923311665397], [116.33136666626257, 39.99910793806402], [116.3313666706671, 39.999107894277444], [116.33136668059684, 39.999107851029095], [116.33136669595734, 39.99910780873038], [116.3313667166025, 39.99910776778366], [116.33136674233592, 39.99910772857844], [116.33136677291283, 39.99910769148765], [116.33136680804236, 39.999107656864076], [116.33136684739034, 39.999107625037105], [116.3313668905825, 39.999107596309464], [116.33136693720799, 39.999107570954415], [116.33136698682327, 39.99910754921318], [116.3313670389564, 39.99910753129254], [116.33136709311148, 39.99910751736295], [116.33136714877335, 39.999107507556914], [116.33136720541256, 39.99910750196775], [116.33136726249032, 39.999107500648584], [116.33140783557546, 39.999108085564814], [116.33145391097257, 39.999108749787126], [116.33145391744323, 39.999108749907926], [116.33147627849608, 39.99910926249015], [116.33152289021758, 39.99911033095637], [116.33155861744255, 39.9991111499079], [116.33155864017853, 39.99911115076955], [116.33161843320681, 39.99911431392739], [116.3316184892019, 39.99911431898223], [116.3316185443052, 39.999114328155756], [116.33161859800576, 39.999114341362855], [116.33161864980565, 39.9991143584811], [116.33161869922456, 39.99911437935175], [116.33161874580422, 39.99911440378128], [116.33161878911277, 39.99911443154316], [116.33161882874856, 39.999114462379985], [116.33161886434411, 39.999114496005795], [116.33161889556935, 39.99911453210879], [116.33161892213471, 39.9991145703542], [116.33161894379388, 39.99911461038744], [116.33161896034605, 39.99911465183724], [116.3316189716377, 39.99911469431925], [116.33161897756415, 39.9991147374396], [116.33161897807041, 39.99911478079842], [116.3316125877447, 39.99924013672637], [116.33186919671125, 39.99924732602477], [116.33190923748109, 39.99817875977296]], [[116.33230637945822, 39.98530999713899], [116.33229772156864, 39.985343791561796], [116.33229770759985, 39.98534383472441], [116.33229768816335, 39.985343876616334], [116.33229766344878, 39.98534391682876], [116.3322976336973, 39.98534395496935], [116.33229759919921, 39.985343990665925], [116.33229756029114, 39.98534402357018], [116.33229751735273, 39.98534405336105], [116.33229747080291, 39.98534407974787], [116.33229742109599, 39.98534410247314], [116.33229736871688, 39.98534412131512], [116.33229731417673, 39.98534413608997], [116.33229725800773, 39.98534414665354], [116.33229720075789, 39.98534415290272], [116.3322971429859, 39.985344154776556], [116.33229708525539, 39.985344152256744], [116.33229702812976, 39.98534414536788], [116.33229697216635, 39.985344134177225], [116.33229691791125, 39.98534411879392], [116.33229686589384, 39.985344099368064], [116.33229681662168, 39.98534407608924], [116.33229677057557, 39.98534404918459], [116.33229672820477, 39.9853440189166], [116.33229668992277, 39.985343985580634], [116.33229665610307, 39.98534394950198], [116.33229662707565, 39.98534391103267], [116.33229660312378, 39.98534387054805], [116.33229658448116, 39.98534382844317], [116.33229657132969, 39.98534378512889], [116.3322965637977, 39.98534374102778], [116.33229656195869, 39.98534369657023], [116.33229656583059, 39.985343652190025], [116.33230177585833, 39.98530938317531], [116.33231780474053, 39.98520395279876], [116.33234455063422, 39.98502803024486], [116.33236930759416, 39.98486518915775], [116.332389156242, 39.98473463233479], [116.33238916588826, 39.9847345881089], [116.3323891812052, 39.9847345448404], [116.33238920204087, 39.98473450295841], [116.33238922818862, 39.98473446287832], [116.33238925938915, 39.98473442499765], [116.332389295333, 39.98473438969205], [116.33238933566365, 39.98473435731171], [116.33238937998117, 39.984734328177794], [116.332389427846, 39.98473430257922], [116.3323894787834, 39.984734280769885], [116.33238953228816, 39.98473426296608], [116.33238958782971, 39.98473424934439], [116.3323896448571, 39.98473424003992], [116.3323897028048, 39.984734235144934], [116.33238976109809, 39.984734234707986], [116.33242092287158, 39.984735195766966], [116.33246044946173, 39.98473641479283], [116.33248172834128, 39.98467350184781], [116.33250824466542, 39.98456430346748], [116.3325649189109, 39.98420554567953], [116.33258777837152, 39.98406085969947], [116.33259861860334, 39.983992247637616], [116.33265461831851, 39.98360974960521], [116.3326546200945, 39.98360973867778], [116.33289262006608, 39.98227783889975], [116.33300051076161, 39.981669590435004], [116.33300052127856, 39.981669547102555], [116.33300053725277, 39.98166950476881], [116.33300055853115, 39.98166946383947], [116.33300058490975, 39.981669424706745], [116.3330006161358, 39.98166938774571], [116.33300065191001, 39.98166935331054], [116.33300069188962, 39.98166932173126], [116.33300073569143, 39.981669293310475], [116.3330007828957, 39.98166926832058], [116.33300083305004, 39.98166924700104], [116.33300088567381, 39.98166922955618], [116.33300094026269, 39.981669216153186], [116.33300099629356, 39.981669206920486], [116.33300105322944, 39.98166920194658], [116.33300111052468, 39.981669201279125], [116.33300116763021, 39.98166920492449], [116.3330012239988, 39.9816692128478], [116.33300127909021, 39.98166922497307], [116.33300133237648, 39.98166924118412], [116.33300138334698, 39.9816692613256], [116.33300143151325, 39.98166928520448], [116.33300147641366, 39.98166931259191], [116.33300151761792, 39.981669343225455], [116.33300155473115, 39.98166937681153], [116.33300158739772, 39.98166941302824], [116.33300161530451, 39.981669451528546], [116.33300163818414, 39.981669491943485], [116.33300165581734, 39.981669533885714], [116.33300166803511, 39.98166957695332], [116.33300167472035, 39.98166962073356], [116.33300167580902, 39.981669664806866], [116.33300167129065, 39.98166970875087], [116.33265298059088, 39.98375545736371], [116.33262338060385, 39.983932957294996], [116.33257818058011, 39.984203257450694], [116.33256768058207, 39.984266057442284], [116.33256768045455, 39.98426605819991], [116.33255648045507, 39.984332158199976], [116.33255647971139, 39.98433216243239], [116.3325285801211, 39.984485460188274], [116.33250898053487, 39.98460165774105], [116.33249878056908, 39.98466255754002], [116.33249877931398, 39.984662564593286], [116.33248462977868, 39.98473765790493], [116.33245978411931, 39.98486951643382], [116.33245568724388, 39.98489125893153], [116.33243209810888, 39.9850321142896], [116.33240280374105, 39.98520703586273], [116.33238526427795, 39.98531176648135], [116.33238525409922, 39.98531181015269], [116.33238523838291, 39.98531185284147], [116.33238521728161, 39.985311894133304], [116.33238519100017, 39.98531193362727], [116.33238515979374, 39.98531197093999], [116.33238512396525, 39.985312005709204], [116.33238508386258, 39.98531203759737], [116.33238503987502, 39.98531206629488], [116.33238499242965, 39.98531209152318], [116.33238494198704, 39.985312113037295], [116.33238488903694, 39.985312130628394], [116.33238483409339, 39.985312144125686], [116.3323847776898, 39.98531215339811], [116.33238472037375, 39.985312158355704], [116.3323846627017, 39.98531215895029], [116.33237589566286, 39.98531191684895], [116.33230637945822, 39.98530999713899]], [[116.33253461460467, 39.98386179502022], [116.33253450088763, 39.983841995578956], [116.33253450561192, 39.98384193646131], [116.33256991937095, 39.98362894287199], [116.33256992007877, 39.983628938764994], [116.3326211083862, 39.983342066783855], [116.3326211189494, 39.98334202345411], [116.33262113496987, 39.98334198112661], [116.33262115629408, 39.98334194020707], [116.33262118271762, 39.983341901087705], [116.33262121398724, 39.98334186414347], [116.33262124980318, 39.9833418297285], [116.33262128982219, 39.983341798172646], [116.33262133366067, 39.98334176977836], [116.33262138089842, 39.98334174481783], [116.33262143108266, 39.98334172353028], [116.3326214837324, 39.98334170611977], [116.33262153834298, 39.98334169275316], [116.33262159439091, 39.98334168355857], [116.33262165133905, 39.98334167862414], [116.33262170864147, 39.98334167799718], [116.332621765749, 39.983341681683676], [116.33262182211422, 39.98334168964831], [116.33262187719687, 39.98334170181473], [116.33262193046897, 39.983341718066306], [116.33262198141996, 39.983341738247304], [116.33262202956142, 39.983341762164265], [116.33262207443192, 39.983341789587946], [116.33262211560141, 39.98334182025549], [116.33262215267526, 39.98334185387296], [116.33262218529808, 39.983341890118105], [116.33262221315724, 39.98334192864353], [116.33262223598565, 39.983341969079994], [116.33262225356457, 39.983342011039866], [116.33262226572542, 39.98334205412098], [116.33262227235171, 39.98334209791042], [116.3326222733799, 39.98334214198844], [116.3326100850774, 39.983644213969924], [116.33261008031782, 39.98364425897062], [116.3325149803224, 39.98419805897113], [116.33251496983681, 39.984198103025115], [116.33251495371417, 39.98419814605993], [116.33251493211397, 39.98419818764987], [116.33251490524994, 39.984198227383516], [116.33251487338778, 39.9841982648678], [116.33251483684268, 39.98419829973192], [116.33251479597618, 39.98419833163098], [116.33251475119255, 39.984198360249394], [116.33251470293477, 39.984198385304126], [116.33251465168027, 39.98419840654727], [116.33251459793604, 39.98419842376871], [116.33251454223377, 39.98419843679806], [116.33251448512446, 39.98419844550646], [116.33251442717308, 39.984198449807735], [116.33251436895287, 39.98419844965935], [116.3325143110398, 39.984198445062766], [116.33251425400678, 39.984198436063465], [116.33251419841797, 39.98419842275045], [116.33251414482325, 39.984198405255455], [116.33251409375286, 39.984198383751504], [116.33251404571199, 39.98419835845135], [116.33251400117585, 39.98419832960528], [116.33251396058502, 39.9841982974986], [116.33251392434104, 39.984198262448984], [116.3325138928025, 39.98419822480311], [116.33251386628129, 39.984198184933405], [116.33251384503984, 39.98419814323427], [116.33251382928826, 39.984198100118206], [116.33251381918237, 39.98419805601173], [116.33251381482214, 39.98419801135119], [116.33251381625068, 39.98419796657834], [116.33252811521433, 39.98405017730294], [116.33253461460467, 39.98386179502022]], [[116.33182368501973, 39.99167481681797], [116.33175941840288, 39.993046481633776], [116.33175941353348, 39.99304652558118], [116.33175940309745, 39.99304656895132], [116.33175938719495, 39.993046611328104], [116.33175936597857, 39.993046652304955], [116.33175933965184, 39.99304669148873], [116.33175930846737, 39.99304672850346], [116.33175927272434, 39.993046762994], [116.33175923276569, 39.993046794629464], [116.33175918897481, 39.99304682310633], [116.33175914177185, 39.99304684815135], [116.33175909160967, 39.993046869524235], [116.33175903896961, 39.99304688701996], [116.33175898435663, 39.99304690047062], [116.3317589282948, 39.99304690974717], [116.33175887132194, 39.99304691476064], [116.33175881398469, 39.993046915462884], [116.33175875683321, 39.9930469118472], [116.33175870041579, 39.99304690394826], [116.33175864527372, 39.99304689184185], [116.33175859193608, 39.99304687564413], [116.33175854091462, 39.99304685551052], [116.33175849269882, 39.99304683163415], [116.33175844775135, 39.99304680424414], [116.33175840650341, 39.993046773603275], [116.33175836935074, 39.99304674000554], [116.33175833664986, 39.99304670377327], [116.33175830871443, 39.993046665254084], [116.33175828581255, 39.99304662481758], [116.33175826816391, 39.993046582851726], [116.33175825593786, 39.99304653975914], [116.33175824925169, 39.99304649595329], [116.33175824816954, 39.99304645185444], [116.3318149331727, 39.99159948815614], [116.33172298321152, 39.99159747252252], [116.33167640336477, 39.991596451418566], [116.33167634607918, 39.99159644799304], [116.33167628950608, 39.9915964402646], [116.33167623419043, 39.991596428307695], [116.3316761806651, 39.9915964122375], [116.33167612944573, 39.99159639220881], [116.33167608102568, 39.99159636841459], [116.33167603587137, 39.99159634108402], [116.3316759944178, 39.991596310480396], [116.33167595706429, 39.99159627689851], [116.33167592417067, 39.99159624066187], [116.3316758960538, 39.99159620211954], [116.33167587298452, 39.99159616164279], [116.33167585518504, 39.991596119621526], [116.33167584282688, 39.99159607646059], [116.33167583602905, 39.991596032575686], [116.33167583485702, 39.99159598838959], [116.3316766148142, 39.991575087080804], [116.33167906289962, 39.99150966085094], [116.33167906738299, 39.99150961670634], [116.33167907748151, 39.99150957311386], [116.33167909309746, 39.99150953049502], [116.33167911407995, 39.99150948926193], [116.33167914022602, 39.99150944981331], [116.33167917128283, 39.99150941253058], [116.33167920695013, 39.99150937777428], [116.33167924688301, 39.991509345880466], [116.33167929069533, 39.99150931715756], [116.33167933796344, 39.991509291883276], [116.3316793882303, 39.991509270302025], [116.33167944100983, 39.99150925262248], [116.33167949579165, 39.99150923901559], [116.3316795520461, 39.991509229612944], [116.33167960922918, 39.991509224505435], [116.33167966678796, 39.9915092237425], [116.33172596343299, 39.99151036205546], [116.33181892183798, 39.99151264760265], [116.33183121870339, 39.991512949937295], [116.33183121969888, 39.99151294996241], [116.33190471079136, 39.99151485308659], [116.33190476768442, 39.99151485670197], [116.33190482384914, 39.991514864562305], [116.33190487875154, 39.99151487659287], [116.3319049318695, 39.991514892679255], [116.33190498269798, 39.9915149126685], [116.33190503075362, 39.99151493637053], [116.33190507557946, 39.99151496355998], [116.33190511674927, 39.99151499397828], [116.33190515387159, 39.99151502733622], [116.33190518659342, 39.99151506331656], [116.33190521460362, 39.99151510157723], [116.3319052376358, 39.99151514175435], [116.331905255471, 39.99151518346593], [116.33190526793963, 39.991515226315315], [116.33190527492309, 39.991515269895054], [116.331905276355, 39.99151531379078], [116.33190263211115, 39.9916011499286], [116.33190262789748, 39.991601194228046], [116.33190261803004, 39.991601237992654], [116.33190260260487, 39.99160128079658], [116.331902581772, 39.99160132222334], [116.3319025557342, 39.99160136186983], [116.33190252474479, 39.99160139935028], [116.3319024891053, 39.991601434300016], [116.33190244916251, 39.99160146637893], [116.33190240530513, 39.99160149527491], [116.33190235795986, 39.99160152070679], [116.33190230758737, 39.9916015424271], [116.33190225467783, 39.9916015602245], [116.33190219974604, 39.99160157392582], [116.33190214332652, 39.991601583397724], [116.33190208596824, 39.991601588548086], [116.33190202822931, 39.991601589326756], [116.33182746249742, 39.99159976428812], [116.33182368501973, 39.99167481681797]]]}}, {"type": "Feature", "id": "PS-0003", "properties": {"id": "PS-0003", "layer": "PUBLIC_SPACE", "name_zh": "干线限界（连续公共空间预留）", "area_sqm": 63803.2, "reserve_half_width_m": 30.0, "note_zh": "限界宽度由须通过之物反推确定，是被需求定义的供给，不是剩余用地", "source_id": "OSM-DERIVED-CORRIDOR-20260808", "source_type": "agent_generated_design", "confidence": "low", "geometry_role": "design_proposal", "usage_note": "概念建议，供专业团队深化研究；非审定规划结论"}, "geometry": {"type": "Polygon", "coordinates": [[[116.33456157433676, 39.97465883612621], [116.33470551072347, 39.974108986715], [116.33490697004241, 39.9735771731593], [116.33511932545703, 39.973175867304896], [116.33562003158326, 39.972495268964494], [116.33797955063285, 39.96947539935412], [116.33798744640143, 39.96946475363306], [116.33833554485082, 39.968969652703656], [116.33834249105729, 39.968959240222816], [116.33845889041875, 39.96877503990415], [116.33846657452855, 39.96876201379428], [116.33857997373711, 39.96855541347502], [116.33858228515425, 39.96855109872129], [116.33869088433568, 39.968343298412925], [116.33869381237798, 39.96833750397232], [116.33895611018791, 39.967800203219255], [116.33896912352387, 39.96776733128698], [116.33928911865102, 39.96672533031482], [116.33929565898559, 39.966697672935354], [116.33937803409793, 39.966204960833025], [116.33927049446874, 39.966204150274834], [116.3390876139278, 39.966202865566615], [116.33906809717205, 39.96633008026353], [116.33904314731271, 39.966492708450744], [116.33904313785888, 39.96649275178499], [116.339043122961, 39.96649279420392], [116.33904310276093, 39.96649283530363], [116.33904307745098, 39.96649287469275], [116.3390430472722, 39.9664929119962], [116.33904301251192, 39.96649294685878], [116.33904297350114, 39.96649297894853], [116.33904293061136, 39.96649300795987], [116.33904288425096, 39.96649303361655], [116.3390428348614, 39.96649305567427], [116.33904278291297, 39.96649307392299], [116.33904272890032, 39.96649308818894], [116.3390426733378, 39.96649309833628], [116.33904261675448, 39.966493104268366], [116.33904255968915, 39.96649310592874], [116.33899566608345, 39.96649270847522], [116.33897600169234, 39.96649254180119], [116.33886915611419, 39.966491636127095], [116.33882511549297, 39.9664912627891], [116.33882505784742, 39.96649126010773], [116.33882500082603, 39.96649125306757], [116.33882494498408, 39.966491241737195], [116.33882489086542, 39.966491226226935], [116.33882483899704, 39.966491206687884], [116.33882478988409, 39.966491183310254], [116.33882474400481, 39.96649115632174], [116.33882470180603, 39.966491125985165], [116.33882466369869, 39.96649109259596], [116.33882463005386, 39.966491056479285], [116.33882460119924, 39.96649101798684], [116.33882457741578, 39.966490977493486], [116.33882455893513, 39.96649093539359], [116.33882454593724, 39.96649089209711], [116.33882453854869, 39.966490848025686], [116.33882453684144, 39.966490803608515], [116.33882454083212, 39.96649075927814], [116.33884975706025, 39.966327815536985], [116.33886933086488, 39.96620133178327], [116.33867083384597, 39.96619993667125], [116.33860147542863, 39.96661476626331], [116.33829082275034, 39.96762631274755], [116.33803780926246, 39.968144584927884], [116.33793184732173, 39.968347335318185], [116.33782324440497, 39.96854519398616], [116.33771423658386, 39.968717694805584], [116.33737354571463, 39.96920225378884], [116.3350157422978, 39.97221989374179], [116.33501110126596, 39.972226013580354], [116.33449699918829, 39.972924812223575], [116.33447736070056, 39.9729560230646], [116.33424965901662, 39.97338632241926], [116.33423776393458, 39.97341260129168], [116.33402706145067, 39.97396880066553], [116.33401994645463, 39.973991056293556], [116.33387104372869, 39.97455985583408], [116.33386759445284, 39.97457534707178], [116.33377456379523, 39.9750811610126], [116.33386384835812, 39.975075586260985], [116.33386973143274, 39.97504318321736], [116.33388558619677, 39.97495585752606], [116.33388559729454, 39.97495581294128], [116.33388561417058, 39.97495576944274], [116.33388563665339, 39.974955727472455], [116.33388566451453, 39.97495568745701], [116.33388569747073, 39.97495564980309], [116.33388573518715, 39.97495561489334], [116.33388577728044, 39.97495558308258], [116.33388582332284, 39.974955554694084], [116.33388587284637, 39.97495553001639], [116.33388592534776, 39.974955509300244], [116.33388598029342, 39.97495549275625], [116.33388603712494, 39.974955480552495], [116.33388609526473, 39.97495547281305], [116.33388615412193, 39.974955469616525], [116.333934712635, 39.974954720581394], [116.33415251534423, 39.974951360634066], [116.33421472049042, 39.974613136912645], [116.33421472623908, 39.97461311109389], [116.33427837805334, 39.97436996153237], [116.3342783920522, 39.974369918920644], [116.33427841138398, 39.97436987756188], [116.33427843586442, 39.97436983785013], [116.33427846526038, 39.974369800163736], [116.33427849929176, 39.974369764861734], [116.33427853763433, 39.97436973228042], [116.33427857992281, 39.974369702730236], [116.33427862575432, 39.9743696764927], [116.33427867469221, 39.97436965381777], [116.33427872627028, 39.974369634921494], [116.33427877999708, 39.97436961998386], [116.33427883536079, 39.97436960914721], [116.33427889183393, 39.974369602514784], [116.3342789488785, 39.974369600149764], [116.334279005951, 39.97436960207469], [116.33427906250776, 39.974369608271196], [116.33427911800989, 39.97436961868027], [116.33427917192864, 39.97436963320275], [116.3342792237503, 39.974369651700265], [116.33427927298122, 39.974369673996605], [116.33427931915232, 39.97436969987932], [116.33427936182373, 39.974369729101845], [116.33427940058891, 39.97436976138578], [116.3342794350786, 39.97436979642353], [116.33427946496413, 39.9743698338813], [116.33427948996082, 39.97436987340224], [116.33427950983054, 39.97436991460981], [116.33427952438394, 39.97436995711143], [116.33427953348244, 39.97437000050218], [116.3342795370393, 39.97437004436866], [116.33427953502063, 39.974370088292986], [116.3342795274457, 39.97437013185666], [116.33423657718538, 39.974549874929885], [116.33418147905579, 39.97482566557924], [116.33415850685299, 39.974951268199874], [116.33421597830032, 39.97495038154166], [116.33421603462483, 39.97495038275985], [116.33421609053609, 39.97495038813938], [116.33421614551584, 39.974950397630444], [116.33421619905455, 39.974950411145024], [116.334216250656, 39.97495042855788], [116.3342162998419, 39.97495044970764], [116.33421634615638, 39.97495047439823], [116.33421638917022, 39.97495050240087], [116.33421642848472, 39.97495053345598], [116.3342164637355, 39.97495056727575], [116.33421649459584, 39.974950603546716], [116.33421652077975, 39.974950641932715], [116.3342165420445, 39.97495068207797], [116.33421655819302, 39.97495072361036], [116.33421656907565, 39.97495076614502], [116.3342165745915, 39.97495080928768], [116.33421657468948, 39.97495085263847], [116.33421656936866, 39.97495089579562], [116.33420050129212, 39.9750369212917], [116.33449299693544, 39.97503171725399], [116.33456157433676, 39.97465883612621]]]}}, {"type": "Feature", "id": "PS-0005", "properties": {"id": "PS-0005", "layer": "PUBLIC_SPACE", "name_zh": "干线限界（连续公共空间预留）", "area_sqm": 171406.1, "reserve_half_width_m": 30.0, "note_zh": "限界宽度由须通过之物反推确定，是被需求定义的供给，不是剩余用地", "source_id": "OSM-DERIVED-CORRIDOR-20260808", "source_type": "agent_generated_design", "confidence": "low", "geometry_role": "design_proposal", "usage_note": "概念建议，供专业团队深化研究；非审定规划结论"}, "geometry": {"type": "Polygon", "coordinates": [[[116.3394177553511, 39.96596737254313], [116.33941814243329, 39.96596497240275], [116.33951193941813, 39.965361272099344], [116.33999613777918, 39.96223292649753], [116.34011537941487, 39.961494138719715], [116.34027467821957, 39.96084179133711], [116.34045659831446, 39.96027140949454], [116.34066914568778, 39.95975554938604], [116.34095289986357, 39.95918577731466], [116.34242610210946, 39.95643144894154], [116.34344321342027, 39.95458098611164], [116.34442382181358, 39.95279807390414], [116.34460362075328, 39.95248362208987], [116.3446063586447, 39.95247870212564], [116.34468016804415, 39.9523423507766], [116.34471747495492, 39.952285216012726], [116.34473107906182, 39.952261638689954], [116.3462649668629, 39.94921923431121], [116.34627566251271, 39.94919455667402], [116.34628322488821, 39.9491692017291], [116.34628758388162, 39.94914340454379], [116.34633068182116, 39.94873560439859], [116.34633125738675, 39.948729224715], [116.34635115603493, 39.94846312464464], [116.34635130660153, 39.948460959760794], [116.34637550468757, 39.948084759673016], [116.34637588362618, 39.9480668204874], [116.34636998225689, 39.947798920494016], [116.34636990348524, 39.947796170523524], [116.34635322918572, 39.947323304347464], [116.34635312856369, 39.94698061974506], [116.34635401696852, 39.94661075157676], [116.34636199924293, 39.946403377277086], [116.34638437292766, 39.94612935517417], [116.34643005289466, 39.94576216211274], [116.34647181617548, 39.9455622901584], [116.34661065796882, 39.94504665258257], [116.34672036662134, 39.944692413993906], [116.34689858546452, 39.94419283924951], [116.34689916006944, 39.94419120857917], [116.34725008704652, 39.94318282824903], [116.34784127475659, 39.94157883942946], [116.34784903856186, 39.94155300764361], [116.3478534755978, 39.941526714485406], [116.34785454313712, 39.941500213172745], [116.34785223090269, 39.94147375892786], [116.34784656116645, 39.94144760651946], [116.34783758853479, 39.94142200780905], [116.34782539942242, 39.9413972093255], [116.34781011122011, 39.9413734498908], [116.347791871164, 39.941350958320136], [116.34777085491758, 39.941329951218314], [116.34774726487979, 39.94131063089376], [116.34772132823588, 39.94129318341033], [116.34769329476941, 39.94127777679533], [116.34766343445678, 39.94126455942146], [116.34763203486722, 39.94125365857797], [116.34759939839334, 39.94124517924481], [116.3475658393392, 39.94123920308168], [116.34753168089334, 39.94123578764161], [116.34749725201648, 39.94123496581673], [116.3474628842737, 39.94123674552156], [116.34742890864122, 39.94124110961674], [116.34739565231926, 39.941248016074084], [116.34736343558103, 39.94125739838136], [116.34733256868834, 39.94126916618278], [116.34730334890388, 39.94128320614914], [116.3472760576284, 39.94129938306921], [116.34725095769075, 39.941317541151804], [116.34722829081676, 39.94133750552618], [116.34720827530133, 39.941359083925946], [116.34719110390603, 39.94138206854075], [116.34717694200266, 39.94140623801746], [116.3471659259807, 39.941431359591924], [116.34657401876834, 39.94303725782971], [116.3465726452347, 39.94304109148744], [116.346221324631, 39.94405057440905], [116.34604181297082, 39.944553759229706], [116.34603885134958, 39.94456264952035], [116.34592654965836, 39.944925249179754], [116.34592428626675, 39.94493306947156], [116.3457827837613, 39.945458569036674], [116.34577993286123, 39.94547049786315], [116.34573513181095, 39.945684897722295], [116.34573227634108, 39.94570204632009], [116.34568497442834, 39.94608224616373], [116.34568406726771, 39.94609105279511], [116.34566096583222, 39.9463739527145], [116.34566042857081, 39.94638289746488], [116.34565212747096, 39.94659849743117], [116.34565197404015, 39.946605998930124], [116.34565107212917, 39.946979898912005], [116.3456510715325, 39.94698045947236], [116.3456511697609, 39.94732705945835], [116.34565129888865, 39.947334328383114], [116.34566804798855, 39.947809453582614], [116.34567371874152, 39.9480670040117], [116.34565016320097, 39.948433156506056], [116.34563058154818, 39.94869498176512], [116.34559195760598, 39.94906041317891], [116.34408259190491, 39.952054121553374], [116.34404722594103, 39.95210828302846], [116.34403684290658, 39.952125697196294], [116.34395957964922, 39.95226842656409], [116.34378017909553, 39.95258217652082], [116.34377821154047, 39.95258568459875], [116.34279660471769, 39.95437038183769], [116.34177876337517, 39.95622214128391], [116.34177744968476, 39.956224563945426], [116.3414993106137, 39.956744587915374], [116.3416720895699, 39.95674300972369], [116.34170831387246, 39.95666436526478], [116.34176704849402, 39.956536849556656], [116.34176705580663, 39.95653683453573], [116.3418001318496, 39.95647240927701], [116.34180015580564, 39.95647236863413], [116.34180018487186, 39.9564723300158], [116.3418002187627, 39.956472293801326], [116.34180025714531, 39.956472260346466], [116.34180029964263, 39.95647222997983], [116.34180034583724, 39.956472202999684], [116.34180039527537, 39.95647217967107], [116.3418004474714, 39.95647216022313], [116.34180050191263, 39.9564721448469], [116.34180055806428, 39.956472133693396], [116.34180061537482, 39.95647212687221], [116.34180067328127, 39.95647212445031], [116.34180073121485, 39.956472126451516], [116.34180078860648, 39.95647213285615], [116.34180084489243, 39.9564721436013], [116.34180089951982, 39.956472158581455], [116.34180095195204, 39.95647217764941], [116.34180100167406, 39.956472200617924], [116.34180104819748, 39.95647222726134], [116.34180109106532, 39.95647225731797], [116.3418011298565, 39.95647229049255], [116.34180116418999, 39.956472326459256], [116.34180119372854, 39.95647236486476], [116.34180121818197, 39.956472405331816], [116.34180123731011, 39.95647244746296], [116.34180125092504, 39.9564724908443], [116.34180125889307, 39.95647253504975], [116.34180126113588, 39.95647257964508], [116.34180125763147, 39.956472624192244], [116.34179818158914, 39.95649404945113], [116.34179817626044, 39.956494078098714], [116.34177627626119, 39.95658977809885], [116.34177627130362, 39.95658979730742], [116.34175766012879, 39.95665450960803], [116.34175560062816, 39.9566616706217], [116.34183260842605, 39.95665772621577], [116.34190046114013, 39.95665425069834], [116.34190048244075, 39.956654249907], [116.34192735755111, 39.9566536289705], [116.34199420799779, 39.956652084396026], [116.341994266269, 39.95665208528447], [116.34199432413632, 39.95665209062966], [116.34199438102557, 39.956652100378555], [116.34199443637237, 39.95665211443445], [116.34199448962758, 39.9566521326579], [116.34199454026285, 39.95665215486809], [116.34199458777577, 39.956652180844664], [116.34199463169499, 39.956652210329906], [116.34199467158471, 39.95665224303126], [116.34199470704925, 39.9566522786243], [116.34199473773667, 39.95665231675588], [116.34199476334256, 39.95665235704769], [116.3419947836128, 39.95665239909997], [116.34199479834639, 39.956652442495496], [116.34199480739707, 39.95665248680374], [116.34199481067508, 39.956652531585085], [116.34199480814786, 39.956652576395264], [116.34199479984053, 39.95665262078965], [116.34199478583548, 39.956652664327805], [116.34199476627167, 39.95665270657778], [116.3419481157354, 39.95673951520282], [116.34190750336509, 39.95681508764165], [116.34190747908252, 39.95681512725357], [116.34190744991416, 39.956815164862654], [116.34190741613594, 39.95681520011309], [116.34190737806742, 39.9568152326714], [116.34190733606879, 39.95681526222954], [116.34190729053734, 39.956815288507876], [116.34190724190385, 39.9568153112578], [116.34190719062843, 39.95681533026409], [116.34190713719617, 39.95681534534691], [116.34190708211261, 39.95681535636358], [116.34190702589882, 39.95681536320989], [116.34190696908668, 39.95681536582104], [116.34184105874384, 39.95681592380108], [116.34181432168762, 39.95681615013944], [116.34174722413097, 39.9568194137755], [116.3415746412567, 39.95714277108264], [116.34157461671182, 39.95714281130059], [116.34157458713592, 39.957142849461185], [116.3415745528169, 39.95714288519286], [116.34157451408896, 39.95714291814769], [116.34157447132918, 39.95714294800482], [116.34157442495389, 39.95714297447355], [116.34157437541461, 39.957142997296145], [116.34157432319373, 39.95714301625041], [116.34157426879968, 39.95714303115178], [116.34157421276207, 39.95714304185515], [116.34157415562653, 39.95714304825633], [116.34157409794939, 39.95714305029298], [116.34157404029222, 39.95714304794529], [116.34157398321639, 39.95714304123609], [116.34157392727764, 39.9571430302307], [116.34157387302064, 39.95714301503631], [116.34157382097365, 39.95714299580086], [116.34157377164348, 39.9571429727116], [116.3415737255104, 39.95714294599339], [116.34157368302358, 39.95714291590634], [116.34157364459676, 39.957142882743426], [116.34157361060403, 39.95714284682753], [116.3415735813764, 39.95714280850834], [116.34157355719843, 39.95714276815898], [116.34157353830552, 39.957142726172314], [116.34157352488167, 39.95714268295715], [116.34157351705755, 39.95714263893426], [116.34157351490938, 39.95714259453227], [116.34157351845802, 39.95714255018353], [116.34157352766896, 39.95714250631984], [116.34157354245251, 39.957142463368264], [116.34163833986426, 39.956985869626266], [116.34167803751389, 39.95687927593962], [116.3416780376864, 39.956879275477355], [116.34169955428162, 39.956821732420906], [116.34167911543382, 39.956822726553526], [116.3416352532696, 39.95682485996916], [116.34145159829202, 39.956833792597806], [116.3403019389627, 39.958983159773744], [116.34029876123795, 39.95898931374233], [116.3400097588961, 39.95956961291541], [116.34000292715538, 39.959584641398735], [116.33978372483978, 39.960116640754336], [116.33977742444662, 39.960133899227046], [116.33959042172484, 39.96072019866121], [116.33958634085621, 39.96073470291769], [116.33942323763064, 39.96140260241154], [116.339419875135, 39.9614191985462], [116.33929917140762, 39.96216699815722], [116.33929895813405, 39.96216834716964], [116.33881465169668, 39.965297186227225], [116.33872104447912, 39.96589962581553], [116.33867303999762, 39.96618674168997], [116.33887168017327, 39.96618615124732], [116.33888956039735, 39.96607074712459], [116.3388947564936, 39.96603720994383], [116.33889476632265, 39.96603716553731], [116.33889478186855, 39.96603712210864], [116.3388948029757, 39.966037080092384], [116.3388948294329, 39.966037039909054], [116.33889486097536, 39.966037001960736], [116.33889489728745, 39.96603696662722], [116.33889493800572, 39.966036934262085], [116.33889498272276, 39.966036905189235], [116.33889503099107, 39.9660368796996], [116.33889508232758, 39.96603685804827], [116.33889513621857, 39.966036840451885], [116.33889519212471, 39.96603682708658], [116.33889524948657, 39.966036818086096], [116.33889530773006, 39.966036813540484], [116.3388953662724, 39.966036813495236], [116.33892526113912, 39.966037942342176], [116.33905055694018, 39.96604267349768], [116.3390689192405, 39.965932844543886], [116.33916271891918, 39.96532914664486], [116.3391859789424, 39.96517887833822], [116.33918598845955, 39.96517883499494], [116.3391860034236, 39.9651787925722], [116.33918602369192, 39.965178751474305], [116.3391860490714, 39.96517871209286], [116.33918607932019, 39.96517867480317], [116.33918611414995, 39.96517863996061], [116.33918615322888, 39.96517860789719], [116.33918619618447, 39.965178578918454], [116.33918624260744, 39.96517855330058], [116.33918629205537, 39.96517853128769], [116.3391863440571, 39.96517851308955], [116.33918639811698, 39.96517849887955], [116.33918645371989, 39.965178488793185], [116.33918651033598, 39.9651784829265], [116.33918656742568, 39.965178481335435], [116.33918662444499, 39.96517848403514], [116.3391866808505, 39.965178490999904], [116.33918673610472, 39.96517850216334], [116.33918678968112, 39.965178517419055], [116.3391868410691, 39.96517853662171], [116.33918688977896, 39.965178559588274], [116.3391869353465, 39.96517858609991], [116.33918697733753, 39.96517861590395], [116.33918701535185, 39.96517864871639], [116.33918704902726, 39.96517868422452], [116.33918707804278, 39.96517872209001], [116.33918710212191, 39.965178761951954], [116.33918712103522, 39.965178803430526], [116.33918713460248, 39.96517884613047], [116.33918714269437, 39.96517888964483], [116.33918714523378, 39.96517893355897], [116.33918714219652, 39.96517897745438], [116.33907658216623, 39.966009945860435], [116.3390765812822, 39.96600995207827], [116.33907151013787, 39.966043464674804], [116.33911120889373, 39.96604496365983], [116.33940294173107, 39.96605597877892], [116.3394177553511, 39.96596737254313]], [[116.34474509645958, 39.951528938277484], [116.34474506326991, 39.95152897503352], [116.34474502550277, 39.95152900907202], [116.3447449835314, 39.95152904005666], [116.34474493777046, 39.95152906768132], [116.34474488867208, 39.95152909167302], [116.34474483672146, 39.9515291117947], [116.34474478243185, 39.951529127847564], [116.34474472633966, 39.951529139673], [116.34474466899917, 39.95152914715415], [116.34474461097692, 39.95152915021709], [116.34474455284617, 39.95152914883158], [116.34474449518137, 39.951529143011285], [116.34474443855225, 39.95152913281373], [116.34474438351835, 39.95152911833968], [116.34474433062344, 39.95152909973212], [116.34474428039016, 39.95152907717494], [116.34474423331486, 39.951529050890976], [116.34474418986265, 39.95152902113998], [116.3447441504629, 39.9515289882159], [116.3447441155049, 39.951528952444036], [116.34474408533403, 39.951528914177835], [116.34474406024846, 39.951528873795404], [116.34474404049598, 39.95152883169577], [116.34474402627181, 39.95152878829487], [116.3447440177165, 39.951528744021566], [116.34474401491455, 39.95152869931331], [116.34474401789367, 39.95152865461181], [116.3447440266244, 39.9515286103588], [116.3447440410205, 39.9515285669915], [116.3447440609397, 39.95152852493841], [116.34493886094195, 39.95117322493933], [116.34511376092036, 39.95085412498326], [116.34511378609537, 39.950854084749125], [116.34511381632458, 39.950854046631946], [116.34511385131069, 39.95085401100664], [116.34511389070964, 39.950853978223556], [116.3451139341339, 39.95085394860511], [116.34511398115644, 39.950853922442604], [116.34511403131478, 39.950853899993355], [116.34511408411562, 39.95085388147811], [116.34511413903967, 39.95085386707903], [116.34511419554671, 39.95085385693767], [116.34511425308109, 39.95085385115379], [116.34511431107691, 39.95085384978428], [116.34511436896376, 39.950853852842606], [116.34511442617237, 39.950853860298686], [116.34511448214009, 39.950853872079186], [116.34511453631646, 39.950853888068266], [116.34511458816871, 39.95085390810865], [116.34511463718681, 39.950853932003255], [116.34511468288873, 39.95085395951708], [116.34511472482495, 39.950853990379514], [116.34511476258308, 39.95085402428705], [116.34511479579173, 39.950854060906195], [116.3451148241243, 39.950854099876814], [116.34511484730217, 39.95085414081562], [116.34511486509734, 39.95085418332], [116.34511487733485, 39.95085422697191], [116.34511488389433, 39.95085427134206], [116.34511488471124, 39.95085431599404], [116.34511487977757, 39.95085436048873], [116.34511486914181, 39.950854404388515], [116.34511485290862, 39.95085444726165], [116.34497101227466, 39.95117434338821], [116.34516637524062, 39.95086940086484], [116.34516640351036, 39.95086936176542], [116.34516643668249, 39.95086932501835], [116.34516647442949, 39.95086929098648], [116.34516651637861, 39.95086926000587], [116.34516656211565, 39.95086923238237], [116.34516661118899, 39.95086920838879], [116.34516666311411, 39.95086918826201], [116.34516671737823, 39.9508691722008], [116.34516677344561, 39.95086916036371], [116.3451668307626, 39.950869152867654], [116.34516688876325, 39.950869149786634], [116.34516694687485, 39.95086915115105], [116.3451670045236, 39.95086915694749], [116.34516706114027, 39.95086916711867], [116.34516711616583, 39.95086918156415], [116.34516716905692, 39.950869200141334], [116.34516721929134, 39.950869222666775], [116.34516726637302, 39.950869248918046], [116.34516730983711, 39.950869278635935], [116.34516734925438, 39.95086931152702], [116.3451673842357, 39.95086934726651], [116.34516741443561, 39.950869385501534], [116.34516743955591, 39.95086942585453], [116.34516745934857, 39.95086946792707], [116.34516747361816, 39.950869511303694], [116.34516748222379, 39.950869555556146], [116.34516748508045, 39.950869600247415], [116.34516748215997, 39.95086964493625], [116.34516747349117, 39.95086968918138], [116.34516745915964, 39.95086973254593], [116.34516743930693, 39.95086977460169], [116.34499433932126, 39.95118647457999], [116.34479693934387, 39.951547774543805], [116.34479691411437, 39.95154781496136], [116.34479688378696, 39.95154785324737], [116.34479684866238, 39.95154788902222], [116.34479680908896, 39.95154792193117], [116.34479676545905, 39.95154795164791], [116.34479671820533, 39.95154797787774], [116.3447966677963, 39.951548000360596], [116.34479661473186, 39.95154801887353], [116.34479655953814, 39.95154803323297], [116.34479650276249, 39.95154804329655], [116.34479644496787, 39.95154804896445], [116.34479638672732, 39.95154805018047], [116.34479632861839, 39.95154804693258], [116.34479627121729, 39.95154803925296], [116.34479621509317, 39.951548027217775], [116.34479616080256, 39.951548010946375], [116.3447961088838, 39.95154799060006], [116.3447960598517, 39.95154796638064], [116.34479601419247, 39.95154793852822], [116.34479597235887, 39.95154790731901], [116.34479593476567, 39.95154787306247], [116.34479590178566, 39.951547836098264], [116.3447958737459, 39.95154779679296], [116.3447958509244, 39.95154775553628], [116.34479583354745, 39.95154771273731], [116.34479582178736, 39.951547668820474], [116.34479581576075, 39.95154762422121], [116.34479581552736, 39.951547579381774], [116.34479582108955, 39.9515475347468], [116.3447958323921, 39.951547490758855], [116.34479584932298, 39.951547447854125], [116.34496336962373, 39.95118830788948], [116.3447451247439, 39.95152889916711], [116.34474509645958, 39.951528938277484]]]}}, {"type": "Feature", "id": "PS-NODE-01", "properties": {"id": "PS-NODE-01", "layer": "PUBLIC_SPACE", "name_zh": "联络线节点", "area_id": "zhongzhiyuan_ai_acceleration_area", "area_sqm": 45166.3, "source_id": "OSM-DERIVED-CORRIDOR-20260808", "source_type": "agent_generated_design", "confidence": "low", "geometry_role": "design_proposal", "usage_note": "概念建议，供专业团队深化研究；非审定规划结论"}, "geometry": {"type": "Polygon", "coordinates": [[[116.32784650079452, 40.01836193299499], [116.32782729122103, 40.01825691192308], [116.32779478586286, 40.01815384422107], [116.32774929782035, 40.01805372247687], [116.32769126521757, 40.01795751090321], [116.32762124698121, 40.017866136052305], [116.32753991745606, 40.017780477893375], [116.32744805990959, 40.01770136133883], [116.32734655898798, 40.01762954830076], [116.32723639219603, 40.017565730354264], [116.32711862048357, 40.01751052207804], [116.3269943780285, 40.017464455136604], [116.32686486131513, 40.01742797316082], [116.32673131761285, 40.01740142747634], [116.32659503296613, 40.01738507372063], [116.32645731981118, 40.01737906938156], [116.3263195043389, 40.01738347228097], [116.32618291372515, 40.01739824001803], [116.32604886335186, 40.01742323037739], [116.32591864414147, 40.01745820269868], [116.32579351012677, 40.017502820193684], [116.32567466637578, 40.017556653189395], [116.32556325738784, 40.01761918326516], [116.3254603560727, 40.01768980824468], [116.32536695341852, 40.017767847994335], [116.32528394894845, 40.017852550972414], [116.32521214205752, 40.017943101465974], [116.32515222431341, 40.018038627445584], [116.32510477279519, 40.01813820896281], [116.32507024453426, 40.01824088700895], [116.32504897211108, 40.018345672750264], [116.32504116045008, 40.01845155705054], [116.325046884844, 40.018557520189255], [116.32506609022617, 40.01866254168205], [116.32509859169869, 40.01876561010845], [116.32514407631051, 40.01886573285273], [116.32520210606938, 40.01896194566375], [116.32527212215795, 40.01905332194174], [116.32535345031394, 40.0191389816626], [116.32544530732247, 40.01921809985393], [116.32554680855807, 40.01928991454072], [116.3256569765039, 40.01935373408453], [116.3257747501657, 40.01940894384528], [116.32589899529076, 40.01945501210139], [116.32602851529208, 40.01949149517147], [116.32616206277393, 40.019518041687824], [116.32629835154664, 40.01953439598103], [116.32643606901539, 40.01954040054255], [116.32657388882356, 40.01953599754198], [116.32671048362862, 40.01952122938407], [116.32684453788755, 40.019496238300306], [116.32697476052864, 40.019461264978936], [116.32709989738724, 40.01941664624657], [116.32721874328604, 40.01936281182378], [116.32733015364315, 40.01930028018608], [116.32743305549621, 40.01922965356979], [116.3275264578364, 40.019151612171406], [116.32760946115259, 40.01906690759599], [116.32768126609417, 40.01897635561793], [116.32774118116832, 40.01888082832363], [116.32778862939858, 40.01878124571211], [116.32782315387992, 40.0186785668341], [116.32784442217712, 40.018573780555286], [116.3278522295243, 40.01846789603258], [116.32784650079452, 40.01836193299499]]]}}, {"type": "Feature", "id": "PS-NODE-02", "properties": {"id": "PS-NODE-02", "layer": "PUBLIC_SPACE", "name_zh": "会让站节点", "area_id": "beijing_ai_origin_community", "area_sqm": 45166.3, "source_id": "OSM-DERIVED-CORRIDOR-20260808", "source_type": "agent_generated_design", "confidence": "low", "geometry_role": "design_proposal", "usage_note": "概念建议，供专业团队深化研究；非审定规划结论"}, "geometry": {"type": "Polygon", "coordinates": [[[116.33816109833339, 39.99016062357188], [116.33814188023753, 39.99005560363614], [116.33810937211555, 39.98995253831021], [116.33806388709425, 39.98985242015905], [116.3380058632686, 39.989756213360835], [116.33793585948065, 39.989664844421775], [116.33785454993593, 39.98957919325419], [116.33776271770951, 39.98950008470319], [116.33766124720366, 39.989428280603775], [116.33755111563023, 39.989364472445004], [116.33743338359987, 39.989309274711324], [116.33730918490838, 39.98926321896575], [116.3371797156186, 39.98922674873138], [116.3370462225433, 39.98920021522079], [116.3369099912394, 39.98918387395424], [116.33677233362947, 39.989177882299316], [116.33663457536956, 39.989182297955765], [116.33649804308467, 39.98919707839986], [116.33636405159507, 39.98922208129391], [116.33623389125621, 39.989257065856826], [116.33610881553399, 39.98930169518251], [116.3359900289351, 39.989355539483974], [116.33587867540855, 39.98941808023172], [116.33577582733005, 39.9894887151466], [116.33568247517509, 39.989566763999306], [116.33559951798047, 39.989651475160464], [116.33552775468594, 39.98974203283826], [116.3354678764393, 39.989837564934064], [116.33542045993924, 39.989937151440515], [116.33538596187982, 39.99003983330083], [116.3353647145506, 39.99014462164453], [116.33535692263428, 39.990250507310265], [116.33536266123335, 39.99035647056443], [116.33538187514425, 39.99046149092149], [116.33541437938682, 39.99056455697189], [116.33545986098328, 39.99066467612283], [116.3355178819703, 39.990760884157744], [116.33558788361498, 39.990852254522885], [116.33566919179408, 39.9909379072511], [116.33576102348498, 39.99101701743737], [116.3358624943061, 39.99108882318379], [116.3359726270334, 39.99115263293804], [116.33609036101186, 39.99120783215435], [116.3362145623709, 39.9912538892127], [116.3363440349451, 39.99129036053961], [116.33647753179551, 39.991316894880455], [116.33661376722013, 39.99133323668311], [116.33675142913796, 39.99133922855936], [116.33688919172751, 39.99133481280097], [116.33702572819735, 39.99132003193557], [116.33715972356637, 39.99129502831705], [116.33728988733006, 39.99126004275434], [116.33741496589089, 39.99121541219196], [116.33753375463307, 39.99116156646442], [116.33764510952524, 39.991099024156036], [116.33774795813923, 39.99102838760591], [116.33784130997894, 39.99095033710618], [116.33792426601971, 39.99086562434955], [116.3379960273661, 39.99077506518913], [116.33805590294521, 39.99067953178052], [116.33810331616087, 39.99057994418155], [116.33813781044518, 39.99047726149099], [116.33815905365371, 39.990372472611185], [116.33816684126207, 39.99026658672411], [116.33816109833339, 39.99016062357188]]]}}, {"type": "Feature", "id": "PS-NODE-03", "properties": {"id": "PS-NODE-03", "layer": "PUBLIC_SPACE", "name_zh": "咽喉区节点", "area_id": "dazhongsi_ai_industry_cluster", "area_sqm": 45166.3, "source_id": "OSM-DERIVED-CORRIDOR-20260808", "source_type": "agent_generated_design", "confidence": "low", "geometry_role": "design_proposal", "usage_note": "概念建议，供专业团队深化研究；非审定规划结论"}, "geometry": {"type": "Polygon", "coordinates": [[[116.3375289826701, 39.966333181247386], [116.33750977171456, 39.966228160839044], [116.3374772753405, 39.96612509501356], [116.33743180656153, 39.96602497634074], [116.33737380331608, 39.96592876900374], [116.33730382424798, 39.965837399514015], [116.33722254332471, 39.96575174778921], [116.33713074334564, 39.96567263867979], [116.33702930840244, 39.96560083402619], [116.33691921536453, 39.96553702532279], [116.33680152447147, 39.96548182705932], [116.33667736912287, 39.96543577080393], [116.33654794496422, 39.96539930008461], [116.33641449837371, 39.965372766118634], [116.33627831446069, 39.96535642443065], [116.33614070469137, 39.96535043239233], [116.33600299426112, 39.9653548477071], [116.33586650933444, 39.96536962785452], [116.33573256427552, 39.96539463049975], [116.33560244899277, 39.96542961486407], [116.33547741651823, 39.96547424404333], [116.33535867094214, 39.9655280882519], [116.33524735581847, 39.965590628961145], [116.33514454315309, 39.96566126389229], [116.33505122308046, 39.96573931281586], [116.33496829432839, 39.965824024101764], [116.33489655556274, 39.96591458195696], [116.33483669769502, 39.96601011428113], [116.33478929722759, 39.96610970106463], [116.33475481070006, 39.96621238324806], [116.3347335702909, 39.96631717195778], [116.33472578061605, 39.966423058028965], [116.33473151675636, 39.966529021724035], [116.33475072353188, 39.96663404255324], [116.33478321603108, 39.9667371091025], [116.33482868138925, 39.96683722877421], [116.33488668179935, 39.966933437346796], [116.33495665872658, 39.96702480826133], [116.33503793828572, 39.96711046154543], [116.33512973772983, 39.96718957228872], [116.33523117298776, 39.96726137858794], [116.33534126717804, 39.96732518888549], [116.3354589600168, 39.96738038863037], [116.33558311802965, 39.9674264461975], [116.33571254546875, 39.967462918008486], [116.33584599582979, 39.96748945280409], [116.33598218385859, 39.967505795027805], [116.3361197979307, 39.967511787287364], [116.33625751268544, 39.967507371870816], [116.33639400179213, 39.967492591302545], [116.33652795072588, 39.967467587933534], [116.33665806942946, 39.96743260257033], [116.33678310473935, 39.967387972155485], [116.3369018524563, 39.9673341265221], [116.3370131689441, 39.967271584253545], [116.33711598214445, 39.96720094768854], [116.33720930190235, 39.96712289711935], [116.33729222950203, 39.9670381842393], [116.337363966322, 39.9669476249027], [116.33742382152548, 39.966852091266794], [116.33747121871247, 39.966752503391604], [116.33750570146942, 39.96664982037855], [116.33752693776286, 39.9665450311331], [116.3375347231349, 39.96643914484069], [116.3375289826701, 39.966333181247386]]]}}]}