{"type": "FeatureCollection", "features": [{"type": "Feature", "id": "SITE-001", "properties": {"id": "SITE-001", "layer": "SITE_BOUNDARY", "name_zh": "总体设计范围（推定）", "area_sqm_declared": 11400029.2, "announced_area_sqm": 11400000, "derivation_method": "planar partition of OSM road/rail/water linework; cells selected by a wedge band whose east/west limits are the announcement's own named streets; one scale parameter closed on the announced 11.4 km2", "wedge_scale": 0.9252, "source_type": "osm", "confidence": "medium", "geometry_role": "provisional_constraint", "official_boundary": false, "boundary_precision": "provisional_rough", "source_id": "OSM-DERIVED-CORRIDOR-20260808", "source_title": "OSM 路网/铁路/水系剖分 + 公告点名四至道路推定的临时走廊边界", "source_date": "2026-08-08", "original_format": "geojson", "original_crs": "EPSG:4326 (OSM), area recomputed in EPSG:4548", "usage_note": "provisional only; not an official redline, approval basis, or precise-area basis; recompute all layers when official polygons are published"}, "geometry": {"type": "Polygon", "coordinates": [[[116.32338949999999, 40.0128355], [116.3232228, 40.0127905], [116.32304420000001, 40.0127211], [116.32274830000001, 40.012528299999985], [116.32224139999998, 40.01219809999999], [116.3221299, 40.012141899999996], [116.3220384, 40.012105999999996], [116.3218858, 40.012029399999996], [116.3214915, 40.012012299999995], [116.32097229999998, 40.01199919999999], [116.320726642702, 40.01199173519909], [116.3207736719232, 40.01209076367202], [116.3208208, 40.01219], [116.32096740000001, 40.0124748], [116.32108100000002, 40.01269589999999], [116.32114629999998, 40.012902399999994], [116.3212655, 40.01324439999999], [116.32130520000001, 40.0135589], [116.32130619999998, 40.0138531], [116.32131189999998, 40.0139691], [116.32118598213602, 40.01396861251597], [116.32118682332421, 40.014025588277846], [116.3211887, 40.01415269999999], [116.3211394, 40.01577270000001], [116.32097134169275, 40.015639058180426], [116.32095600000001, 40.015646200000006], [116.32103910000001, 40.0157074], [116.3211134, 40.0158034], [116.3212111, 40.0159397], [116.3212651, 40.0159881], [116.3213107938468, 40.01601844045983], [116.32115690000002, 40.0161561], [116.32088700000001, 40.0163976], [116.32045020000001, 40.0168011], [116.3200935, 40.01718209999999], [116.31974629999999, 40.0176339], [116.3195265, 40.01797809999999], [116.3193219, 40.018396599999996], [116.31924333124556, 40.01858124711899], [116.31927661617087, 40.01859059524058], [116.31922482104348, 40.01872255272484], [116.31918755667041, 40.01871232420586], [116.3191194, 40.0188725], [116.3189920948306, 40.01921988557303], [116.31902597684618, 40.01923050442757], [116.31897533727542, 40.01936002354909], [116.31890222770431, 40.01954701250721], [116.31908733933943, 40.019604751372576], [116.31915900964603, 40.019419218410874], [116.31920966944587, 40.01928807471078], [116.31925916138994, 40.01930358569534], [116.31920778283273, 40.019434937214534], [116.31913548508956, 40.01961976863007], [116.31909799999998, 40.01971559999999], [116.31539299999999, 40.029087499999996], [116.31536693275531, 40.029152280490294], [116.31551260000002, 40.029178299999984], [116.3161667124431, 40.02928464249129], [116.31651890000002, 40.0280629], [116.31718020000001, 40.0258827], [116.31766059999998, 40.0247403], [116.31798390000002, 40.0240661], [116.3187692, 40.0226898], [116.3203099, 40.0201435], [116.32038666803668, 40.020019072345754], [116.32062092847936, 40.0200940022222], [116.3205451, 40.02021339999999], [116.319021, 40.022692799999994], [116.31841089999999, 40.02371050000001], [116.3180827, 40.0243203], [116.3178744, 40.024791599999986], [116.3173441, 40.026032400000005], [116.31672260000002, 40.0280938], [116.31635666155192, 40.029315522761955], [116.3166241, 40.02935899999999], [116.31826539999999, 40.0296274], [116.31840070000001, 40.029649499999984], [116.31859470000002, 40.0296861], [116.31900159999999, 40.02974350000001], [116.31973970000001, 40.0297698], [116.3198847, 40.02976559999999], [116.3201989, 40.0297566], [116.3214104, 40.0297199], [116.3214704, 40.0297181], [116.3231311, 40.02965269999999], [116.32350839999998, 40.0296365], [116.3236024, 40.029632400000004], [116.3236122, 40.029344], [116.3238643, 40.028795800000005], [116.32390820000002, 40.028535299999994], [116.32391420000002, 40.0284998], [116.3241328, 40.0279698], [116.3241852, 40.02784289999999], [116.32473150000001, 40.0269498], [116.3249888, 40.026529000000004], [116.32510320000002, 40.02643789999999], [116.3252705, 40.02641999999999], [116.32690880000001, 40.02654449999999], [116.3275096, 40.0265901], [116.32768769999998, 40.02659659999999], [116.3278019, 40.0266019], [116.32822659999998, 40.0266164], [116.3293023, 40.02661119999999], [116.3306743, 40.02660989999999], [116.33080289999998, 40.0266098], [116.33078870000001, 40.0262682], [116.33076860000001, 40.0259157], [116.3307633, 40.0254485], [116.33073739999999, 40.02417739999999], [116.33075669908146, 40.02339652794928], [116.33088669533852, 40.023431836857455], [116.3308914784264, 40.02301096587334], [116.3308251, 40.0229947], [116.33076704631569, 40.02297785267653], [116.33077092291596, 40.02282099392493], [116.33089326965802, 40.022853350595874], [116.33089630000002, 40.022586699999984], [116.33092777902422, 40.021925544176604], [116.3308034278629, 40.021911376535535], [116.33080859834361, 40.02177441273088], [116.33093459965066, 40.02178228821329], [116.33094937189857, 40.02147201924008], [116.33102749999999, 40.0214375], [116.331045, 40.021113699999994], [116.33109779999998, 40.02012820000001], [116.3311135, 40.01984319999999], [116.33103970000002, 40.0194655], [116.3310973, 40.0183904], [116.3311361, 40.017120000000006], [116.3311776, 40.01576479999999], [116.3311799, 40.0156889], [116.3311828, 40.01559360000001], [116.331187, 40.015455899999985], [116.3311891, 40.0153869], [116.3311917, 40.0153003], [116.3312401, 40.013718299999994], [116.33124409999999, 40.01360249999999], [116.3313246, 40.01359719999999], [116.3313694, 40.01360040000001], [116.33303319999999, 40.0136237], [116.333354, 40.01366070000001], [116.33437520000001, 40.0136995], [116.3345499, 40.0137053], [116.3345722, 40.013706], [116.3356931, 40.013728699999994], [116.33649210000002, 40.01374439999999], [116.33677540000001, 40.013754999999996], [116.33698270000001, 40.01374979999999], [116.33736430000002, 40.013758100000004], [116.33835560000001, 40.0137925], [116.33897970000001, 40.0138142], [116.33902439999999, 40.0138158], [116.3391449, 40.013821400000005], [116.339083, 40.01372649999999], [116.33924580000001, 40.01373149999999], [116.339443, 40.013735200000006], [116.3395373, 40.01373699999999], [116.3400609, 40.0137505], [116.3405114, 40.013773099999995], [116.3418892, 40.0137977], [116.34200510000001, 40.013800700000004], [116.34210989999998, 40.01380280000001], [116.34343380000001, 40.0138296], [116.34393540000002, 40.013844399999996], [116.34560780000001, 40.0138936], [116.34566540282961, 40.013897237297115], [116.34568790000002, 40.01362879999999], [116.34578486562806, 40.012471529108595], [116.34615600000001, 40.00804169999999], [116.34619017378354, 40.00711120602377], [116.346173, 40.007002699999994], [116.34617459999998, 40.0066128], [116.346168, 40.00656779999999], [116.3461515, 40.0064562], [116.34607970000002, 40.006429900000015], [116.34596249999998, 40.006426000000005], [116.34496360000001, 40.00639269999999], [116.34472669999998, 40.00634769999999], [116.34496960000001, 40.0063066], [116.34589529999998, 40.0063126], [116.3459356, 40.00631289999999], [116.34602630000002, 40.0063135], [116.3461337, 40.0063353], [116.34600269999999, 40.00619350000001], [116.3459791, 40.0061679], [116.34599030000001, 40.0058585], [116.34601260000001, 40.0052401], [116.34602330000001, 40.004946399999994], [116.3460284, 40.004804], [116.34604769999999, 40.004656600000004], [116.34608660000002, 40.0037372], [116.3461064, 40.00329359999999], [116.34608660000002, 40.0030664], [116.3461207, 40.0024984], [116.3461562, 40.0023556], [116.3462113, 40.0013076], [116.3462663, 39.9999279], [116.3462676, 39.999897999999995], [116.3462683, 39.999881300000006], [116.3462725, 39.99978619999999], [116.3462748856058, 39.99973199685702], [116.34394770000002, 39.99965679999999], [116.3438562052214, 39.9996536806444], [116.34455170000001, 39.99966390000001], [116.3461651, 39.9996874], [116.3462768, 39.999688500000005], [116.346281230757, 39.99958901699823], [116.3457492, 39.999573799999986], [116.34267260000001, 39.9994946], [116.34291239999999, 39.999499099999994], [116.34375370000001, 39.99952010000001], [116.3443854, 39.99953589999999], [116.34613590000001, 39.999567899999995], [116.3461752, 39.99956850000001], [116.3462821, 39.99956949999999], [116.34628620000001, 39.99947590000001], [116.34628980000001, 39.9993945], [116.34629310000001, 39.9993208], [116.3464453, 39.997558100000006], [116.34648590000002, 39.9967182], [116.34650699999999, 39.9961383], [116.3465413, 39.99519779999999], [116.34658649999999, 39.9944512], [116.3466236, 39.9931227], [116.34665249999999, 39.9922573], [116.34666950000002, 39.9922139], [116.3467292, 39.9920918], [116.3467305, 39.99202950000001], [116.3439971, 39.9919213], [116.34220010000001, 39.99188000000001], [116.34213029999998, 39.99187739999999], [116.3421313, 39.9918127], [116.34424930000002, 39.991869300000005], [116.34638460000001, 39.991926400000004], [116.34654020000002, 39.991931999999984], [116.3467379, 39.9919373], [116.3467408, 39.991856299999995], [116.3467885, 39.99074160000001], [116.34682460000002, 39.989897], [116.3468591, 39.98893499999999], [116.3468643, 39.98879010000001], [116.3468752, 39.9886226], [116.3468868, 39.9877319], [116.34688799999999, 39.9876208], [116.34695120000002, 39.9860032], [116.3469523, 39.9859749], [116.3467685, 39.9857998], [116.34676851471569, 39.98570231607035], [116.34676853301657, 39.9855810643786], [116.3467685588081, 39.98541015010664], [116.34676858143492, 39.98526017527977], [116.34676859999999, 39.98513710000001], [116.3470517, 39.98501520000001], [116.34705060000002, 39.9850014], [116.34704949999998, 39.98498659999999], [116.3470528, 39.9849195], [116.3471189, 39.9835725], [116.3471827, 39.9832806], [116.3472041, 39.98283670000001], [116.34730290000002, 39.9812975], [116.34738210000002, 39.980934799999986], [116.34744000000002, 39.9801687], [116.3474453, 39.9800985], [116.34744880000001, 39.980028299999994], [116.34749340000002, 39.97912819999999], [116.34750510000002, 39.9789847], [116.34751479999998, 39.9788651], [116.3475308, 39.978676300000004], [116.3475274, 39.97835919999999], [116.3474831, 39.9776306], [116.34753240000002, 39.976696399999994], [116.34767109999999, 39.9762586], [116.34763120000001, 39.975997299999996], [116.3475168, 39.975637299999995], [116.34734559999998, 39.975308399999996], [116.3461952, 39.9752955], [116.3460401, 39.975293799999996], [116.34565580000002, 39.975258700000005], [116.34422460000002, 39.97523939999999], [116.34212930000001, 39.97522349999999], [116.34204830000002, 39.9752224], [116.342634, 39.97522049999999], [116.3435029, 39.97517539999998], [116.34361957726748, 39.97515112727345], [116.3439634, 39.9750796], [116.34526182865409, 39.97502728640677], [116.34396870000002, 39.9749911], [116.34286822649054, 39.97498230927657], [116.3433764, 39.97496619999999], [116.34402460000001, 39.97490539999999], [116.3453001, 39.974835199999994], [116.34584629999999, 39.9748051], [116.34672159999998, 39.9747935], [116.34709078522464, 39.974796996727385], [116.34724835044163, 39.974798488743794], [116.34698220000001, 39.9742708], [116.3468963, 39.97397540000001], [116.3468762, 39.9735287], [116.34695130000001, 39.9718495], [116.3469875, 39.9703191], [116.34704220000002, 39.96898070000001], [116.347054, 39.968772599999994], [116.34724380000002, 39.96789690000001], [116.3473067, 39.9671179], [116.34731875137211, 39.96651200745077], [116.34715883911164, 39.96651124743204], [116.34716281170643, 39.96640059946847], [116.34716472368349, 39.966347345365904], [116.34716678836119, 39.9662898379961], [116.34716919255492, 39.966222873957236], [116.34717065633083, 39.96618210331163], [116.34720630000001, 39.9651893], [116.3470514, 39.96423659999999], [116.3469898, 39.9638749], [116.3469973, 39.96368019999999], [116.34702810000002, 39.96289530000001], [116.34704370000001, 39.9624989], [116.34723029999999, 39.95945210000001], [116.3472461, 39.959114299999996], [116.34727830000001, 39.9588019], [116.347367, 39.958504899999994], [116.3473934, 39.95841660000001], [116.34754800000002, 39.9581113], [116.3482695, 39.95695939999999], [116.3482994, 39.9569117], [116.34838720000002, 39.95678839999999], [116.34856850516987, 39.95674971915377], [116.34862368329054, 39.95665238422108], [116.3484624, 39.9566814], [116.34850899999999, 39.95662180000001], [116.34866176479504, 39.95658520776528], [116.34886970000001, 39.95653539999999], [116.34894516148258, 39.95651732719023], [116.3490768, 39.956485799999996], [116.34907849999999, 39.95643830000001], [116.34908180000001, 39.9563444], [116.349087, 39.95611319999998], [116.3491435, 39.9548478], [116.3492085, 39.953897700000006], [116.34921500000002, 39.953725600000006], [116.34926240000001, 39.95247769999999], [116.3492889, 39.951835300000006], [116.3493103, 39.9516304], [116.34934199999998, 39.95132649999999], [116.34945590000001, 39.9508534], [116.34952460000001, 39.950605499999995], [116.3503379, 39.95064579999999], [116.3509612, 39.95068630000001], [116.3514322, 39.9507815], [116.3520834, 39.95086559999999], [116.3524668, 39.94960450000001], [116.35252670000001, 39.949316399999994], [116.3525462, 39.9488461], [116.3520383, 39.94884040000001], [116.3508014, 39.94862209999999], [116.3509126, 39.94812730000001], [116.350633, 39.94713689999999], [116.35071630000002, 39.94670099999998], [116.35065249999998, 39.9467048], [116.35058408246582, 39.94670796616613], [116.3506058, 39.94662950000001], [116.35082340000001, 39.9465095], [116.3508810016223, 39.94649421608453], [116.35084179999998, 39.9464374], [116.3512818, 39.946335000000005], [116.35345460000002, 39.946202400000004], [116.35399170000001, 39.94625360000001], [116.35393521899677, 39.94632053115577], [116.35418670746162, 39.94643473170533], [116.3542433, 39.9463871], [116.35432149999998, 39.94630369999999], [116.35450829999999, 39.9460913], [116.3551755, 39.9454243], [116.3558545676292, 39.94474541421605], [116.35592620000001, 39.94467379999999], [116.35608439999999, 39.94451569999999], [116.3560899896402, 39.94451011036964], [116.35585390000001, 39.94433999999999], [116.35547342219475, 39.94414931579749], [116.3553417, 39.944083299999996], [116.35440780000002, 39.94375879999998], [116.35419193695463, 39.943688781036535], [116.35413532307375, 39.94367301085218], [116.35216090000002, 39.94312299999999], [116.3525924, 39.943200399999995], [116.35218130000001, 39.9430442], [116.35151310000002, 39.9428831], [116.3511008, 39.94276479999999], [116.35078389999998, 39.9426306], [116.35051509999998, 39.9424698], [116.3502849, 39.94230050000001], [116.35016317087702, 39.94219540035084], [116.35016534569037, 39.9422527267463], [116.3499715, 39.9420874], [116.34984122737337, 39.941951623149365], [116.3498587, 39.9419815], [116.3498789, 39.94201799999999], [116.34989840000001, 39.9420545], [116.3499085, 39.942073699999995], [116.34991820000002, 39.9420929], [116.34992639999999, 39.942110500000005], [116.34993630000001, 39.9421332], [116.3499484, 39.9421624], [116.34995849999999, 39.94218920000001], [116.34997139999999, 39.9422223], [116.3499816, 39.9422505], [116.34999029999999, 39.9422742], [116.34999770000002, 39.942296799999994], [116.3500044, 39.942319899999994], [116.3500117, 39.9423474], [116.35001810000001, 39.9423721], [116.3500246, 39.9424005], [116.35003, 39.94242959999999], [116.35003529999999, 39.942459500000005], [116.3500386, 39.94248530000001], [116.35003913230067, 39.9424895864227], [116.3500606, 39.9425017], [116.3501084, 39.94252760000001], [116.3501539, 39.94254999999999], [116.35017702601144, 39.94256060961191], [116.35018040100692, 39.94264957106235], [116.35079286483636, 39.94287581374401], [116.3504117, 39.942766], [116.35018240032404, 39.942702270940174], [116.35005657774052, 39.942667300936336], [116.3499328402741, 39.942632910283784], [116.3499295, 39.942601], [116.3499245572601, 39.94255506159473], [116.34964178201926, 39.94245060259312], [116.34965450000001, 39.9424756], [116.34967110000001, 39.94250980000001], [116.34968849999998, 39.9425434], [116.34969243921564, 39.94255134962509], [116.349687, 39.9425484], [116.3496681, 39.9425375], [116.3496511, 39.9425264], [116.3496364, 39.942514900000006], [116.3496219, 39.94250209999999], [116.34960860000001, 39.9424893], [116.3495953, 39.94247560000001], [116.34958310000002, 39.94246199999999], [116.3495604, 39.942434600000006], [116.34954165112642, 39.942413613353175], [116.34887380000002, 39.94216690000001], [116.3484672, 39.9413067], [116.34853116438413, 39.94071159648771], [116.34814590000002, 39.9406275], [116.3481216, 39.940623599999995], [116.34805729999998, 39.94061129999999], [116.34802870000001, 39.94060679999999], [116.347995, 39.940602399999996], [116.3479878, 39.940601], [116.3479736, 39.940598599999994], [116.34796000000001, 39.9405966], [116.3479441, 39.9405944], [116.347919, 39.9405902], [116.347884, 39.9405849], [116.34782980000001, 39.940578800000004], [116.34774940000001, 39.9405764], [116.3476873, 39.940579899999996], [116.3476256, 39.9405893], [116.34756930000002, 39.9406007], [116.34750700000001, 39.94061990000001], [116.3474282, 39.9406523], [116.3473736, 39.9406899], [116.34734100000001, 39.9407189], [116.34729810000002, 39.9407699], [116.3472647, 39.940835099999994], [116.34723060000002, 39.9409073], [116.34719870000002, 39.9409749], [116.3471573, 39.94106260000001], [116.3471243, 39.94113230000001], [116.3470846, 39.9412164], [116.34696099999998, 39.94149620000001], [116.34675278410191, 39.94145257026426], [116.34664506882922, 39.941429999346525], [116.34653888882502, 39.94140775002042], [116.3464291, 39.9416932], [116.34630736571543, 39.94217255126935], [116.346235, 39.94215359999999], [116.34598650000001, 39.94191289999999], [116.34582019999999, 39.94181079999999], [116.3456934, 39.941732899999984], [116.34568439999998, 39.9420719], [116.34560140000002, 39.9422605], [116.3455631122337, 39.94231373793373], [116.3454076, 39.9420839], [116.34517299933826, 39.94188594440565], [116.34514450000002, 39.9419455], [116.3449998, 39.94217280000001], [116.34493400000001, 39.9422397], [116.34482050000001, 39.94235499999999], [116.34472999999998, 39.94243600000001], [116.34446679999999, 39.94258510000001], [116.34437830000002, 39.94262299999998], [116.34414430000001, 39.94272299999999], [116.3439172, 39.942819799999995], [116.34378210000001, 39.942868499999996], [116.34384900000002, 39.94299529999999], [116.3439902, 39.94295199999999], [116.3440557, 39.9430706], [116.34391090000001, 39.94311209999999], [116.3438378, 39.943383299999994], [116.3437277, 39.943791899999994], [116.3437271, 39.9440072], [116.343691, 39.94413649999999], [116.3435597, 39.9446062], [116.3426182, 39.947974499999994], [116.34245300000002, 39.9485654], [116.3423845, 39.9488105], [116.34232049999999, 39.949044799999996], [116.34173539999999, 39.9511862], [116.3415375, 39.951926], [116.3414772, 39.9521002], [116.3413339, 39.952525599999994], [116.3412971, 39.952658099999994], [116.34120520000002, 39.952996699999986], [116.3411869, 39.95305559999999], [116.34064549999998, 39.9548451], [116.34050200000001, 39.9553453], [116.34036490000001, 39.95579390000002], [116.34031839999999, 39.9559459], [116.34006399999998, 39.95667060000001], [116.3400281, 39.9567729], [116.34019059999999, 39.9567698], [116.34148160000001, 39.95674519999999], [116.34167250469483, 39.95674345625907], [116.34170886537929, 39.95666451570841], [116.3417676, 39.95653699999999], [116.34180067604252, 39.95647257474111], [116.3417976, 39.956493999999985], [116.3417757, 39.95658970000001], [116.34175708882469, 39.95665441230051], [116.34175486064657, 39.956662159816034], [116.34183264728546, 39.956658175517454], [116.34190049999998, 39.95665470000001], [116.3419273751105, 39.95665407906352], [116.34199422555763, 39.95665253448903], [116.34194757502081, 39.95673934311384], [116.34190696265, 39.95681491555249], [116.3418410523076, 39.95681547353252], [116.34181430000001, 39.9568157], [116.34174682193678, 39.95681898214385], [116.3415741, 39.95714259999999], [116.3416389, 39.956986], [116.3416786, 39.95687939999999], [116.34170034627176, 39.95682124270463], [116.341679078525, 39.956822277154465], [116.3416352163611, 39.956824410570064], [116.3413846, 39.956836599999995], [116.34081469999998, 39.95686439999999], [116.3406095, 39.9568736], [116.34022060000001, 39.95688599999999], [116.3401481, 39.95689360000001], [116.3400019, 39.9568857], [116.33996590000001, 39.956957800000005], [116.339942, 39.957005699999996], [116.3386537, 39.959586], [116.3384001, 39.95988270000001], [116.3382732, 39.9600112], [116.33819459999998, 39.96008089999999], [116.33796100000002, 39.9602736], [116.3371701, 39.96084669999999], [116.3369861, 39.9609423], [116.3361215, 39.9615975], [116.3361041, 39.96171489999999], [116.33469959999998, 39.96278780000001], [116.33441500000002, 39.96299969999999], [116.33433370000002, 39.963068199999995], [116.33423210000001, 39.96315859999999], [116.3341305, 39.96324899999999], [116.3340146, 39.96336109999999], [116.3339394, 39.96344529999999], [116.33382550000002, 39.96359170000001], [116.3337381, 39.96372410000001], [116.3336324, 39.963879899999995], [116.33356740000002, 39.96399679999999], [116.33348809999998, 39.9641495], [116.3334393, 39.9642679], [116.33339260000001, 39.96440650000001], [116.33336410000001, 39.9645203], [116.3333316, 39.9646543], [116.33330920000002, 39.9648007], [116.33329090000001, 39.964947200000005], [116.33317210000001, 39.9659632], [116.3331703, 39.96597819999999], [116.3331608, 39.9660597], [116.33332600000001, 39.9660609], [116.33404673163774, 39.966066345191706], [116.3335193, 39.96609480000001], [116.33315236492146, 39.9661014980854], [116.33313520739593, 39.96618651807869], [116.33313328243007, 39.966196056770436], [116.33311156242122, 39.96630368470327], [116.3330826, 39.9664472], [116.33306830000001, 39.966595999999996], [116.3330669, 39.966610299999985], [116.33300469999999, 39.967255699999995], [116.3329359, 39.96777699999999], [116.3327312, 39.969326900000006], [116.33271729999998, 39.9694318], [116.33231909999999, 39.970880199999996], [116.3322751, 39.9712926], [116.3321056, 39.972682799999994], [116.33205149999999, 39.9731291], [116.3318395, 39.974876399999985], [116.33182470000001, 39.9749877], [116.33182541682702, 39.97507004550728], [116.33210299631878, 39.975074668539484], [116.33351050000002, 39.97509809999999], [116.33386436313843, 39.97507600589336], [116.33387031109089, 39.975043245511394], [116.33388616585421, 39.97495591982001], [116.33393472436761, 39.974955170784874], [116.33415302507198, 39.97495180315473], [116.33421530000001, 39.97461319999999], [116.3342789518123, 39.97437005043814], [116.33423599999999, 39.974549800000005], [116.3341809, 39.9748256], [116.33415783152279, 39.97495172900308], [116.33421599003475, 39.97495083174513], [116.33419982361227, 39.97503738376237], [116.3344968, 39.97503210000001], [116.33455996545419, 39.97503257146873], [116.33419648307141, 39.97505526836774], [116.3341852315392, 39.97511550680833], [116.3341707712062, 39.975192924359106], [116.33416619626328, 39.97521741759321], [116.33410934417144, 39.975216836424366], [116.33409920000001, 39.97527230000001], [116.33389340000001, 39.97641189999999], [116.33380126918956, 39.976892978283054], [116.3340363, 39.975586699999994], [116.33408950000002, 39.9752972], [116.3341042899583, 39.975216784756476], [116.33389061639656, 39.97521460022607], [116.33383930634467, 39.97521407558979], [116.33384502502298, 39.97518255057661], [116.33385200000001, 39.97514410000001], [116.3338568639907, 39.97511730996663], [116.33367649999998, 39.97511829999999], [116.33182010000002, 39.9751624], [116.33154975116878, 39.97516774287775], [116.33275652969685, 39.9751941327562], [116.3318237, 39.97522359999999], [116.33043860000001, 39.975246999999996], [116.33006509999998, 39.9752595], [116.3297828, 39.975268899999996], [116.3296392, 39.975284], [116.32910610000002, 39.975300299999994], [116.3290015, 39.9753231], [116.3290013, 39.9753738], [116.32900110000001, 39.975415799999986], [116.3289835, 39.97688360000001], [116.3287922, 39.9768776], [116.327698, 39.9768436], [116.3276637, 39.97753869999999], [116.32749830000002, 39.97988779999999], [116.327472, 39.98141840000001], [116.3273755, 39.9833702], [116.3274103, 39.98358809999998], [116.327351, 39.984348399999995], [116.3273343, 39.984482], [116.32842360000001, 39.9845417], [116.3288051, 39.9845641], [116.3290379, 39.9845762], [116.33009260000001, 39.984623100000015], [116.3317256, 39.984714200000006], [116.33212671497523, 39.98472657243343], [116.33216070519582, 39.98472762080137], [116.33215370000002, 39.98476990000001], [116.33213969692169, 39.9848543898095], [116.33211268196366, 39.9850173882519], [116.3320831351989, 39.985195661758894], [116.33206536320155, 39.985302890499014], [116.33203199218083, 39.985301968864285], [116.3320108, 39.985430699999995], [116.331941, 39.9858773], [116.33192242765037, 39.986053572897305], [116.3319392, 39.98603990000001], [116.33196260792666, 39.9860143285492], [116.33194666813047, 39.986154472125705], [116.331908411592, 39.986186600720174], [116.33187930000001, 39.98646289999999], [116.3318619, 39.9866283], [116.3318362, 39.987386400000005], [116.33175569999999, 39.989386499999995], [116.33175462185702, 39.98941201476605], [116.3313514, 39.98939560000001], [116.3312827, 39.98939279999999], [116.33084269999999, 39.9913526], [116.33083610000001, 39.9913819], [116.33082800000001, 39.991417899999995], [116.33081489999998, 39.991488899999986], [116.3308435, 39.99157769999999], [116.33086399999999, 39.991659399999996], [116.33088169999999, 39.99171489999999], [116.3310794, 39.9923361], [116.33118380000002, 39.9926874], [116.33129630000002, 39.993065999999985], [116.33133650000002, 39.9932588], [116.331352, 39.99336650000001], [116.3313621, 39.993467700000004], [116.33136029999999, 39.9936198], [116.3313352, 39.9941338], [116.3312155, 39.9960896], [116.3311455, 39.997282299999995], [116.3311372, 39.99742249999999], [116.33113110000001, 39.99752419999999], [116.33112130000002, 39.997658], [116.3311044, 39.99788849999999], [116.3311042, 39.99794589999999], [116.33105159999998, 39.9989766], [116.33104519999999, 39.9991033], [116.33104107193608, 39.99922457336827], [116.33136260708815, 39.99923358317344], [116.33136725151716, 39.99910795086145], [116.33140782460259, 39.99910853577768], [116.33145389999999, 39.9991092], [116.33147626105301, 39.99910971258224], [116.33152287277481, 39.99911078104847], [116.33155860000001, 39.9991116], [116.3316183930287, 39.99911476315788], [116.33161197970107, 39.99924057028107], [116.33254830000001, 39.999266799999994], [116.3327213, 39.99927160000001], [116.33263600000001, 39.9992808], [116.3327238, 39.99929399999999], [116.33254899999999, 39.999290099999996], [116.33190244915781, 39.999275743999824], [116.33161051712933, 39.999269260764066], [116.33151701122266, 39.99926718402623], [116.33146970616275, 39.999266133366405], [116.33140218577662, 39.999264633684525], [116.33136149261034, 39.99926372983766], [116.33104007355871, 39.99925659020987], [116.33103860000001, 39.9993062], [116.3309464, 40.001695000000005], [116.33092850000001, 40.00225089999999], [116.33092960000002, 40.0022702], [116.3309305, 40.00236639999999], [116.33092840000002, 40.002441000000005], [116.33080750000002, 40.0054852], [116.33077330000002, 40.005532999999986], [116.330742, 40.005890199999996], [116.3306583, 40.0063234], [116.3305023, 40.00673040000001], [116.3304519, 40.006839], [116.3302341, 40.00726410000001], [116.3299038, 40.0076799], [116.3296668, 40.00796940000001], [116.32963309999998, 40.0080268], [116.32956010000001, 40.0081394], [116.32942630000001, 40.008255600000005], [116.32909110000001, 40.008546800000005], [116.3288524, 40.00875719999999], [116.32874070000001, 40.008840299999996], [116.3284841, 40.00903989999999], [116.32724399999998, 40.01011160000001], [116.3262714, 40.011006], [116.32556010000002, 40.01165780000001], [116.3245973, 40.01250019999999], [116.3244388, 40.012606999999996], [116.32423190000002, 40.01273609999999], [116.32398690000001, 40.0128183], [116.32378649999998, 40.0128506], [116.3235603, 40.012853799999995], [116.32338949999999, 40.0128355]], [[116.32134270000002, 40.015989899999994], [116.32135140204183, 40.015982808151094], [116.32138407722752, 40.01595617903903], [116.32139688658289, 40.01596889803472], [116.32148312378763, 40.01605452674617], [116.32152287211599, 40.01609399451539], [116.32149129821973, 40.016121453671516], [116.32147327131807, 40.016137131276345], [116.32142946442342, 40.01610237221586], [116.32138979999999, 40.016070899999995], [116.32132530388354, 40.01602807503405], [116.3213107938468, 40.01601844045983], [116.32134270000002, 40.015989899999994]], [[116.3310654, 40.013602899999995], [116.33107169999998, 40.01351320000001], [116.33116430000001, 40.0135121], [116.33124770000002, 40.013513799999984], [116.33124409999999, 40.01360249999999], [116.3310654, 40.013602899999995]], [[116.34208289999998, 39.9750072], [116.34207990939083, 39.975007213213004], [116.34207920000001, 39.974976], [116.34286822649054, 39.97498230927657], [116.34208289999998, 39.9750072]], [[116.3507858, 39.9486666], [116.35067226665102, 39.948643968888256], [116.35045470000001, 39.9486006], [116.35019190000001, 39.948537], [116.3504696, 39.94856239999999], [116.35068368026275, 39.94860091908265], [116.3508014, 39.94862209999999], [116.3507858, 39.9486666]], [[116.34635771351822, 39.94218573641368], [116.3463313, 39.94225510000001], [116.3462506, 39.94243869999998], [116.346271, 39.94233700000001], [116.3462093, 39.9424207], [116.3462911, 39.942236599999994], [116.34630736571543, 39.94217255126935], [116.34635771351822, 39.94218573641368]], [[116.3337945, 39.976930599999996], [116.33378690636803, 39.9769679758053], [116.33380126918956, 39.976892978283054], [116.3337945, 39.976930599999996]], [[116.3337716, 39.9770479], [116.33376176102837, 39.97709174069123], [116.33378690636803, 39.9769679758053], [116.3337716, 39.9770479]], [[116.33378461832544, 39.999317038428956], [116.33378117096233, 39.999299965772], [116.33377090000002, 39.9992491], [116.33393209999998, 39.999251099999995], [116.33393930974263, 39.999302993908806], [116.33425300000002, 39.999309000000004], [116.33434729999999, 39.99931120000001], [116.33448200000001, 39.9993338], [116.33425340000001, 39.999326], [116.33394167815266, 39.99932004111013], [116.33394979999998, 39.99937849999999], [116.33379610000001, 39.9993739], [116.33378461832544, 39.999317038428956]], [[116.32249138116956, 40.01973789727586], [116.32237995226927, 40.01970061237322], [116.32240510000001, 40.0198199], [116.32249683608352, 40.02001107318614], [116.3224442, 40.0199438], [116.32236, 40.01980689999999], [116.32232173960482, 40.01968113394302], [116.32227189992943, 40.01951730484093], [116.32234660404505, 40.01954242528126], [116.32244964149827, 40.019577073145456], [116.32249138116956, 40.01973789727586]], [[116.3225733, 40.020108799999996], [116.3226236, 40.02018470000001], [116.32261989999999, 40.020233600000005], [116.32260311259704, 40.02023254645515], [116.32249683608352, 40.02001107318614], [116.3225733, 40.020108799999996]], [[116.32262892896347, 40.02028634583738], [116.3224749, 40.020224500000005], [116.32260311259704, 40.02023254645515], [116.32262892896347, 40.02028634583738]], [[116.31947036665234, 40.018789950985905], [116.31941537823145, 40.01877485761867], [116.3194687554894, 40.01864455762229], [116.31952520697806, 40.01866041196224], [116.31947036665234, 40.018789950985905]], [[116.32193050000001, 40.017742199999994], [116.3219192, 40.01768529999999], [116.32190222959514, 40.01759543355946], [116.32192743143001, 40.01755414896242], [116.3219937126236, 40.01786849968662], [116.32197304588404, 40.0179041174272], [116.32193050000001, 40.017742199999994]], [[116.33899567252942, 39.96649225820766], [116.33897600813845, 39.96649209153362], [116.338869162561, 39.96649118585954], [116.33882512194005, 39.96649081252156], [116.33885033816682, 39.96632786878027], [116.33886998918149, 39.9662008860959], [116.3385163, 39.9661984], [116.3378622, 39.96619329999999], [116.33750946445049, 39.966190656971925], [116.337828, 39.9661897], [116.3388722, 39.96618659999999], [116.33889014149217, 39.966070800429726], [116.33889533758817, 39.96603726324892], [116.3389252324551, 39.96603839209586], [116.33905106836819, 39.96604314364565], [116.3390695, 39.9659329], [116.33916330000001, 39.965329200000006], [116.33918656003723, 39.96517893159455], [116.339076, 39.966009899999996], [116.33907085648875, 39.966043890830356], [116.3391111802109, 39.96604541341358], [116.34008952986352, 39.96608235059581], [116.3392749, 39.966078200000005], [116.33910664665557, 39.96607496435503], [116.33908852327534, 39.966193097186036], [116.33949889197419, 39.966205421339204], [116.3392705, 39.966203699999994], [116.33908709429883, 39.96620241160219], [116.3390675159955, 39.96633002747409], [116.33904256613481, 39.966492655661156], [116.33899567252942, 39.96649225820766]], [[116.3318269, 39.9915993], [116.3318231, 39.9916748], [116.33175883334333, 39.99304646541668], [116.33181553599472, 39.991599050894955], [116.33172299988945, 39.99159702241272], [116.33167642004301, 39.99159600130878], [116.3316772, 39.9915751], [116.33167964808358, 39.991509673805176], [116.33172594472887, 39.99151081211814], [116.33181890313449, 39.99151309766534], [116.3318312, 39.9915134], [116.33190469109297, 39.99151530312419], [116.33190204684838, 39.99160113926199], [116.3318269, 39.9915993]], [[116.3323759166637, 39.98531146684576], [116.33230590164236, 39.98530953336066], [116.33229714724168, 39.98534370449538], [116.3323023572691, 39.98530943548065], [116.33231838615043, 39.985204005104], [116.33234513204263, 39.98502808254997], [116.33236988900123, 39.98486524146271], [116.33238973764797, 39.98473468463964], [116.33242089942169, 39.98473564569863], [116.33246089722414, 39.9847368792569], [116.3324823, 39.984673599999994], [116.33250882350633, 39.9845643720385], [116.3325655, 39.984205599999996], [116.33258835945827, 39.984060914027026], [116.3325992, 39.98399229999999], [116.3326552, 39.9836098], [116.3328932, 39.98227789999999], [116.33300109072947, 39.98166965131494], [116.33265240000001, 39.9837554], [116.33262280000001, 39.9839329], [116.3325776, 39.9842032], [116.3325671, 39.98426599999999], [116.3325559, 39.984332099999996], [116.33252799999998, 39.98448539999998], [116.3325084, 39.98460159999999], [116.33249820000002, 39.9846625], [116.33248405046409, 39.984737593311564], [116.33245920480364, 39.984869451840325], [116.33245510726366, 39.984891197864016], [116.33243151753572, 39.985032056755564], [116.33240222316641, 39.98520697832854], [116.33238468370241, 39.985311708947094], [116.3323759166637, 39.98531146684576]], [[116.3325287, 39.98405019999999], [116.33253520000001, 39.9838618], [116.33253508624277, 39.983841993589486], [116.33257050000002, 39.98362899999999], [116.33262168830505, 39.983342128018585], [116.33260950000002, 39.9836442], [116.3325144, 39.984198], [116.3325287, 39.98405019999999]], [[116.33730489999999, 39.9752203], [116.33765161314476, 39.97523642475306], [116.33727679153824, 39.9752376118473], [116.33730489999999, 39.9752203]], [[116.33427230000001, 39.991574199999995], [116.3342574, 39.991657399999994], [116.3341584, 39.9916531], [116.3341782, 39.99156949999999], [116.33427230000001, 39.991574199999995]], [[116.3345037, 39.9853687], [116.33450837349649, 39.98528661633922], [116.33451740444423, 39.98512799929779], [116.33452657729167, 39.984966889122596], [116.33463412552624, 39.984971956959775], [116.33462622801443, 39.98513300371424], [116.33461847833138, 39.98529103508778], [116.3346144, 39.98537420000001], [116.33461340000001, 39.98539499999999], [116.33460950000001, 39.98544319999999], [116.3344996, 39.9854469], [116.3345037, 39.9853687]], [[116.3345412, 39.9846981], [116.33454320000001, 39.98462469999998], [116.33464960000002, 39.98462889999999], [116.33464730000001, 39.98470330000001], [116.33464447505875, 39.98476090706845], [116.33453848854124, 39.984754255759405], [116.3345412, 39.9846981]], [[116.3451669, 39.9508696], [116.3449938, 39.951186299999996], [116.3447964, 39.9515476], [116.3449674, 39.95118099999999], [116.3451669, 39.9508696]], [[116.34474460000001, 39.95152869999998], [116.34493939999999, 39.9511734], [116.3451143, 39.9508543], [116.3449674, 39.95118099999999], [116.34474460000001, 39.95152869999998]], [[116.34044160000002, 39.9786628], [116.34040860000002, 39.9786626], [116.34040980000002, 39.9786269], [116.34049809999999, 39.97862729999999], [116.3404964, 39.97864369999999], [116.3404684, 39.9786439], [116.3404688, 39.978653400000006], [116.34044179999998, 39.9786531], [116.34044160000002, 39.9786628]], [[116.3404517, 39.97860380000001], [116.3404152, 39.97860380000001], [116.3404139, 39.9785685], [116.3405012, 39.9785687], [116.34050140000001, 39.97858320000001], [116.34047770000001, 39.97858279999999], [116.3404769, 39.9785939], [116.3404539, 39.9785926], [116.3404517, 39.97860380000001]], [[116.3455953, 40.012748699999996], [116.3456059, 40.0126039], [116.3457001, 40.01261099999999], [116.34568730000001, 40.012750800000006], [116.3455953, 40.012748699999996]]]}}]}