{
  "type": "FeatureCollection",
  "name": "roads",
  "features": [
    {
      "type": "Feature",
      "id": "RD-SPINE",
      "properties": {
        "id": "RD-SPINE",
        "layer": "ROAD_CENTERLINE",
        "source_type": "agent_generated_design",
        "confidence": "medium",
        "geometry_role": "design_proposal",
        "road_class": "greenway",
        "name_zh": "感知主脊慢行绿道（概念）",
        "length_m": 9271.7
      },
      "geometry": {
        "type": "LineString",
        "coordinates": [
          [
            116.3475,
            39.941
          ],
          [
            116.3475,
            40.024499999999996
          ]
        ]
      }
    },
    {
      "type": "Feature",
      "id": "RD-CROSS-1",
      "properties": {
        "id": "RD-CROSS-1",
        "layer": "ROAD_CENTERLINE",
        "source_type": "agent_generated_design",
        "confidence": "medium",
        "geometry_role": "design_proposal",
        "road_class": "pedestrian",
        "name_zh": "东西缝合感知步行廊道1（概念）",
        "length_m": 1162.0
      },
      "geometry": {
        "type": "LineString",
        "coordinates": [
          [
            116.3407,
            39.963499999999996
          ],
          [
            116.3543,
            39.963499999999996
          ]
        ]
      }
    },
    {
      "type": "Feature",
      "id": "RD-CROSS-2",
      "properties": {
        "id": "RD-CROSS-2",
        "layer": "ROAD_CENTERLINE",
        "source_type": "agent_generated_design",
        "confidence": "medium",
        "geometry_role": "design_proposal",
        "road_class": "pedestrian",
        "name_zh": "东西缝合感知步行廊道2（概念）",
        "length_m": 1095.9
      },
      "geometry": {
        "type": "LineString",
        "coordinates": [
          [
            116.3407,
            39.987125
          ],
          [
            116.35353,
            39.987125
          ]
        ]
      }
    },
    {
      "type": "Feature",
      "id": "RD-CROSS-3",
      "properties": {
        "id": "RD-CROSS-3",
        "layer": "ROAD_CENTERLINE",
        "source_type": "agent_generated_design",
        "confidence": "medium",
        "geometry_role": "design_proposal",
        "road_class": "pedestrian",
        "name_zh": "东西缝合感知步行廊道3（概念）",
        "length_m": 1066.0
      },
      "geometry": {
        "type": "LineString",
        "coordinates": [
          [
            116.34176097560976,
            40.00725
          ],
          [
            116.35424520547946,
            40.00725
          ]
        ]
      }
    },
    {
      "type": "Feature",
      "id": "RD-HUB-1",
      "properties": {
        "id": "RD-HUB-1",
        "layer": "ROAD_CENTERLINE",
        "source_type": "agent_generated_design",
        "confidence": "medium",
        "geometry_role": "design_proposal",
        "road_class": "transit_connection",
        "name_zh": "大钟寺接驳慢行接驳（概念）",
        "length_m": 683.7
      },
      "geometry": {
        "type": "LineString",
        "coordinates": [
          [
            116.34349999999999,
            39.9495
          ],
          [
            116.3515,
            39.9495
          ]
        ]
      }
    },
    {
      "type": "Feature",
      "id": "RD-HUB-2",
      "properties": {
        "id": "RD-HUB-2",
        "layer": "ROAD_CENTERLINE",
        "source_type": "agent_generated_design",
        "confidence": "medium",
        "geometry_role": "design_proposal",
        "road_class": "transit_connection",
        "name_zh": "原点社区接驳慢行接驳（概念）",
        "length_m": 683.4
      },
      "geometry": {
        "type": "LineString",
        "coordinates": [
          [
            116.34349999999999,
            39.97575
          ],
          [
            116.3515,
            39.97575
          ]
        ]
      }
    },
    {
      "type": "Feature",
      "id": "RD-HUB-3",
      "properties": {
        "id": "RD-HUB-3",
        "layer": "ROAD_CENTERLINE",
        "source_type": "agent_generated_design",
        "confidence": "medium",
        "geometry_role": "design_proposal",
        "road_class": "transit_connection",
        "name_zh": "众智园接驳慢行接驳（概念）",
        "length_m": 683.2
      },
      "geometry": {
        "type": "LineString",
        "coordinates": [
          [
            116.34349999999999,
            40.002
          ],
          [
            116.3515,
            40.002
          ]
        ]
      }
    }
  ]
}
